201801310000 AAXX 31001 11968 12970 00001 11022 21045 39974 40268 52004 60001 333 55074
201801302300 AAXX 30231 11968 42970 00402 11017 21047 39976 40269
201801302200 AAXX 30221 11968 42970 03401 10003 21049 39970 40261
201801302100 AAXX 30211 11968 42970 00001 11011 21046 39970 40262 52006
201801302000 AAXX 30201 11968 42970 00001 11009 21046 39968 40260
201801301900 AAXX 30191 11968 42980 00002 10021 21048 39968 40257
201801301800 AAXX 30181 11968 12980 00002 10023 21040 39964 40253 52009 69922 333 10089
201801301700 AAXX 30171 11968 42884 11903 10022 21043 39960 40249 81500 333 81657
201801301600 AAXX 30161 11968 42884 20002 10056 21054 39960 40245 82500 333 82657
201801301500 AAXX 30151 11968 42884 23405 10067 21050 39955 40239 52012 82531 333 82657
201801301400 AAXX 30141 11968 42784 23407 10076 21054 39951 40234 82501 333 82656
201801301300 AAXX 30131 11968 42784 23408 10081 21047 39945 40227 82501 333 82656
201801301200 AAXX 30121 11968 11784 23406 10085 21043 39943 40225 52014 69921 70264 82500 333 82656
201801301100 AAXX 30111 11968 42782 23408 10082 21046 39941 40223 82500 333 82656
201801301000 AAXX 30101 11968 42782 23310 10081 21047 39940 40222 82501 333 82656
201801300900 AAXX 30091 11968 41682 23308 10081 21043 39929 40211 52033 70164 82500 333 82646
201801300800 AAXX 30081 11968 42682 30002 10044 20041 39922 40207 82530 333 82645
201801300700 AAXX 30071 11968 41570 60303 10028 20025 39916 40202 74064 86500 333 81720 86656
201801300600 AAXX 30061 11968 11002 73403 10019 20016 39896 40183 53006 60002 74622 85602 333 20006 31104 70000 85701 83070
201801300500 AAXX 30051 11968 41003 80001 10019 20015 39888 40174 74642 886 333 88701
201801300400 AAXX 30041 11968 41115 80002 10023 20019 39887 40173 71022 886 333 88702
201801300300 AAXX 30031 11968 41130 80002 10022 20016 39890 40176 50001 71022 886 333 88702
201801300200 AAXX 30021 11968 41150 60104 10031 20025 39897 40182 71011 86600 333 82703 86709
201801300100 AAXX 30011 11968 41450 20001 10035 20026 39890 40175 71000 81602 333 81710
201801300000 AAXX 30001 11968 11340 22103 10031 20027 39889 40174 57030 60001 71000 82600 333 55002 82708
201801292300 AAXX 29231 11968 41332 32002 10015 20009 39904 40192 71000 83600 333 83708
201801292200 AAXX 29221 11968 41432 31903 10006 20000 39910 40199 71000 83600 333 83714
201801292100 AAXX 29211 11968 41435 30001 10023 20016 39919 40206 57012 71011 83600 333 83715
201801292000 AAXX 29201 11968 41456 60001 10032 20022 39925 40211 71022 86600 333 86715
201801291900 AAXX 29191 11968 42460 81802 10052 20038 39928 40212 886 333 88717
201801291800 AAXX 29181 11968 12460 81902 10059 20044 39931 40214 57017 60002 886 333 10073 88712
201801291700 AAXX 29171 11968 42460 82202 10060 20043 39935 40218 886 333 88716
201801291600 AAXX 29161 11968 42460 81702 10062 20042 39941 40224 886 333 88716
201801291500 AAXX 29151 11968 42460 72002 10058 20036 39948 40232 57023 87600 333 87715
201801291400 AAXX 29141 11968 42460 72504 10065 20038 39955 40239 87600 333 87715
201801291300 AAXX 29131 11968 41459 70001 10066 20036 39958 40242 71022 87600 333 87713
201801291200 AAXX 29121 11968 11457 70001 10052 20029 39971 40256 57016 60001 71022 87600 333 87710
201801291100 AAXX 29111 11968 41358 82202 10036 20021 39978 40265 71022 886 333 88707
201801291000 AAXX 29101 11968 41340 81701 10036 20021 39984 40272 71022 886 333 88707
201801290900 AAXX 29091 11968 41350 81401 10030 20018 39987 40275 54000 71022 886 333 88707
201801290800 AAXX 29081 11968 41350 82001 10025 20013 39987 40276 71022 886 333 88707
201801290700 AAXX 29071 11968 41250 80001 10022 20013 39987 40276 71022 886 333 88706
201801290600 AAXX 29061 11968 11256 82101 10021 20012 39987 40276 55003 60002 71022 886 333 20004 31000 70000 88706
201801290500 AAXX 29051 11968 41256 81902 10015 20008 39984 40274 71022 886 333 88706
201801290400 AAXX 29041 11968 41240 81602 10014 20007 39987 40277 71022 886 333 88706
201801290300 AAXX 29031 11968 41240 81602 10013 20006 39990 40280 57010 71022 886 333 88706
201801290200 AAXX 29021 11968 41258 80001 10018 20008 39993 40283 71022 8763 333 87706
201801290100 AAXX 29011 11968 41358 80001 10011 20001 39997 40288 71022 8763 333 87707
201801290000 AAXX 29001 11968 11356 81902 10008 20001 30000 40291 58009 60001 71022 8463 333 84707 87357
201801282300 AAXX 28231 11968 41450 82102 10007 21002 30005 40296 71022 8163 333 81710 87358
201801282200 AAXX 28221 11968 41340 81902 10005 21002 30009 40301 71022 81631 333 81708 85358
201801282100 AAXX 28211 11968 41340 81701 10009 21001 30009 40300 58003 71022 84530 333 81709 83650
201801282000 AAXX 28201 11968 41440 70001 10016 20003 30015 40306 71022 86501 333 82610 84650
201801281900 AAXX 28191 11968 41435 80102 10013 20003 30015 40306 71022 885 333 82611 86650
201801281800 AAXX 28181 11968 11540 80001 10011 20004 30012 40303 52003 60002 71022 885 333 10039 82633 86650
201801281700 AAXX 28171 11968 41340 60002 10007 20000 30011 40302 71022 86500 333 82709 84650
201801281600 AAXX 28161 11968 41340 51802 11001 21009 30011 40303 71022 85600 333 82709 84656
201801281500 AAXX 28151 11968 41440 61602 10015 20002 30009 40300 55006 71022 82630 333 82715 84358
201801281400 AAXX 28141 11968 41456 62004 10038 20012 30008 40296 71022 83630 333 83712 85358
201801281300 AAXX 28131 11968 41456 72004 10035 20010 30012 40300 71022 84610 333 84715 86459
201801281200 AAXX 28121 11968 11456 70002 10032 20003 30015 40304 57012 60001 71022 85630 333 85715 85359
201801281100 AAXX 28111 11968 41456 72304 10036 20005 30017 40306 71022 87500 333 84712 87633
201801281000 AAXX 28101 11968 41450 71903 10028 21008 30022 40312 71022 87500 333 84715 87633
201801280900 AAXX 28091 11968 41445 72102 10019 21012 30027 40318 55005 71022 87500 333 82715 87633
201801280800 AAXX 28081 11968 41545 72102 10016 21015 30026 40317 71022 87500 333 87633
201801280700 AAXX 28071 11968 41640 71802 10006 21010 30031 40323 71022 87500 333 87635
201801280600 AAXX 28061 11968 11638 81902 10004 21010 30032 40324 55003 60002 71022 885 333 20001 3000 45998 70000 88646
201801280500 AAXX 28051 11968 41650 81402 10002 21009 30031 40324 71022 885 333 88642
201801280400 AAXX 28041 11968 41656 80000 10003 21011 30036 40329 71022 885 333 88645
201801280300 AAXX 28031 11968 41557 81901 10008 21013 30035 40327 57012 71022 885 333 82632 88646
201801280200 AAXX 28021 11968 41657 82701 10007 21010 30040 40332 71022 885 333 88646
201801280100 AAXX 28011 11968 41657 80002 10003 21010 30045 40338 71022 885 333 88646
201801280000 AAXX 28001 11968 12660 80000 10010 21009 30047 40339 50000 60001 885 333 55005 88646
201801272300 AAXX 27231 11968 42660 83101 10016 21010 30048 40340 885 333 88647
201801272200 AAXX 27221 11968 42660 80000 10013 21011 30048 40340 885 333 88646
201801272100 AAXX 27211 11968 42660 80000 10012 21012 30047 40339 50000 885 333 88645
201801272000 AAXX 27201 11968 42660 83601 10018 21014 30048 40339 885 333 88644
201801271900 AAXX 27191 11968 42660 80201 10019 21017 30047 40338 885 333 88644
201801271800 AAXX 27181 11968 12660 83602 10019 21019 30047 40338 52013 60002 885 333 10035 41998 88643
201801271700 AAXX 27171 11968 41658 83603 10021 21020 30044 40335 71022 885 333 88643
201801271600 AAXX 27161 11968 42660 63001 10023 21017 30038 40329 86500 333 86640
201801271500 AAXX 27151 11968 42660 60000 10019 21014 30034 40325 53004 85501 333 85640
201801271400 AAXX 27141 11968 42662 50000 10023 21015 30032 40322 84501 333 84640
201801271300 AAXX 27131 11968 42660 41301 10026 21008 30029 40319 81501 333 81640 84070
201801271200 AAXX 27121 11968 11659 50101 10030 21014 30030 40320 52003 60001 71022 84501 333 82635 83070
201801271100 AAXX 27111 11968 41658 70001 10019 21019 30029 40320 71022 87500 333 82639 85646
201801271000 AAXX 27101 11968 42665 70000 10011 21018 30029 40321 87500 333 87645
201801270900 AAXX 27091 11968 42665 60001 10006 21024 30027 40319 52018 86500 333 86644
201801270800 AAXX 27081 11968 42662 60202 11005 21025 30022 40315 86500 333 86646
201801270700 AAXX 27071 11968 42662 63603 11012 21034 30017 40311 86500 333 86644
201801270600 AAXX 27061 11968 12660 63502 11018 21035 30009 40303 52014 60002 86500 333 21023 3104 46002 70000 86643
201801270500 AAXX 27051 11968 42660 60102 11020 21039 30002 40296 86500 333 86642
201801270400 AAXX 27041 11968 42660 73301 11019 21039 30000 40294 87500 333 87642
201801270300 AAXX 27031 11968 41659 83302 11015 21035 39995 40289 52006 71022 875 333 87642
201801270200 AAXX 27021 11968 41658 83502 11011 21033 39991 40284 71022 875 333 87640
201801270100 AAXX 27011 11968 41557 83602 11002 21027 39992 40284 71022 885 333 81631 88641
201801270000 AAXX 27001 11968 11559 80000 10002 21028 39989 40280 52011 60001 71022 885 333 55000 88631
201801262300 AAXX 26231 11968 41657 81802 10007 21025 39984 40275 71022 885 333 88638
201801262200 AAXX 26221 11968 41658 82601 10006 21024 39982 40273 71022 885 333 88634
201801262100 AAXX 26211 11968 41558 82001 10005 21024 39978 40269 52008 71022 885 333 88633
201801262000 AAXX 26201 11968 41559 80001 10007 21027 39977 40268 71022 885 333 88626
201801261900 AAXX 26191 11968 41558 80601 10003 21022 39974 40265 71022 885 333 88626
201801261800 AAXX 26181 11968 12562 71202 10001 21020 39970 40261 52011 60002 87500 333 10009 42002 85626 87643
201801261700 AAXX 26171 11968 42560 80001 10004 21021 39966 40257 885 333 88628
201801261600 AAXX 26161 11968 42560 82202 10006 21021 39964 40254 885 333 88630
201801261500 AAXX 26151 11968 42560 80001 10006 21026 39959 40249 53001 885 333 88630
201801261400 AAXX 26141 11968 42560 80000 10006 21021 39956 40246 885 333 88631
201801261300 AAXX 26131 11968 42560 80001 10002 21028 39957 40248 885 333 88632
201801261200 AAXX 26121 11968 12560 83601 11002 21031 39958 40249 55005 60001 885 333 88633
201801261100 AAXX 26111 11968 41557 81001 11006 21030 39957 40248 71022 885 333 88633
201801261000 AAXX 26101 11968 41556 81101 11011 21033 39961 40253 71022 885 333 88633
201801260900 AAXX 26091 11968 41556 81602 11013 21035 39963 40255 52004 71022 885 333 88633
201801260800 AAXX 26081 11968 41556 80001 11012 21029 39961 40253 71022 885 333 88633
201801260700 AAXX 26071 11968 41557 80001 11015 21032 39960 40252 71022 885 333 88632
201801260600 AAXX 26061 11968 11658 80000 11018 21034 39959 40252 52002 60002 71022 885 333 21071 3109 46002 70000 88643
201801260500 AAXX 26051 11968 41658 80000 11026 21040 39956 40250 71022 885 333 88640
201801260400 AAXX 26041 11968 41657 81901 11029 21043 39956 40250 71022 885 333 88640
201801260300 AAXX 26031 11968 41657 83601 11037 21054 39957 40252 57012 71011 885 333 88641
201801260200 AAXX 26021 11968 41657 43501 11042 21057 39961 40257 71000 84500 333 84640
201801260100 AAXX 26011 11968 41130 23502 11052 21066 39966 40263 71000 81601 333 81702
201801260000 AAXX 26001 11968 11956 23602 11050 21064 39969 40266 58005 60001 71000 80001 333 55007 82070
201801252300 AAXX 25231 11968 41956 23101 11050 21062 39973 40270 71000 80001 333 82070
201801252200 AAXX 25221 11968 42960 00301 11042 21057 39975 40271
201801252100 AAXX 25211 11968 42960 02602 11038 21056 39974 40270 57009
201801252000 AAXX 25201 11968 42960 00000 11054 21074 39978 40276
201801251900 AAXX 25191 11968 42965 02601 11023 21045 39981 40275
201801251800 AAXX 25181 11968 12965 22702 11018 21041 39983 40277 57003 60002 80002 333 10010 46002 82070
201801251700 AAXX 25171 11968 42965 31602 11016 21043 39984 40277 80002 333 83070
201801251600 AAXX 25161 11968 42965 40001 11009 21034 39984 40277 80002 333 84070
201801251500 AAXX 25151 11968 42982 52303 10002 21035 39986 40277 57011 80006 333 85270
201801251400 AAXX 25141 11968 4282 62203 10006 21035 39987 40278 81036 333 81360 86270
201801251300 AAXX 25131 11968 4282 60002 10010 21027 39991 40282 82032 333 82360 85070
201801251200 AAXX 25121 11968 1282 52203 10005 21030 39997 40288 57014 60001 82032 333 82360 84070
201801251100 AAXX 25111 11968 42481 62004 10000 21034 30003 40295 81632 333 81715 84070
201801251000 AAXX 25101 11968 42475 51804 11006 21033 30010 40303 83602 333 83714 83070
201801250900 AAXX 25091 11968 42470 72005 11011 21033 30011 40305 58001 87600 333 87714
201801250800 AAXX 25081 11968 42470 82004 11012 21032 30012 40306 886 333 87711 88717
201801250700 AAXX 25071 11968 42465 72004 11013 21032 30012 40306 87600 333 85710 87717
201801250600 AAXX 25061 11968 11460 82005 11013 21030 30012 40306 56006 69922 70277 886 333 21013 3102 47004 70011 86712 88715
201801250500 AAXX 25051 11968 42460 81906 11011 21028 30012 40306 886 333 88714
201801250400 AAXX 25041 11968 42460 81905 11008 21019 30010 40303 886 333 88712
201801250300 AAXX 25031 11968 41456 81904 11005 21018 30018 40311 57006 72077 886 333 88717
201801250200 AAXX 25021 11968 41340 81905 11001 21014 30020 40313 77777 886 333 88708
201801250100 AAXX 25011 11968 41230 82004 10000 21007 30023 40316 77777 886 333 88705
201801250000 AAXX 25001 11968 11118 82004 11001 21006 30024 40317 57008 69921 77777 886 333 55000 88702
201801242300 AAXX 24231 11968 41113 81905 11002 21008 30027 40320 77777 886 333 88702
201801242200 AAXX 24221 11968 41113 81904 11002 21008 30031 40324 77777 886 333 88702
201801242100 AAXX 24211 11968 41118 81906 11003 21008 30032 40325 57008 77777 886 333 88702
201801242000 AAXX 24201 11968 41118 82005 11005 21010 30036 40330 77777 886 333 88702
201801241900 AAXX 24191 11968 41118 81906 11006 21012 30038 40332 77777 886 333 88702
201801241800 AAXX 24181 11968 11116 81905 11007 21014 30040 40334 58001 69992 77772 886 333 11005 47004 88703
201801241700 AAXX 24171 11968 41514 81905 11007 21014 30041 40335 77722 886 333 88730
201801241600 AAXX 24161 11968 41218 81804 11010 21017 30042 40336 77777 886 333 88706
201801241500 AAXX 24151 11968 41212 81904 11012 21020 30041 40336 58002 77772 886 333 88706
201801241400 AAXX 24141 11968 41318 81904 11012 21023 30043 40338 77077 885 333 84708 88635
201801241300 AAXX 24131 11968 41218 81805 11013 21026 30042 40337 77072 886 333 82706 84617 88635
201801241200 AAXX 24121 11968 11457 81905 11009 21034 30043 40337 58006 60001 71022 885 333 82714 88635
201801241100 AAXX 24111 11968 41559 82105 11007 21039 30047 40341 71022 885 333 88630
201801241000 AAXX 24101 11968 41558 82304 11009 21041 30049 40344 71022 885 333 88633
201801240900 AAXX 24091 11968 41558 82104 11010 21038 30049 40344 52010 71022 885 333 88630
201801240800 AAXX 24081 11968 41557 82104 11015 21040 30047 40342 71022 885 333 88627
201801240700 AAXX 24071 11968 41457 82303 11017 21040 30044 40339 71022 885 333 85714 88630
201801240600 AAXX 24061 11968 11457 82102 11019 21041 30039 40334 52010 60002 71022 885 333 21047 3106 47004 70000 85716 88650
201801240500 AAXX 24051 11968 41557 81802 11029 21044 30037 40333 71022 885 333 83625 88650
201801240400 AAXX 24041 11968 41640 81701 11035 21046 30033 40330 71022 885 333 88645
201801240300 AAXX 24031 11968 41656 80000 11035 21049 30029 40326 53005 71022 885 333 88645
201801240200 AAXX 24021 11968 41658 81901 11032 21050 30026 40322 71022 885 333 88645
201801240100 AAXX 24011 11968 41658 82201 11028 21050 30026 40322 71022 885 333 88645
201801240000 AAXX 24001 11968 12760 81101 11035 21053 30024 40321 52007 60001 885 333 55070 88650
201801232300 AAXX 23231 11968 42760 81601 11032 21054 30023 40319 885 333 88650
201801232200 AAXX 23221 11968 42760 81301 11027 21057 30022 40318 885 333 88650
201801232100 AAXX 23211 11968 41758 82001 11028 21054 30017 40313 52016 71022 885 333 88650
201801232000 AAXX 23201 11968 41757 81001 11030 21052 30011 40307 71022 8753 333 87650
201801231900 AAXX 23191 11968 42760 70302 11022 21053 30006 40301 83530 333 82650 86357
201801231800 AAXX 23181 11968 12460 62701 11027 21057 30001 40296 52019 60002 81630 333 10021 47004 81714 86357
201801231700 AAXX 23171 11968 42465 73101 11023 21060 39997 40292 875 333 81714 87657
201801231600 AAXX 23161 11968 42865 60000 11033 21066 39990 40286 86500 333 86657
201801231500 AAXX 23151 11968 42965 11202 11021 21068 39982 40276 52016 80001 333 81070
201801231400 AAXX 23141 11968 42970 10001 10004 21060 39976 40267 80001 333 81070
201801231300 AAXX 23131 11968 42970 00001 10018 21060 39969 40258
201801231200 AAXX 23121 11968 12970 00001 11012 21065 39966 40258 51010 60001
201801231100 AAXX 23111 11968 42970 01301 11023 21068 39966 40260
201801231000 AAXX 23101 11968 42970 00001 11038 21076 39962 40257
201801230900 AAXX 23091 11968 42970 00001 11060 21087 39956 40254 52027
201801230800 AAXX 23081 11968 42970 00001 11063 21089 39945 40243
201801230700 AAXX 23071 11968 4270 23402 11070 21089 39937 40235 82030 333 82361
201801230600 AAXX 23061 11968 1270 53301 11078 21094 39929 40228 52019 60002 85030 333 21113 3113 47006 70000 85361
201801230500 AAXX 23051 11968 4270 60001 11061 21078 39921 40218 86030 333 86361
201801230400 AAXX 23041 11968 4265 62401 11075 21091 39915 40213 86030 333 86362
201801230300 AAXX 23031 11968 42465 62501 11070 21088 39910 40207 52011 81630 333 81713 86361
201801230200 AAXX 23021 11968 4270 60001 11072 21090 39907 40204 86030 333 86361
201801230100 AAXX 23011 11968 4270 50001 11068 21090 39904 40201 85030 333 85362
201801230000 AAXX 23001 11968 1270 43502 11070 21091 39899 40196 52005 60001 84030 333 55061 84363
201801222300 AAXX 22231 11968 4270 53102 11087 21108 39895 40194 85030 333 85364
201801222200 AAXX 22221 11968 4270 43401 11063 21087 39893 40189 84050 333 84364
201801222100 AAXX 22211 11968 4270 13201 11074 21096 39894 40191 52011 81030 333 81362
201801222000 AAXX 22201 11968 4270 10001 11105 21131 39890 40191 81030 333 81360
201801221900 AAXX 22191 11968 42975 03401 11056 21082 39887 40182
201801221800 AAXX 22181 11968 1270 13402 11041 21080 39883 40176 50005 60002 81030 333 10001 43007 81363
201801221700 AAXX 22171 11968 42970 00103 11026 21073 39883 40175
201801221600 AAXX 22161 11968 42980 03504 11018 21073 39884 40175
201801221500 AAXX 22151 11968 42680 13605 11010 21069 39878 40168 55001 81500 333 81640
201801221400 AAXX 22141 11968 42680 13606 11002 21066 39875 40164 81500 333 81640
201801221300 AAXX 22131 11968 42675 10107 11005 21061 39874 40163 81500 333 81640
201801221200 AAXX 22121 11968 12970 03607 10000 21064 39879 40168 58004 60001
201801221100 AAXX 22111 11968 42670 13608 11001 21069 39878 40167 81500 333 81640
201801221000 AAXX 22101 11968 42570 13608 11005 21061 39883 40172 81500 333 81630
201801220900 AAXX 22091 11968 42570 50107 11012 21062 39883 40173 52009 85500 333 85630
201801220800 AAXX 22081 11968 42570 20208 11019 21061 39878 40169 82500 333 82630
201801220700 AAXX 22071 11968 42570 23609 11018 21062 39876 40166 82500 333 82630
201801220600 AAXX 22061 11968 11665 23610 11016 21054 39874 40164 52014 60002 70133 82500 333 21018 3104 43008 70011 82635
201801220500 AAXX 22051 11968 41565 30109 11015 21053 39869 40159 73633 83500 333 83620
201801220400 AAXX 22041 11968 41565 43612 11011 21046 39865 40154 73633 84500 333 84620
201801220300 AAXX 22031 11968 41565 40113 11009 21048 39860 40149 52016 73633 84500 333 84620
201801220200 AAXX 22021 11968 41565 40111 11008 21043 39858 40147 73633 84500 333 84624
201801220100 AAXX 22011 11968 41565 40112 11004 21041 39849 40137 73633 84500 333 84623
201801220000 AAXX 22001 11968 11562 53614 11001 21033 39844 40132 52013 69901 73672 85500 333 55000 85620
201801212300 AAXX 21231 11968 41570 53611 10008 21026 39840 40126 72277 85500 333 85624
201801212200 AAXX 21221 11968 41465 53609 10009 21018 39836 40122 77177 85800 333 81818 85622
201801212100 AAXX 21211 11968 41765 53609 10010 21016 39831 40117 52015 77172 85500 333 81650 85656
201801212000 AAXX 21201 11968 41465 83608 10013 21014 39826 40112 72277 885 333 81712 88657
201801211900 AAXX 21191 11968 41662 83607 10012 21010 39820 40105 77177 885 333 82636 88656
201801211800 AAXX 21181 11968 11545 83606 10007 21006 39816 40102 52012 60012 77122 885 333 10008 43008 85627 88648
201801211700 AAXX 21171 11968 41456 80105 10004 21010 39812 40098 77177 885 333 82710 88650
201801211600 AAXX 21161 11968 41445 80105 10001 21009 39808 40094 77177 885 333 82710 88645
201801211500 AAXX 21151 11968 41338 80204 10000 21008 39804 40090 52013 77177 8462 333 84707 88540
201801211400 AAXX 21141 11968 41320 80204 10000 21007 39799 40085 77177 8462 333 84708 88523
201801211300 AAXX 21131 11968 41225 80001 10002 21009 39793 40079 77172 8462 333 84705 88523
201801211200 AAXX 21121 11968 11460 80802 10006 21015 39791 40076 57004 69981 72274 885 333 84717 88622
201801211100 AAXX 21111 11968 4145 80703 10008 21013 39792 40077 77177 8802 333 88521
201801211000 AAXX 21101 11968 41430 80203 10000 21006 39794 40080 77177 8462 333 84710 88523
201801210900 AAXX 21091 11968 41318 83603 11003 21007 39795 40081 52004 77174 8662 333 86707 88520
201801210800 AAXX 21081 11968 41210 80102 11007 21011 39794 40081 77174 8662 333 86705 88510
201801210700 AAXX 21071 11968 41107 80601 11012 21016 39792 40079 77144 8662 333 86703 88506
201801210600 AAXX 21061 11968 11108 81301 11013 21017 39791 40078 57007 60042 77142 8662 333 21013 3102 43008 70035 86702 88517
201801210500 AAXX 21051 11968 41114 80001 11011 21015 39792 40079 77177 886 333 88702
201801210400 AAXX 21041 11968 41112 81301 11010 21014 39795 40082 77177 886 333 88702
201801210300 AAXX 21031 11968 41212 81301 11011 21015 39798 40085 55008 77177 886 333 88705
201801210200 AAXX 21021 11968 41412 80000 11013 21017 39797 40084 77177 886 333 88710
201801210100 AAXX 21011 11968 41010 81802 11012 21016 39801 40088 77177 886 333 88701
201801210000 AAXX 21001 11968 11225 81902 11007 21011 39806 40093 57010 60031 77172 886 333 55012 88705
201801202300 AAXX 20231 11968 41113 82003 11008 21012 39810 40097 77077 886 333 88702
201801202200 AAXX 20221 11968 41112 81802 11009 21014 39809 40096 77077 886 333 88702
201801202100 AAXX 20211 11968 41117 81803 11006 21012 39816 40103 57008 77022 886 333 88703
201801202000 AAXX 20201 11968 41250 82003 11004 21014 39820 40107 77022 886 333 88706
201801201900 AAXX 20191 11968 42362 70001 11008 21018 39822 40110 87600 333 87707
201801201800 AAXX 20181 11968 11362 70002 10000 21014 39824 40111 57003 60002 70172 87600 333 10006 41998 87708
201801201700 AAXX 20171 11968 41359 82003 10001 21013 39827 40114 71022 885 333 85708 88621
201801201600 AAXX 20161 11968 41256 81902 10001 21012 39827 40114 71022 886 333 85706 88710
201801201500 AAXX 20151 11968 41245 81803 10000 21010 39827 40114 57008 72222 876 333 87706
201801201400 AAXX 20141 11968 41348 82002 10002 21009 39830 40117 77177 885 333 83707 87620
201801201300 AAXX 20131 11968 4130 82303 10000 21013 39831 40118 77122 8802 333 88525
201801201200 AAXX 20121 11968 12475 72303 10004 21023 39835 40122 57020 60001 82510 333 81711 87457
201801201100 AAXX 20111 11968 42765 60002 10000 21020 39842 40129 82532 333 82650 84070
201801201000 AAXX 20101 11968 41357 71502 11012 21026 39853 40142 71022 87500 333 81707 87650
201801200900 AAXX 20091 11968 42370 62202 11006 21028 39855 40143 52010 83636 333 83707 84270
201801200800 AAXX 20081 11968 42870 10001 11028 21046 39852 40143 81501 333 81657
201801200700 AAXX 20071 11968 42264 13502 11047 21059 39849 40142 81601 333 81704
201801200600 AAXX 20061 11968 12460 30101 11052 21064 39845 40138 50002 60002 82501 333 21057 3109 41998 70000 81710
201801200500 AAXX 20051 11968 42660 20001 11042 21056 39846 40138 82500 333 82645
201801200400 AAXX 20041 11968 42660 32502 11052 21067 39844 40137 83500 333 83640
201801200300 AAXX 20031 11968 42760 23001 11036 21047 39843 40134 50000 82500 333 82650
201801200200 AAXX 20021 11968 42765 51001 11036 21050 39844 40136 85500 333 85656
201801200100 AAXX 20011 11968 42765 50001 11037 21055 39846 40138 85500 333 85656
201801200000 AAXX 20001 11968 12965 02001 11035 21049 39843 40134 52013 60001 333 55024
201801192300 AAXX 19231 11968 42965 00001 11015 21045 39840 40129
201801192200 AAXX 19221 11968 42965 03603 11028 21051 39836 40126
201801192100 AAXX 19211 11968 42965 00001 11019 21039 39830 40119 52012
201801192000 AAXX 19201 11968 4265 10001 10000 21027 39826 40113 81030 333 81357
201801191900 AAXX 19191 11968 42765 30202 10002 21022 39823 40110 81530 333 81656 83357
201801191800 AAXX 19181 11968 12770 63404 10017 21017 39818 40103 52019 60002 85530 333 10037 41998 81656 85657
201801191700 AAXX 19171 11968 42770 60002 10004 21020 39810 40096 85530 333 85650 83357
201801191600 AAXX 19161 11968 42770 60001 10016 21018 39806 40091 86530 333 86656
201801191500 AAXX 19151 11968 42770 60002 10032 21021 39799 40082 52012 85530 333 85656 83360
201801191400 AAXX 19141 11968 42770 62404 10035 21016 39795 40077 84530 333 84656 85360
201801191300 AAXX 19131 11968 42770 72405 10036 21019 39787 40069 87500 333 87656
201801191200 AAXX 19121 11968 12770 72405 10035 21018 39787 40069 52014 60001 82531 333 82650 83361 85070
201801191100 AAXX 19111 11968 4270 51905 10025 21011 39783 40066 82031 333 82363 84070
201801191000 AAXX 19101 11968 4270 22003 10025 21016 39782 40065 82030 333 82360
201801190900 AAXX 19091 11968 4270 12103 10011 21020 39773 40057 52020 81040 333 81360
201801190800 AAXX 19081 11968 42770 22802 11023 21045 39769 40057 81540 333 81650
201801190700 AAXX 19071 11968 42770 10603 11029 21043 39761 40049 81540 333 81650
201801190600 AAXX 19061 11968 12470 10001 11034 21048 39753 40042 52019 69932 81600 333 21044 3109 44002 70003 81715
201801190500 AAXX 19051 11968 42970 01503 11026 21036 39744 40031
201801190400 AAXX 19041 11968 42970 00002 11027 21037 39741 40028
201801190300 AAXX 19031 11968 4270 42307 10005 21020 39734 40018 50000 84030 333 83364
201801190200 AAXX 19021 11968 4265 62306 11001 21018 39729 40013 86070 333 86364
201801190100 AAXX 19011 11968 4265 82103 11009 21023 39735 40020 8802 333 88464
201801190000 AAXX 19001 11968 11265 82205 11006 21019 39734 40019 57019 69931 70372 8362 333 55018 83705 88462
201801182300 AAXX 18231 11968 42460 62305 11004 21018 39741 40026 86600 333 86710
201801182200 AAXX 18221 11968 42260 71905 11001 21008 39743 40028 87500 333 85705 85640
201801182100 AAXX 18211 11968 41260 72006 11001 21008 39753 40038 57017 72277 87500 333 85706 85630
201801182000 AAXX 18201 11968 41465 72204 10003 21026 39767 40052 77077 87500 333 82715 84625 86650
201801181900 AAXX 18191 11968 41565 62107 10004 21023 39760 40045 77072 86500 333 84625 86650
201801181800 AAXX 18181 11968 12665 62006 10008 21031 39770 40054 57030 60002 86500 333 10011 42001 86640
201801181700 AAXX 18171 11968 42665 31905 11009 21034 39775 40061 82530 333 81640
201801181600 AAXX 18161 11968 42565 52006 11006 21031 39788 40074 81532 333 81630 83362
201801181500 AAXX 18151 11968 42570 62006 11001 21031 39800 40086 57015 81552 333 81630 85360
201801181400 AAXX 18141 11968 42570 31904 11010 21016 39805 40092 81532 333 81620
201801181300 AAXX 18131 11968 42462 12002 11014 21018 39808 40096 81600 333 81710
201801181200 AAXX 18121 11968 11018 21102 11023 21028 39815 40104 57011 60001 71011 82600 333 82701
201801181100 AAXX 18111 11968 41007 71802 11033 21040 39823 40114 74244 87600 333 82701 85703
201801181000 AAXX 18101 11968 41003 71803 11039 21046 39825 40116 74644 87600 333 87701
201801180900 AAXX 18091 11968 41101 71802 11036 21043 39826 40117 52027 74444 87600 333 87702
201801180800 AAXX 18081 11968 41001 70001 11041 21048 39817 40108 74444 87600 333 87701
201801180700 AAXX 18071 11968 41001 71102 11043 21050 39807 40098 74444 87600 333 87701
201801180600 AAXX 18061 11968 11001 80001 11060 21069 39799 40092 52021 60002 74422 886 333 21070 3109 43001 70000 88701
201801180500 AAXX 18051 11968 41001 73202 11045 21053 39792 40083 74622 87600 333 87701
201801180400 AAXX 18041 11968 41018 30202 11048 21058 39785 40076 74011 83600 333 83701
201801180300 AAXX 18031 11968 41020 80001 11043 21050 39778 40068 52019 74022 886 333 88701
201801180200 AAXX 18021 11968 41120 70001 11046 21053 39773 40064 74022 87600 333 87702
201801180100 AAXX 18011 11968 41032 60001 11058 21066 39766 40058 74022 86500 333 84701 85656
201801180000 AAXX 18001 11968 11156 70001 11038 21046 39759 40048 52022 60001 71022 87600 333 55000 87703
201801172300 AAXX 17231 11968 41258 60001 11039 21047 39751 40040 71022 83630 333 83704 86364
201801172200 AAXX 17221 11968 41358 60001 11045 21053 39742 40031 71022 84530 333 82708 86364
201801172100 AAXX 17211 11968 41358 62702 11033 21048 39737 40025 52027 71022 84530 333 82708 84656 85366
201801172000 AAXX 17201 11968 41259 70202 11024 21035 39725 40012 71022 85620 333 85706 87466
201801171900 AAXX 17191 11968 41258 80402 11016 21030 39716 40001 71022 886 333 88706
201801171800 AAXX 17181 11968 11258 80103 11012 21025 39710 49995 51008 60002 71022 886 333 11003 43001 88706
201801171700 AAXX 17171 11968 42260 80302 11009 21022 39707 49991 886 333 88706
201801171600 AAXX 17161 11968 42260 80402 11010 21023 39704 49988 886 333 88706
201801171500 AAXX 17151 11968 42362 83603 11009 21028 39702 49986 52013 886 333 88708
201801171400 AAXX 17141 11968 42362 80001 11005 21024 39701 49985 886 333 88707
201801171300 AAXX 17131 11968 41335 80001 11007 21023 39696 49980 71022 886 333 88707
201801171200 AAXX 17121 11968 11225 83602 11011 21022 39689 49973 57013 60001 71022 886 333 88705
201801171100 AAXX 17111 11968 41118 83202 11016 21026 39704 49989 71022 886 333 88703
201801171000 AAXX 17101 11968 41220 80104 11020 21031 39698 49983 71022 886 333 88704
201801170900 AAXX 17091 11968 41225 83604 11026 21040 39702 49988 52006 71022 886 333 88705
201801170800 AAXX 17081 11968 41222 80001 11028 21041 39701 49987 71022 886 333 88704
201801170700 AAXX 17071 11968 41220 83502 11030 21041 39695 49981 71022 886 333 88704
201801170600 AAXX 17061 11968 11110 80001 11030 21037 39696 49982 57016 69982 71022 886 333 21057 3108 47002 70028 88703
201801170500 AAXX 17051 11968 41129 81802 11031 21041 39702 49989 71022 886 333 88703
201801170400 AAXX 17041 11968 41248 82102 11030 21040 39714 40001 71022 886 333 88704
201801170300 AAXX 17031 11968 41250 81802 11038 21048 39712 40000 55000 71022 886 333 86706 88712
201801170200 AAXX 17021 11968 41356 81802 11047 21058 39701 49989 71022 886 333 88708
201801170100 AAXX 17011 11968 41357 61502 11055 21069 39707 49996 71022 85630 333 85709
201801170000 AAXX 17001 11968 11456 81603 11033 21048 39712 40001 57014 69981 71077 886 333 55000 86712
201801162300 AAXX 16231 11968 41245 82204 11035 21046 39720 40008 71022 886 333 86706 88618
201801162200 AAXX 16221 11968 41238 82003 11036 21047 39722 40010 72277 885 333 86705 88626
201801162100 AAXX 16211 11968 4116 82102 11037 21048 39726 40014 57017 77177 8802 333 88505
201801162000 AAXX 16201 11968 4150 82002 11037 21048 39729 40017 77177 8802 333 88506
201801161900 AAXX 16191 11968 41248 82002 11040 21048 39742 40031 77177 8572 333 85704 88508
201801161800 AAXX 16181 11968 1123 80002 11041 21051 39743 40032 57029 60022 77172 8802 333 11031 47002 88510
201801161700 AAXX 16171 11968 41458 81703 11040 21052 39752 40041 77177 886 333 88712
201801161600 AAXX 16161 11968 41357 81603 11038 21053 39759 40048 77122 886 333 88709
201801161500 AAXX 16151 11968 41462 81603 11035 21055 39772 40061 57027 72277 886 333 88712
201801161400 AAXX 16141 11968 41450 81503 11036 21056 39780 40070 77177 886 333 88710
201801161300 AAXX 16131 11968 41435 82103 11033 21046 39796 40086 77177 886 333 88714
201801161200 AAXX 16121 11968 11330 81804 11032 21046 39799 40089 57046 60011 77177 886 333 88708
201801161100 AAXX 16111 11968 41318 81906 11035 21049 39821 40112 77777 886 333 88708
201801161000 AAXX 16101 11968 41340 81906 11035 21049 39834 40125 77777 886 333 88708
201801160900 AAXX 16091 11968 41330 81503 11041 21051 39845 40137 57022 77777 886 333 88707
201801160800 AAXX 16081 11968 41450 81503 11041 21058 39853 40145 77777 886 333 88710
201801160700 AAXX 16071 11968 41358 81405 11039 21059 39859 40151 77777 886 333 88709
201801160600 AAXX 16061 11968 11257 81704 11035 21049 39867 40159 57028 60002 77122 886 333 21060 34106 88706
201801160500 AAXX 16051 11968 41458 82004 11035 21050 39874 40166 77122 886 333 88713
201801160400 AAXX 16041 11968 41457 81905 11037 21052 39886 40179 71022 885 333 85710 88630
201801160300 AAXX 16031 11968 41350 81904 11040 21055 39895 40188 57030 71022 885 333 85709 88633
201801160200 AAXX 16021 11968 41356 81904 11039 21056 39908 40202 71022 885 333 86707 88633
201801160100 AAXX 16011 11968 41356 82302 11040 21054 39916 40210 71022 885 333 86708 88638
201801160000 AAXX 16001 11968 11357 81902 11041 21056 39925 40219 57023 60001 71022 885 333 55059 85707 88638
201801152300 AAXX 15231 11968 41357 81402 11048 21060 39932 40227 71022 885 333 86707 88640
201801152200 AAXX 15221 11968 42360 81502 11051 21066 39941 40237 885 333 86708 88640
201801152100 AAXX 15211 11968 42460 71502 11048 21063 39948 40244 57014 87600 333 87710
201801152000 AAXX 15201 11968 42460 71802 11045 21063 39953 40249 87600 333 87710
201801151900 AAXX 15191 11968 42462 62101 11051 21068 39959 40256 86600 333 82710 86715
201801151800 AAXX 15181 11968 12460 61803 11048 21069 39962 40258 57009 60002 86500 333 11009 86617
201801151700 AAXX 15171 11968 42480 61603 11061 21080 39967 40265 86500 333 86618
201801151600 AAXX 15161 11968 42575 31603 11059 21080 39971 40269 83500 333 83621
201801151500 AAXX 15151 11968 42582 41503 11036 21072 39971 40266 57015 83430 333 83626
201801151400 AAXX 15141 11968 42582 31602 11025 21076 39977 40271 83430 333 81828
201801151300 AAXX 15131 11968 42882 10002 11016 21081 39981 40274 81130 333 81857
201801151200 AAXX 15121 11968 12882 21602 11015 21082 39986 40280 57023 60001 81130 333 81857
201801151100 AAXX 15111 11968 4282 10001 11018 21094 39994 40288 81030 333 81358
201801151000 AAXX 15101 11968 4282 10002 11028 21086 30004 40299 81030 333 81360
201801150900 AAXX 15091 11968 4282 10203 11039 21087 30009 40306 50000 81030 333 81360
201801150800 AAXX 15081 11968 4282 13503 11058 21087 30012 40311 81030 333 81360
201801150700 AAXX 15071 11968 4282 13603 11075 21097 30012 40313 81030 333 81360
201801150600 AAXX 15061 11968 12982 03603 11076 21097 30009 40310 55003 60002 333 21078 34111 70000
201801150500 AAXX 15051 11968 42982 03602 11073 21095 30008 40309
201801150400 AAXX 15041 11968 42982 03602 11069 21093 30010 40310
201801150300 AAXX 15031 11968 42982 03602 11069 21093 30012 40312 57006
201801150200 AAXX 15021 11968 42982 00102 11066 21092 30014 40314
201801150100 AAXX 15011 11968 42982 00102 11061 21088 30016 40316
201801150000 AAXX 15001 11968 12982 00202 11063 21089 30018 40318 50000 60001 333 55071
201801142300 AAXX 14231 11968 42982 00402 11055 21086 30019 40318
201801142200 AAXX 14221 11968 42980 00502 11052 21086 30020 40319
201801142100 AAXX 14211 11968 42980 00402 11044 21083 30018 40316 52002
201801142000 AAXX 14201 11968 42980 00402 11041 21084 30017 40314
201801141900 AAXX 14191 11968 42980 03503 11037 21080 30018 40315
201801141800 AAXX 14181 11968 12980 03603 11028 21081 30016 40312 52004 60002 333 10015
201801141700 AAXX 14171 11968 42980 00401 11022 21081 30015 40310
201801141600 AAXX 14161 11968 42980 00502 11020 21083 30015 40310
201801141500 AAXX 14151 11968 42980 00402 11016 21081 30012 40306 57008
201801141400 AAXX 14141 11968 42980 00702 10004 21083 30013 40305
201801141300 AAXX 14131 11968 42980 00001 10010 21088 30015 40307
201801141200 AAXX 14121 11968 12980 00001 10005 21087 30020 40312 57010 60001
201801141100 AAXX 14111 11968 42980 00002 10001 21093 30023 40316
201801141000 AAXX 14101 11968 42980 00603 11002 21094 30027 40320
201801140900 AAXX 14091 11968 42770 10603 11006 21092 30030 40324 52006 81530 333 81656
201801140800 AAXX 14081 11968 42770 10002 11013 21083 30028 40322 81500 333 81656
201801140700 AAXX 14071 11968 42765 10602 11025 21090 30027 40323 81500 333 81656
201801140600 AAXX 14061 11968 12865 60702 11014 21093 30024 40318 52002 60002 86500 333 21015 34102 70000 86657
201801140500 AAXX 14051 11968 42865 80602 11013 21085 30024 40318 885 333 88657
201801140400 AAXX 14041 11968 42765 80503 11010 21080 30022 40316 885 333 88656
201801140300 AAXX 14031 11968 42765 70703 11013 21064 30022 40316 58001 87500 333 87656
201801140200 AAXX 14021 11968 42765 70502 11014 21067 30024 40318 87500 333 87656
201801140100 AAXX 14011 11968 42765 60603 11008 21074 30024 40318 86500 333 86656
201801140000 AAXX 14001 11968 12765 50603 11005 21075 30023 40316 58002 60001 83530 333 55000 83656 83361
201801132300 AAXX 13231 11968 42665 70603 11004 21072 30025 40318 84530 333 81645 83350 86361
201801132200 AAXX 13221 11968 42765 60602 11003 21063 30027 40320 83530 333 83656 86357
201801132100 AAXX 13211 11968 42665 80203 10000 21054 30025 40318 50005 885 333 83642 88650
201801132000 AAXX 13201 11968 42670 80204 11002 21050 30026 40319 885 333 82645 88657
201801131900 AAXX 13191 11968 42770 80000 10002 21052 30023 40316 87530 333 81650 86657
201801131800 AAXX 13181 11968 12870 80106 10002 21050 30020 40312 52009 60002 87530 333 10010 87657
201801131700 AAXX 13171 11968 42770 80107 10005 21047 30016 40308 8753 333 82650 86657
201801131600 AAXX 13161 11968 42670 73606 10006 21040 30012 40304 87500 333 87645
201801131500 AAXX 13151 11968 42680 80107 10008 21037 30011 40302 53002 885 333 88645
201801131400 AAXX 13141 11968 42670 83608 10009 21030 30009 40300 885 333 88640
201801131300 AAXX 13131 11968 42670 83607 10008 21029 30009 40300 885 333 88640
201801131200 AAXX 13121 11968 11670 80107 10008 21029 30009 40300 57007 69901 70272 885 333 88637
201801131100 AAXX 13111 11968 42665 83606 10007 21027 30012 40304 885 333 88635
201801131000 AAXX 13101 11968 42565 80105 10007 21029 30015 40307 885 333 85620 88640
201801130900 AAXX 13091 11968 41565 83605 10006 21030 30016 40308 52010 72277 885 333 88620
201801130800 AAXX 13081 11968 41560 80105 10005 21029 30012 40304 77177 885 333 88620
201801130700 AAXX 13071 11968 41560 83607 10003 21026 30010 40302 77177 885 333 88625
201801130600 AAXX 13061 11968 11560 80106 10003 21024 30006 40298 52003 69902 77172 885 333 20003 31000 85628 88640
201801130500 AAXX 13051 11968 41660 83607 10008 21031 30004 40295 77122 885 333 83634 88640
201801130400 AAXX 13041 11968 42570 83608 10010 21031 30004 40295 885 333 82625 88642
201801130300 AAXX 13031 11968 42670 80107 10009 21032 30003 40294 51002 885 333 88641
201801130200 AAXX 13021 11968 42670 83608 10010 21033 30003 40294 885 333 88643
201801130100 AAXX 13011 11968 42670 83609 10010 21035 30001 40292 885 333 88644
201801130000 AAXX 13001 11968 12670 83609 10011 21034 30001 40292 52006 60001 885 333 55000 88645
201801122300 AAXX 12231 11968 42670 83609 10013 21032 39999 40290 885 333 88642
201801122200 AAXX 12221 11968 42670 83610 10014 21033 39998 40288 885 333 88640
201801122100 AAXX 12211 11968 42670 83609 10015 21028 39995 40285 52013 885 333 88637
201801122000 AAXX 12201 11968 42670 83609 10017 21022 39994 40284 885 333 88636
201801121900 AAXX 12191 11968 42670 83609 10020 21020 39988 40278 885 333 88635
201801121800 AAXX 12181 11968 12670 83609 10023 21015 39982 40271 52012 60002 885 333 10043 88637
201801121700 AAXX 12171 11968 42670 83609 10026 21010 39977 40266 885 333 88640
201801121600 AAXX 12161 11968 42670 83610 10027 21006 39974 40262 885 333 88640
201801121500 AAXX 12151 11968 42675 83609 10028 21005 39970 40258 52012 87530 333 87637
201801121400 AAXX 12141 11968 42575 83609 10031 21002 39965 40253 8753 333 87632
201801121300 AAXX 12131 11968 42675 83509 10031 21004 39960 40248 8753 333 87635
201801121200 AAXX 12121 11968 12575 83608 10033 21002 39958 40245 51004 60001 8753 333 87630
201801121100 AAXX 12111 11968 42575 83508 10032 21001 39958 40245 87530 333 87630
201801121000 AAXX 12101 11968 42575 83608 10035 20000 39956 40243 87530 333 87630
201801120900 AAXX 12091 11968 42575 73608 10032 20001 39954 40241 52021 86530 333 86630
201801120800 AAXX 12081 11968 42570 73609 10032 20001 39945 40232 85530 333 85632 84362
201801120700 AAXX 12071 11968 42570 63608 10033 20000 39939 40226 82530 333 82632 86363
201801120600 AAXX 12061 11968 12670 63607 10035 21001 39933 40219 52010 69912 82530 333 20020 31001 70001 82635 86363
201801120500 AAXX 12051 11968 42570 63607 10036 20000 39930 40216 83530 333 83627 85360
201801120400 AAXX 12041 11968 42570 73608 10033 21002 39925 40211 87500 333 87623
201801120300 AAXX 12031 11968 42570 63608 10032 21002 39923 40209 52022 86500 333 86621
201801120200 AAXX 12021 11968 42470 20109 10025 21002 39917 40204 82600 333 82719
201801120100 AAXX 12011 11968 42470 30308 10022 21004 39911 40198 82630 333 82715
201801120000 AAXX 12001 11968 11770 80208 10031 20005 39901 40187 52010 69911 70262 8252 333 55000 82650 88463
201801112300 AAXX 11231 11968 42770 80208 10040 20015 39895 40180 8752 333 87650 88462
201801112200 AAXX 11221 11968 41665 80205 10048 20020 39890 40174 72166 8352 333 83649 88462
201801112100 AAXX 11211 11968 41765 80001 10054 20029 39891 40174 52013 76166 8452 333 84650 88458
201801112000 AAXX 11201 11968 41765 83002 10052 20034 39887 40170 76122 885 333 88656
201801111900 AAXX 11191 11968 42765 81601 10043 20031 39882 40166 8357 333 83656 87358
201801111800 AAXX 11181 11968 12765 71701 10037 20022 39878 40162 52011 60002 82570 333 10072 82656 87358
201801111700 AAXX 11171 11968 42660 60001 10055 20027 39874 40156 84530 333 82647 86359
201801111600 AAXX 11161 11968 42760 60403 10060 20026 39871 40153 82530 333 82650 86361
201801111500 AAXX 11151 11968 42660 70204 10065 20033 39867 40148 53005 87500 333 83647 86650
201801111400 AAXX 11141 11968 42560 70203 10070 20034 39865 40146 87500 333 82622 87645
201801111300 AAXX 11131 11968 42560 70303 10071 20035 39860 40140 87500 333 85622 87644
201801111200 AAXX 11121 11968 12560 80801 10063 20036 39862 40143 57006 60001 885 333 88622
201801111100 AAXX 11111 11968 42560 70001 10064 20034 39865 40146 87500 333 87623
201801111000 AAXX 11101 11968 42560 80001 10053 20030 39868 40150 885 333 88620
201801110900 AAXX 11091 11968 42460 80302 10045 20025 39868 40151 52007 886 333 88717
201801110800 AAXX 11081 11968 42460 80601 10040 20027 39867 40151 886 333 86716 88719
201801110700 AAXX 11071 11968 42460 80202 10039 20026 39864 40148 886 333 88716
201801110600 AAXX 11061 11968 11460 83201 10037 20027 39861 40145 58001 69942 70262 886 333 20029 31002 70004 88718
201801110500 AAXX 11051 11968 41560 83601 10036 20027 39861 40145 72162 885 333 88620
201801110400 AAXX 11041 11968 41460 82501 10034 20027 39863 40147 76066 886 333 86716 88620
201801110300 AAXX 11031 11968 41560 80000 10035 20023 39862 40146 56002 76062 885 333 88621
201801110200 AAXX 11021 11968 41565 83001 10038 20020 39862 40146 76066 885 333 88628
201801110100 AAXX 11011 11968 41665 83501 10038 20018 39862 40146 76062 885 333 88642
201801110000 AAXX 11001 11968 12780 80001 10032 20019 39864 40148 57008 60001 885 333 55000 88650
201801102300 AAXX 10231 11968 42780 81102 10030 20017 39867 40152 8752 333 87656 88461
201801102200 AAXX 10221 11968 42780 80001 10035 20010 39870 40154 8752 333 87650 88461
201801102100 AAXX 10211 11968 42780 82201 10038 20005 39872 40156 57006 8752 333 87656 88461
201801102000 AAXX 10201 11968 42775 80000 10034 20018 39873 40158 885 333 88656
201801101900 AAXX 10191 11968 42775 83501 10050 20009 39875 40158 885 333 88656
201801101800 AAXX 10181 11968 12775 80000 10050 20013 39878 40161 57006 60002 8552 333 10065 85656 88460
201801101700 AAXX 10171 11968 42875 83101 10045 20008 39879 40163 8552 333 85657 88463
201801101600 AAXX 10161 11968 42775 83402 10055 20003 39881 40164 8551 333 85656 88460
201801101500 AAXX 10151 11968 42782 80102 10060 20013 39884 40166 58015 885 333 88656
201801101400 AAXX 10141 11968 42782 83601 10064 20013 39888 40170 8751 333 87656 88462
201801101300 AAXX 10131 11968 42781 80202 10063 20012 39889 40171 8257 333 82656 88462
201801101200 AAXX 10121 11968 1280 80201 10062 20007 39899 40181 57023 60001 8807 333 88462
201801101100 AAXX 10111 11968 4280 70202 10058 20015 39907 40190 87070 333 87464
201801101000 AAXX 10101 11968 4270 73502 10052 20017 39916 40200 82038 333 82360 87270
201801100900 AAXX 10091 11968 4160 73402 10041 20015 39922 40207 57011 71122 83038 333 83360 86270
201801100800 AAXX 10081 11968 41457 60101 10022 20007 39926 40213 74022 81636 333 81710 84270
201801100700 AAXX 10071 11968 4275 63401 10024 20005 39930 40217 85031 333 85363
201801100600 AAXX 10061 11968 1270 53501 10027 20009 39933 40220 57013 60002 83031 333 20015 31101 70000 83363 83070
201801100500 AAXX 10051 11968 4270 53201 10029 20008 39938 40225 85030 333 85363
201801100400 AAXX 10041 11968 4270 63402 10039 20013 39940 40226 86030 333 86363
201801100300 AAXX 10031 11968 4270 63302 10039 20013 39946 40232 57022 86030 333 86365
201801100200 AAXX 10021 11968 4270 63402 10033 20013 39954 40241 86030 333 86365
201801100100 AAXX 10011 11968 4270 63001 10022 20009 39963 40251 86030 333 86365
201801100000 AAXX 10001 11968 1270 50000 10020 20004 39968 40257 57019 60001 85030 333 55038 85365
201801092300 AAXX 09231 11968 4270 32901 10026 20011 39973 40261 83030 333 83362
201801092200 AAXX 09221 11968 4270 70701 10032 20009 39983 40271 87030 333 87362
201801092100 AAXX 09211 11968 4270 72701 10041 20016 39987 40274 57006 87030 333 87362
201801092000 AAXX 09201 11968 42770 70001 10040 20015 39988 40275 87500 333 87656
201801091900 AAXX 09191 11968 42770 70001 10045 20010 39991 40278 85530 333 85650 86365
201801091800 AAXX 09181 11968 12780 73603 10049 20005 39993 40280 57011 60002 83530 333 10085 83650 86365
201801091700 AAXX 09171 11968 42980 60103 10042 20000 39999 40286 80002 333 86070
201801091600 AAXX 09161 11968 42982 73201 10046 21010 30001 40288 80006 333 87270
201801091500 AAXX 09151 11968 42982 73302 10068 21016 30004 40289 57009 80005 333 87270
201801091400 AAXX 09141 11968 42982 70402 10070 21012 30005 40290 80005 333 87270
201801091300 AAXX 09131 11968 42982 73604 10078 21022 30010 40294 80005 333 87270
201801091200 AAXX 09121 11968 12982 50204 10078 21028 30013 40297 57021 60001 80002 333 85070
201801091100 AAXX 09111 11968 42982 30304 10084 21047 30025 40309 80001 333 83070
201801091000 AAXX 09101 11968 42982 30105 10065 21046 30030 40316 80001 333 83070
201801090900 AAXX 09091 11968 42982 40205 10048 21037 30034 40322 50000 80001 333 84070
201801090800 AAXX 09081 11968 42982 40303 10027 21034 30037 40327 80001 333 84070
201801090700 AAXX 09071 11968 42983 40207 10016 21031 30035 40326 80001 333 84070
201801090600 AAXX 09061 11968 12983 10305 10018 21041 30034 40325 57005 60002 80001 333 20005 34102 70001 81070
201801090500 AAXX 09051 11968 42983 20304 10021 21036 30038 40329 80001 333 82070
201801090400 AAXX 09041 11968 42983 50404 10010 21042 30037 40329 80006 333 85270
201801090300 AAXX 09031 11968 42983 20104 10018 21041 30039 40330 50002 80005 333 82070
201801090200 AAXX 09021 11968 42982 10304 10008 21037 30043 40336 80001 333 81070
201801090100 AAXX 09011 11968 42965 00206 10022 21021 30040 40331
201801090000 AAXX 09001 11968 12965 00106 10035 21011 30037 40326 56005 60001 333 55000
201801082300 AAXX 08231 11968 4265 10107 10041 21003 30037 40326 81030 333 81360
201801082200 AAXX 08221 11968 42865 30108 10044 20002 30041 40329 82530 333 82657
201801082100 AAXX 08211 11968 42865 83607 10048 20004 30042 40330 52012 87530 333 87657
201801082000 AAXX 08201 11968 42765 80108 10049 20007 30036 40324 86530 333 83650 84657
201801081900 AAXX 08191 11968 42665 80108 10049 20007 30033 40321 87530 333 87640
201801081800 AAXX 08181 11968 12665 83607 10052 20010 30030 40317 52016 69912 86530 333 10070 86640
201801081700 AAXX 08171 11968 42565 83608 10051 20014 30026 40313 885 333 88620
201801081600 AAXX 08161 11968 42565 83609 10056 20021 30020 40306 885 333 88621
201801081500 AAXX 08151 11968 42565 80107 10062 20028 30014 40300 53003 885 333 88625
201801081400 AAXX 08141 11968 42565 80107 10065 20029 30010 40295 885 333 88623
201801081300 AAXX 08131 11968 42565 70207 10068 20032 30008 40293 87500 333 87626
201801081200 AAXX 08121 11968 11565 70205 10068 20034 30011 40296 57010 69911 70262 87500 333 87627
201801081100 AAXX 08111 11968 42565 70205 10065 20036 30016 40301 87500 333 84627
201801081000 AAXX 08101 11968 41565 70304 10059 20032 30018 40304 72166 87500 333 87626
201801080900 AAXX 08091 11968 41562 70304 10055 20035 30021 40308 52011 76022 87500 333 87626
201801080800 AAXX 08081 11968 41562 70204 10050 20033 30018 40305 76022 87500 333 87630
201801080700 AAXX 08071 11968 42565 70205 10049 20029 30015 40302 87500 333 87630
201801080600 AAXX 08061 11968 12470 70304 10050 20027 30010 40297 52008 60002 87500 333 20047 31004 70000 82716 87640
201801080500 AAXX 08051 11968 42470 70304 10048 20027 30007 40294 87500 333 83717 87656
201801080400 AAXX 08041 11968 42465 70303 10053 20030 30007 40293 87500 333 82717 87620
201801080300 AAXX 08031 11968 42465 70206 10055 20028 30002 40288 58003 87500 333 87616
201801080200 AAXX 08021 11968 42565 80204 10058 20031 30008 40294 885 333 88620
201801080000 AAXX 08001 11968 12565 80204 10058 20035 30005 40291 52006 60001 885 333 55000 88625
201801072300 AAXX 07231 11968 42570 80105 10064 20036 30003 40288 885 333 88628
201801072200 AAXX 07221 11968 42570 83607 10063 20036 30000 40285 885 333 88628
201801072100 AAXX 07211 11968 42565 83607 10066 20038 39999 40284 52015 885 333 82625 88630
201801072000 AAXX 07201 11968 42465 83607 10069 20042 39995 40279 885 333 83715 88622
201801071900 AAXX 07191 11968 42460 83508 10070 20045 39990 40274 886 333 82715 88620
201801071800 AAXX 07181 11968 12460 80107 10076 20056 39984 40267 52022 60002 886 333 10080 88715
201801071700 AAXX 07171 11968 41457 80105 10079 20062 39978 40261 71022 885 333 88617
201801071600 AAXX 07161 11968 41356 80205 10075 20064 39969 40252 71022 885 333 82707 87616
201801071500 AAXX 07151 11968 41233 80204 10076 20065 39962 40244 52016 71022 885 333 81705 83610 85650
201801071400 AAXX 07141 11968 41336 83604 10076 20064 39957 40239 71022 86530 333 81707 86645
201801071300 AAXX 07131 11968 41332 80202 10080 20066 39948 40230 71022 86530 333 81709 85612
201801071200 AAXX 07121 11968 11332 80202 10074 20062 39946 40228 52011 60001 71042 87530 333 82708 87612
201801071100 AAXX 07111 11968 41132 70002 10068 20060 39942 40225 71022 85530 333 81703 85611
201801071000 AAXX 07101 11968 41317 71502 10066 20060 39940 40223 71022 85630 333 85709 86358
201801070900 AAXX 07091 11968 41413 71901 10066 20060 39935 40218 52025 71042 82630 333 82710 87358
201801070800 AAXX 07081 11968 41320 70001 10055 20052 39926 40210 71044 85530 333 81707 86358
201801070700 AAXX 07071 11968 41308 71901 10049 20045 39917 40201 74422 85530 333 84707 86358
201801070600 AAXX 07061 11968 11412 60001 10051 20047 39910 40194 52011 69972 74062 86500 333 20049 31004 70007 84711 85650
201801070500 AAXX 07051 11968 4138 80000 10051 20047 39907 40191 76166 8802 333 88510
201801070400 AAXX 07041 11968 41445 83201 10053 20047 39901 40184 72166 886 333 88710
201801070300 AAXX 07031 11968 4140 83301 10054 20047 39899 40182 51007 76122 8802 333 88510
201801070200 AAXX 07021 11968 41450 83201 10055 20046 39899 40182 76022 877 333 87712
201801070100 AAXX 07011 11968 41450 83601 10054 20045 39896 40179 71022 886 333 88712
201801070000 AAXX 07001 11968 11456 83301 10054 20045 39892 40175 53003 69901 71062 886 333 55000 88714
201801062300 AAXX 06231 11968 41450 83101 10054 20044 39890 40173 71022 885 333 87715 88657
201801062200 AAXX 06221 11968 41456 83402 10052 20043 39889 40172 72122 885 333 82715 83637 88657
201801062100 AAXX 06211 11968 41645 83401 10052 20042 39889 40172 52008 71022 885 333 85639 88657
201801062000 AAXX 06201 11968 41457 83402 10052 20043 39887 40170 71022 885 333 82710 85630 88656
201801061900 AAXX 06191 11968 41357 80001 10051 20042 39886 40169 71022 885 333 86708 88629
201801061800 AAXX 06181 11968 11358 80601 10049 20042 39881 40164 52010 69902 71052 886 333 10057 88708
201801061700 AAXX 06171 11968 41358 80401 10052 20043 39878 40161 71022 886 333 88708
201801061600 AAXX 06161 11968 41358 80001 10051 20042 39874 40157 71022 886 333 84708 88715
201801061500 AAXX 06151 11968 41356 82601 10054 20044 39871 40153 52008 71052 886 333 85708 88714
201801061400 AAXX 06141 11968 41450 82201 10055 20045 39867 40149 72055 886 333 88715
201801061300 AAXX 06131 11968 41457 80001 10054 20044 39864 40146 75122 886 333 88712
201801061200 AAXX 06121 11968 11460 80000 10056 20041 39863 40145 57002 69901 72052 886 333 88715
201801061100 AAXX 06111 11968 41460 80001 10056 20038 39863 40145 75122 886 333 88712
201801061000 AAXX 06101 11968 42460 80001 10052 20037 39865 40147 886 333 85710 88715
201801060900 AAXX 06091 11968 41458 80102 10046 20034 39865 40148 52015 71022 886 333 85710 88715
201801060800 AAXX 06081 11968 41357 80001 10044 20034 39860 40143 71022 886 333 85707 88714
201801060700 AAXX 06071 11968 41350 80701 10041 20032 39853 40136 71022 886 333 88708
201801060600 AAXX 06061 11968 11350 80001 10041 20034 39850 40133 52008 60002 71044 886 333 20037 31004 70006 88708
201801060500 AAXX 06051 11968 41330 80001 10043 20036 39845 40128 71022 886 333 88709
201801060400 AAXX 06041 11968 41240 81101 10045 20038 39843 40125 71022 886 333 88705
201801060300 AAXX 06031 11968 41235 80001 10046 20037 39842 40124 52005 71044 886 333 88705
201801060200 AAXX 06021 11968 41435 82304 10047 20040 39839 40121 72844 886 333 88710
201801060100 AAXX 06011 11968 41108 82205 10044 20041 39837 40119 74444 886 333 88702
201801060000 AAXX 06001 11968 11006 82002 10041 20037 39837 40120 57003 69901 74455 886 333 55000 88701
201801052300 AAXX 05231 11968 41112 81501 10040 20034 39840 40123 71022 886 333 88702
201801052200 AAXX 05221 11968 41235 82402 10041 20034 39845 40128 71022 886 333 88706
201801052100 AAXX 05211 11968 41235 82203 10042 20035 39840 40123 52011 72055 886 333 88706
201801052000 AAXX 05201 11968 41135 82003 10038 20032 39831 40114 75155 886 333 88703
201801051900 AAXX 05191 11968 41235 82303 10039 20032 39830 40113 75155 886 333 88704
201801051800 AAXX 05181 11968 11235 82203 10037 20030 39829 40112 52014 69942 75122 886 333 10039 88704
201801051700 AAXX 05171 11968 41235 82203 10039 20030 39825 40108 75155 886 333 88704
201801051600 AAXX 05161 11968 41235 82203 10037 20030 39821 40104 75122 886 333 88704
201801051500 AAXX 05151 11968 41140 81804 10036 20029 39815 40098 52011 71022 886 333 88703
201801051400 AAXX 05141 11968 41248 81703 10035 20028 39812 40095 71022 886 333 88704
201801051300 AAXX 05131 11968 41256 81805 10037 20027 39807 40089 71022 886 333 88706
201801051200 AAXX 05121 11968 11235 82203 10036 20026 39804 40086 52011 69941 71066 886 333 83704 88708
201801051100 AAXX 05111 11968 41131 81904 10031 20025 39800 40083 71022 886 333 88703
201801051000 AAXX 05101 11968 41150 81903 10029 20023 39797 40080 71022 886 333 87703 88709
201801050900 AAXX 05091 11968 41250 82003 10026 20022 39793 40076 52018 71066 886 333 88704
201801050800 AAXX 05081 11968 41248 82004 10024 20021 39785 40068 72166 886 333 88704
201801050700 AAXX 05071 11968 4150 82004 10022 20019 39782 40065 76166 8802 333 88504
201801050600 AAXX 05061 11968 11250 82004 10022 20019 39775 40058 52006 69932 76042 8772 333 20004 31101 70003 87704 88461
201801050500 AAXX 05051 11968 41128 81905 10020 20017 39767 40050 76044 8772 333 87703 88461
201801050400 AAXX 05041 11968 41005 81904 10017 20014 39772 40055 74444 886 333 88701
201801050300 AAXX 05031 11968 41005 81804 10017 20014 39769 40052 57008 74422 886 333 88701
201801050200 AAXX 05021 11968 41005 81905 10018 20014 39770 40053 74422 886 333 88701
201801050100 AAXX 05011 11968 41250 82003 10022 20018 39776 40059 71022 87630 333 87704
201801050000 AAXX 05001 11968 11357 72402 10011 20005 39777 40061 57013 60001 71022 84530 333 55000 81708 84625 86363
201801042300 AAXX 04231 11968 41457 73601 10016 20009 39780 40064 71022 85550 333 85617 85365
201801042200 AAXX 04221 11968 41457 70501 10019 20012 39786 40070 71022 87600 333 87715
201801042100 AAXX 04211 11968 41357 80000 10023 20013 39790 40073 58001 71022 886 333 82708 86714
201801042000 AAXX 04201 11968 42360 82802 10022 20010 39791 40074 886 333 82709 86713
201801041900 AAXX 04191 11968 42360 82202 10024 20011 39795 40078 886 333 82707 86710
201801041800 AAXX 04181 11968 12360 82202 10025 20012 39791 40074 52005 60002 886 333 10026 82708 86713
201801041700 AAXX 04171 11968 42360 82101 10024 20012 39789 40072 886 333 84709 86715
201801041600 AAXX 04161 11968 42465 82001 10022 20012 39788 40071 886 333 88711
201801041500 AAXX 04151 11968 42465 81101 10022 20010 39786 40069 53005 886 333 88711
201801041400 AAXX 04141 11968 42362 80001 10021 20006 39783 40066 886 333 88708
201801041300 AAXX 04131 11968 42365 80001 10021 20006 39780 40063 886 333 88708
201801041200 AAXX 04121 11968 12362 80002 10019 20004 39781 40064 50003 60001 886 333 88707
201801041100 AAXX 04111 11968 42360 82103 10018 20002 39782 40066 886 333 88707
201801041000 AAXX 04101 11968 41258 82102 10018 20005 39781 40065 71022 886 333 88706
201801040900 AAXX 04091 11968 41257 80001 10015 20000 39778 40062 52014 71022 886 333 88706
201801040800 AAXX 04081 11968 41258 80001 10011 20002 39772 40056 71022 886 333 88705
201801040700 AAXX 04071 11968 42360 80001 10009 21001 39768 40052 886 333 88707
201801040600 AAXX 04061 11968 12362 82002 10010 21004 39764 40048 53011 69922 886 333 20007 31000 70012 88707
201801040500 AAXX 04051 11968 42365 82401 10011 21002 39759 40043 886 333 88708
201801040400 AAXX 04041 11968 42365 82202 10011 21002 39753 40036 886 333 88708
201801040300 AAXX 04031 11968 42362 82202 10012 20000 39753 40036 52008 886 333 88708
201801040200 AAXX 04021 11968 42360 82202 10014 20002 39752 40035 886 333 88708
201801040100 AAXX 04011 11968 42462 71902 10007 21003 39750 40034 87500 333 86712 87656
201801040000 AAXX 04001 11968 11460 72404 10017 20004 39745 40028 52007 69921 70165 87500 333 55016 85712 87656
201801032300 AAXX 03231 11968 42360 82204 10023 20013 39744 40026 886 333 88707
201801032200 AAXX 03221 11968 42260 81902 10025 20016 39743 40025 886 333 83704 88706
201801032100 AAXX 03211 11968 41258 81905 10027 20018 39738 40019 58004 72165 886 333 88706
201801032000 AAXX 03201 11968 41145 82006 10024 20017 39738 40020 76122 885 333 87703 88620
201801031900 AAXX 03191 11968 41260 82105 10026 20014 39747 40029 72055 886 333 88706
201801031800 AAXX 03181 11968 11360 82007 10026 20014 39742 40024 57008 60012 75165 886 333 10043 88708
201801031700 AAXX 03171 11968 41358 81908 10025 20013 39739 40021 71065 8762 333 87707
201801031600 AAXX 03161 11968 41358 82007 10025 20012 39741 40023 76062 8552 333 81708 84612 88535
201801031500 AAXX 03151 11968 41460 81908 10032 20012 39750 40031 56008 76022 8652 333 84715 86630
201801031400 AAXX 03141 11968 42565 81906 10036 20008 39742 40023 8357 333 81620 83650 87459
201801031300 AAXX 03131 11968 42470 71906 10039 20013 39752 40032 83556 333 83617 85359 87270
201801031200 AAXX 03121 11968 12470 62004 10040 20015 39758 40039 57050 60001 82506 333 81615 86070
201801031100 AAXX 03111 11968 42570 32305 10030 20004 39777 40059 82540 333 81630
201801031000 AAXX 03101 11968 42765 42002 10019 20001 39792 40076 84500 333 84650
201801030900 AAXX 03091 11968 41256 62002 10013 20004 39808 40093 57018 71022 86800 333 81705 85640
201801030800 AAXX 03081 11968 42470 60002 11006 21013 39821 40108 86500 333 81710 86656
201801030700 AAXX 03071 11968 42770 50001 11011 21021 39825 40113 85500 333 85656
201801030600 AAXX 03061 11968 12770 32201 10009 21013 39826 40112 57005 60002 83500 333 21015 34105 70006 83656
201801030500 AAXX 03051 11968 42970 03002 10000 21014 39827 40114
201801030400 AAXX 03041 11968 42870 22901 10008 21011 39829 40115 81501 333 81657
201801030300 AAXX 03031 11968 42870 30001 10005 21016 39831 40118 50005 83500 333 83657
201801030200 AAXX 03021 11968 42870 40001 10021 21008 39832 40117 84500 333 84657
201801030100 AAXX 03011 11968 42870 60001 10025 21002 39832 40116 86500 333 86657
201801030000 AAXX 03001 11968 12870 62802 10032 21001 39826 40110 52006 60001 86500 333 55000 86657
201801022300 AAXX 02231 11968 42870 40001 10032 20004 39824 40107 84500 333 84657
201801022200 AAXX 02221 11968 42870 50001 10025 20002 39822 40106 83531 333 83657
201801022100 AAXX 02211 11968 4270 33002 10053 20007 39820 40101 52011 82032 333 82362
201801022000 AAXX 02201 11968 4270 70002 10051 20008 39814 40095 85032 333 85363 83070
201801021900 AAXX 02191 11968 42870 73202 10048 20011 39810 40091 82530 333 82657 86365
201801021800 AAXX 02181 11968 12870 70001 10045 20019 39809 40090 52010 69962 87500 333 10052 87657
201801021700 AAXX 02171 11968 42770 70001 10044 20032 39808 40090 87500 333 87656
201801021600 AAXX 02161 11968 42765 72701 10043 20034 39806 40088 87500 333 87656
201801021500 AAXX 02151 11968 42365 72601 10046 20036 39799 40080 53005 87500 333 81707 87656
201801021400 AAXX 02141 11968 42270 71201 10047 20037 39796 40077 87500 333 82706 87656
201801021300 AAXX 02131 11968 42460 70001 10052 20034 39792 40072 87500 333 81710 87650
201801021200 AAXX 02121 11968 11260 70601 10050 20033 39794 40074 57013 69961 72165 87500 333 82705 83640 86656
201801021100 AAXX 02111 11968 41260 70401 10043 20031 39800 40081 76066 87500 333 83706 84633 87650
201801021000 AAXX 02101 11968 41258 80001 10040 20025 39805 40087 76066 885 333 84705 88633
201801020900 AAXX 02091 11968 41460 80000 10040 20024 39807 40089 52006 76052 885 333 86715 88633
201801020800 AAXX 02081 11968 41460 80001 10035 20022 39806 40088 72022 886 333 88713
201801020700 AAXX 02071 11968 42360 80301 10031 20021 39803 40086 886 333 88709
201801020600 AAXX 02061 11968 12360 83603 10030 20018 39801 40084 55005 60002 886 333 20026 31002 70009 88708
201801020500 AAXX 02051 11968 41358 80104 10028 20018 39799 40082 71022 886 333 88708
201801020400 AAXX 02041 11968 41358 80403 10028 20019 39806 40089 71022 886 333 88708
201801020300 AAXX 02031 11968 41357 80204 10029 20020 39806 40089 58006 71022 886 333 88708
201801020200 AAXX 02021 11968 41350 80402 10029 20022 39811 40094 71022 886 333 88708
201801020100 AAXX 02011 11968 41256 83604 10029 20020 39814 40097 71022 886 333 88706
201801020000 AAXX 02001 11968 11250 83503 10027 20020 39812 40096 57007 60001 71022 886 333 55000 88706
201801012300 AAXX 01231 11968 41250 80401 10028 20021 39816 40100 71022 886 333 88704
201801012200 AAXX 01221 11968 41240 80002 10028 20022 39818 40102 71022 886 333 88704
201801012100 AAXX 01211 11968 41240 80202 10028 20021 39819 40103 56001 71022 886 333 88705
201801012000 AAXX 01201 11968 41232 81301 10029 20023 39820 40104 71022 886 333 88705
201801011900 AAXX 01191 11968 41228 83101 10028 20024 39819 40102 71022 886 333 88705
201801011800 AAXX 01181 11968 11220 81201 10028 20024 39820 40104 57007 69992 71052 886 333 10034 88705
201801011700 AAXX 01171 11968 41230 80401 10029 20025 39824 40108 72055 886 333 88706
201801011600 AAXX 01161 11968 41240 80001 10030 20026 39825 40108 75055 886 333 88706
201801011500 AAXX 01151 11968 41215 80001 10030 20026 39827 40111 56010 75055 886 333 88706
201801011400 AAXX 01141 11968 41425 81402 10032 20028 39827 40110 75055 886 333 88710
201801011300 AAXX 01131 11968 41430 82302 10032 20029 39833 40116 75055 886 333 88710
201801011200 AAXX 01121 11968 11318 83402 10029 20026 39837 40121 57015 69971 75044 886 333 88707
201801011100 AAXX 01111 11968 41118 80001 10028 20025 39840 40124 75055 886 333 88703
201801011000 AAXX 01101 11968 41118 81901 10025 20022 39848 40133 75022 886 333 88703
201801010900 AAXX 01091 11968 41215 82101 10024 20021 39852 40137 57001 71044 886 333 88705
201801010800 AAXX 01081 11968 41218 80001 10021 20018 39853 40138 72844 886 333 88704
201801010700 AAXX 01071 11968 41006 82103 10021 20018 39852 40137 74444 886 333 88701
201801010600 AAXX 01061 11968 11106 81902 10021 20018 39853 40138 57008 69902 74454 886 333 20011 31001 88702
201801010500 AAXX 01051 11968 41108 81802 10022 20019 39856 40141 74622 886 333 88702
201801010400 AAXX 01041 11968 41025 82103 10022 20019 39860 40145 72854 886 333 83701 88704
201801010300 AAXX 01031 11968 41109 80001 10018 20015 39861 40147 57008 75154 886 333 88703
201801010200 AAXX 01021 11968 41209 80001 10018 20015 39867 40153 75154 886 333 88705
201801010100 AAXX 01011 11968 41105 82002 10017 20014 39868 40154 75154 886 333 88702
201801010000 AAXX 01001 11968 11108 82003 10017 20014 39869 40155 56008 69901 75144 886 333 55000 88702
201712010000 AAXX 01001 11968 11365 82202 10011 21005 39788 40073 52021 69901 70252 886 333 55000 88709
201711302300 AAXX 30231 11968 42365 82104 10014 21004 39787 40071 886 333 88709
201711302200 AAXX 30221 11968 42365 82005 10010 21003 39775 40059 886 333 88707
201711302100 AAXX 30211 11968 41365 82206 10014 20001 39767 40051 52033 70252 886 333 88708
201711302000 AAXX 30201 11968 41365 82304 10016 20001 39755 40038 72052 886 333 88708
201711301900 AAXX 30191 11968 41262 82307 10019 20007 39747 40030 75052 886 333 88706
201711301800 AAXX 30181 11968 11135 82208 10025 20021 39734 40015 52021 60062 75065 886 333 10025 88703
201711301700 AAXX 30171 11968 41121 82303 10021 20015 39723 40004 75022 886 333 88702
201711301600 AAXX 30161 11968 41247 82603 10021 20014 39718 40000 72166 886 333 88704
201711301500 AAXX 30151 11968 41250 81803 10023 20016 39713 49994 55000 76066 8662 333 86704 88523
201711301400 AAXX 30141 11968 4146 80001 10019 20010 39710 49991 76066 8802 333 88511
201711301300 AAXX 30131 11968 41450 80001 10015 20006 39711 49993 76066 8562 333 85710 88522
201711301200 AAXX 30121 11968 11450 83504 10013 20004 39713 49995 58031 60041 76076 8462 333 84711 88523
201711301100 AAXX 30111 11968 41357 83604 10010 20001 39720 40003 76066 8262 333 82707 88523
201711301000 AAXX 30101 11968 4150 83604 10006 21001 39733 40016 76872 8802 333 88522
201711300900 AAXX 30091 11968 4128 83604 10008 21003 39744 40028 56018 77122 8802 333 88518
201711300800 AAXX 30081 11968 42565 80102 10015 21006 39748 40031 8752 333 87626 88460
201711300700 AAXX 30071 11968 42575 83402 10017 21010 39757 40040 8652 333 81630 86644 88460
201711300600 AAXX 30061 11968 11565 83603 10017 21012 39762 40045 57030 60012 70272 885 333 21003 3000 43997 70011 81625 88648
201711300500 AAXX 30051 11968 42765 83604 10012 21009 39768 40052 8652 333 86650 88459
201711300400 AAXX 30041 11968 4158 83605 10009 21004 39777 40062 72277 8802 333 88459
201711300300 AAXX 30031 11968 41348 80203 10002 21004 39792 40078 57026 77122 885 333 86707 88656
201711300200 AAXX 30021 11968 4130 83403 10002 21006 39803 40089 77177 8802 333 88518
201711300100 AAXX 30011 11968 4140 83302 10004 21010 39815 40101 77122 8802 333 88519
201711300000 AAXX 30001 11968 12665 80201 10009 21020 39818 40104 57018 60001 885 333 55000 88647
201711292300 AAXX 29231 11968 42665 83603 10007 21020 39826 40112 885 333 88647
201711292200 AAXX 29221 11968 42662 83402 10006 21019 39834 40120 885 333 88645
201711292100 AAXX 29211 11968 42662 80702 10003 21016 39836 40123 57010 885 333 88647
201711292000 AAXX 29201 11968 42563 80501 10000 21016 39841 40128 885 333 87627 88637
201711291900 AAXX 29191 11968 42563 81001 11001 21017 39844 40132 885 333 82624 88650
201711291800 AAXX 29181 11968 11661 81001 11003 21016 39846 40134 58001 69902 70272 885 333 10011 86637 88656
201711291700 AAXX 29171 11968 41558 71101 11004 21021 39845 40133 71022 87500 333 82625 86656
201711291600 AAXX 29161 11968 42670 80601 10005 21024 39848 40135 885 333 88634
201711291500 AAXX 29151 11968 41570 82601 10004 21021 39847 40134 51001 70372 885 333 88633
201711291400 AAXX 29141 11968 41670 71901 10006 21021 39847 40134 72277 87500 333 86640 86643
201711291300 AAXX 29131 11968 42670 71804 10010 21022 39846 40132 87500 333 86640 86646
201711291200 AAXX 29121 11968 12670 71903 10009 21020 39846 40132 57007 60001 87500 333 87643
201711291100 AAXX 29111 11968 42670 71602 10007 21018 39849 40136 87500 333 85646 87650
201711291000 AAXX 29101 11968 42680 52303 10007 21017 39852 40139 82531 333 82644 84360
201711290900 AAXX 29091 11968 42670 72202 10000 21020 39853 40141 51005 87500 333 87645
201711290800 AAXX 29081 11968 41758 80001 11010 21017 39853 40142 71022 8552 333 85650 88460
201711290700 AAXX 29071 11968 4140 80000 11015 21022 39853 40142 71022 8807 333 85358 88460
201711290600 AAXX 29061 11968 1150 81001 11022 21030 39848 40138 55000 60002 71022 8807 333 21034 34106 70000 85359 88460
201711290500 AAXX 29051 11968 41757 82001 11015 21023 39849 40138 71022 8357 333 83656 88460
201711290400 AAXX 29041 11968 4157 80001 11023 21030 39847 40137 71022 86077 333 83360 86461 88270
201711290300 AAXX 29031 11968 4157 80101 11021 21029 39848 40138 57005 71022 85077 333 83360 85461 88270
201711290200 AAXX 29021 11968 4260 63401 11023 21031 39851 40141 83038 333 83360 86270
201711290100 AAXX 29011 11968 42960 61901 11025 21033 39854 40144 80008 333 86270
201711290000 AAXX 29001 11968 1270 32401 11019 21029 39853 40143 57006 60001 83030 333 55077 83364
201711282300 AAXX 28231 11968 4270 31902 11022 21032 39854 40144 83030 333 83364
201711282200 AAXX 28221 11968 4270 40001 11018 21032 39858 40148 84030 333 84364
201711282100 AAXX 28211 11968 4280 50001 11019 21032 39859 40149 56003 85050 333 85364
201711282000 AAXX 28201 11968 4280 40000 11006 21022 39860 40149 84050 333 84364
201711281900 AAXX 28191 11968 42980 02301 11012 21026 39860 40149
201711281800 AAXX 28181 11968 12980 02201 11020 21036 39862 40152 51001 60002 333 10035
201711281700 AAXX 28171 11968 42982 00001 11001 21025 39862 40150
201711281600 AAXX 28161 11968 42982 22003 11005 21019 39862 40150 80001 333 82070
201711281500 AAXX 28151 11968 42982 31603 11001 21023 39861 40149 57009 80002 333 83070
201711281400 AAXX 28141 11968 42982 61804 10023 21017 39862 40148 80006 333 86270
201711281300 AAXX 28131 11968 42982 61805 10032 21017 39865 40150 80006 333 86270
201711281200 AAXX 28121 11968 12981 51803 10027 21020 39870 40155 57020 60001 80002 333 85070
201711281100 AAXX 28111 11968 42981 51703 10015 21019 39877 40164 80004 333 85070
201711281000 AAXX 28101 11968 42980 31603 10000 21025 39882 40171 80001 333 83070
201711280900 AAXX 28091 11968 42980 30001 11008 21032 39890 40180 58005 80001 333 83070
201711280800 AAXX 28081 11968 42980 30001 11022 21050 39894 40185 80004 333 83070
201711280700 AAXX 28071 11968 4282 20001 11045 21065 39896 40190 81031 333 81358
201711280600 AAXX 28061 11968 12782 20401 11060 21077 39895 40191 57008 60002 81501 333 21060 34111 70000 81650
201711280500 AAXX 28051 11968 4270 23201 11046 21066 39899 40193 81031 333 81360
201711280400 AAXX 28041 11968 42970 03101 11050 21062 39899 40194
201711280300 AAXX 28031 11968 42970 00001 11053 21065 39903 40198 57009
201711280200 AAXX 28021 11968 42970 03101 11036 21053 39905 40198
201711280100 AAXX 28011 11968 42970 03101 11036 21051 39908 40201
201711280000 AAXX 28001 11968 12970 00001 11030 21044 39912 40205 57009 60001 333 55036
201711272300 AAXX 27231 11968 42970 00001 11023 21050 39916 40208
201711272200 AAXX 27221 11968 42970 00001 11023 21051 39920 40212
201711272100 AAXX 27211 11968 42970 02901 11009 21036 39921 40212 57011
201711272000 AAXX 27201 11968 42970 00001 11018 21043 39924 40216
201711271900 AAXX 27191 11968 42970 03402 11003 21035 39927 40217
201711271800 AAXX 27181 11968 12980 03302 10000 21035 39932 40222 52005 60002 333 10050
201711271700 AAXX 27171 11968 42980 03301 10009 21034 39930 40219
201711271600 AAXX 27161 11968 42780 13402 10009 21032 39929 40218 81500 333 81650
201711271500 AAXX 27151 11968 42680 20303 10012 21033 39927 40216 57001 82501 333 82640
201711271400 AAXX 27141 11968 42682 20205 10034 21028 39928 40214 82500 333 82638
201711271300 AAXX 27131 11968 42680 30206 10043 21028 39926 40211 83500 333 83638
201711271200 AAXX 27121 11968 12680 43506 10048 21030 39928 40213 57010 60001 83501 333 83638
201711271100 AAXX 27111 11968 42680 43607 10044 21038 39933 40218 82831 333 81840 83363
201711271000 AAXX 27101 11968 42780 60106 10041 21036 39936 40222 81532 333 81650 83360 86070
201711270900 AAXX 27091 11968 42780 60106 10034 21036 39938 40225 52014 81532 333 81650 83362 85070
201711270800 AAXX 27081 11968 42780 60203 10026 21029 39934 40221 81536 333 81650 83363 86270
201711270700 AAXX 27071 11968 42780 60204 10019 21028 39929 40217 81536 333 81650 83363 86270
201711270600 AAXX 27061 11968 12770 60105 10025 21036 39924 40211 52007 60002 81530 333 20020 31001 70091 81650 86358
201711270500 AAXX 27051 11968 4265 80106 10030 21033 39923 40210 8802 333 88458
201711270400 AAXX 27041 11968 4265 80105 10030 21033 39921 40208 8802 333 88458
201711270300 AAXX 27031 11968 4265 80106 10025 21024 39917 40204 52006 8802 333 88458
201711270200 AAXX 27021 11968 4265 80205 10029 21022 39914 40200 8802 333 88458
201711270100 AAXX 27011 11968 4265 80206 10029 21018 39911 40197 8802 333 88458
201711270000 AAXX 27001 11968 11765 80207 10021 21006 39911 40198 52006 69901 70262 82530 333 55000 82656 87358
201711262300 AAXX 26231 11968 41765 80107 10024 21005 39910 40197 72166 885 333 88656
201711262200 AAXX 26221 11968 41765 80108 10023 21003 39909 40196 76066 885 333 88650
201711262100 AAXX 26211 11968 41565 80108 10025 20002 39905 40192 52012 76066 885 333 82620 88650
201711262000 AAXX 26201 11968 41562 80108 10028 20000 39904 40190 76066 885 333 83633 88656
201711261900 AAXX 26191 11968 41562 83609 10032 20001 39897 40182 76066 885 333 82630 88645
201711261800 AAXX 26181 11968 11562 80108 10032 20006 39893 40178 52006 60092 76062 885 333 10064 84730 88656
201711261700 AAXX 26171 11968 41562 80108 10036 20008 39893 40178 76022 885 333 85730 88656
201711261600 AAXX 26161 11968 42462 80108 10037 20014 39891 40176 885 333 84715 88656
201711261500 AAXX 26151 11968 41462 80208 10036 20015 39887 40172 52005 70266 885 333 82715 88656
201711261400 AAXX 26141 11968 42562 80208 10033 20015 39885 40170 885 333 82725 88650
201711261300 AAXX 26131 11968 41762 80208 10030 20015 39883 40168 72166 8652 333 86650 88460
201711261200 AAXX 26121 11968 1159 80209 10027 20011 39882 40168 50002 60091 76166 8802 333 88510
201711261100 AAXX 26111 11968 4158 80208 10023 20011 39882 40168 76166 8802 333 88510
201711261000 AAXX 26101 11968 4159 80207 10034 20019 39883 40168 76166 8802 333 88510
201711260900 AAXX 26091 11968 4159 80209 10042 20026 39880 40164 52022 76166 8802 333 88511
201711260800 AAXX 26081 11968 4156 80207 10055 20040 39872 40154 76166 8802 333 88520
201711260700 AAXX 26071 11968 41557 80208 10059 20045 39866 40148 76166 8802 333 88530
201711260600 AAXX 26061 11968 11459 83607 10066 20048 39858 40139 52011 60052 76122 8472 333 20058 32006 70048 84710 88530
201711260500 AAXX 26051 11968 41118 80402 10064 20060 39854 40135 76166 8572 333 85703 88518
201711260400 AAXX 26041 11968 41214 80201 10062 20058 39850 40131 76166 8672 333 86706 88512
201711260300 AAXX 26031 11968 41216 80901 10063 20059 39847 40128 58001 76122 8772 333 87704 88505
201711260200 AAXX 26021 11968 41236 80001 10064 20058 39848 40128 76122 8772 333 87705 88510
201711260100 AAXX 26011 11968 41231 82302 10065 20059 39850 40130 71022 886 333 88705
201711260000 AAXX 26001 11968 11230 82802 10067 20060 39848 40128 55002 60021 71062 886 333 55000 82704 88706
201711252300 AAXX 25231 11968 41237 81802 10066 20058 39847 40127 71022 886 333 82704 88707
201711252200 AAXX 25221 11968 41235 82203 10066 20062 39851 40131 71022 886 333 83704 88706
201711252100 AAXX 25211 11968 41116 80001 10063 20059 39850 40131 57009 72162 886 333 83703 88705
201711252000 AAXX 25201 11968 41112 80001 10058 20054 39852 40133 76062 8772 333 84702 87706
201711251900 AAXX 25191 11968 41216 80001 10058 20052 39855 40136 76062 8472 333 84704 88511
201711251800 AAXX 25181 11968 11231 80001 10059 20050 39859 40140 58005 60002 76022 8762 333 10062 81705 87707
201711251700 AAXX 25171 11968 41238 82104 10059 20050 39865 40146 71022 886 333 88704
201711251600 AAXX 25161 11968 41235 82105 10060 20050 39865 40146 71022 886 333 88705
201711251500 AAXX 25151 11968 41238 82005 10060 20051 39864 40145 57020 71022 886 333 87705 88608
201711251400 AAXX 25141 11968 41250 82203 10061 20050 39872 40154 71022 886 333 88706
201711251300 AAXX 25131 11968 41340 82103 10062 20056 39878 40160 71022 886 333 88707
201711251200 AAXX 25121 11968 11238 82303 10058 20055 39884 40166 57025 60001 71042 886 333 88704
201711251100 AAXX 25111 11968 41113 82302 10055 20052 39890 40173 72844 886 333 88702
201711251000 AAXX 25101 11968 41005 80001 10049 20046 39896 40180 74622 886 333 88701
201711250900 AAXX 25091 11968 41115 81902 10042 20039 39909 40194 58007 74022 886 333 88702
201711250800 AAXX 25081 11968 41513 81701 10037 20034 39912 40197 74022 886 333 88730
201711250700 AAXX 25071 11968 41114 82401 10033 20030 39917 40203 74022 886 333 88702
201711250600 AAXX 25061 11968 11125 80001 10031 20028 39916 40202 57008 69902 74054 886 333 20028 31003 70001 88702
201711250500 AAXX 25051 11968 41005 82802 10030 20027 39919 40205 75144 886 333 88701
201711250400 AAXX 25041 11968 41007 82702 10030 20027 39920 40206 74444 886 333 88701
201711250300 AAXX 25031 11968 41004 82402 10032 20029 39924 40210 57005 74444 886 333 88701
201711250200 AAXX 25021 11968 41003 82402 10034 20031 39926 40212 74444 886 333 88701
201711250100 AAXX 25011 11968 41003 82302 10037 20034 39929 40215 74444 886 333 88701
201711250000 AAXX 25001 11968 11004 82301 10038 20035 39929 40215 56003 69901 74454 886 333 55000 88701
201711242300 AAXX 24231 11968 41003 80001 10040 20037 39929 40214 74455 886 333 88701
201711242200 AAXX 24221 11968 41003 80002 10042 20039 39930 40215 75144 886 333 88701
201711242100 AAXX 24211 11968 41006 82302 10041 20038 39932 40217 50004 75144 886 333 88701
201711242000 AAXX 24201 11968 41005 82302 10043 20039 39934 40219 75144 886 333 88701
201711241900 AAXX 24191 11968 41004 81802 10047 20043 39932 40217 75144 886 333 88701
201711241800 AAXX 24181 11968 11005 82501 10049 20045 39928 40212 55000 60002 74442 886 333 10062 88701
201711241700 AAXX 24171 11968 41007 82601 10050 20046 39926 40210 74444 886 333 81701 88702
201711241600 AAXX 24161 11968 41109 81802 10052 20048 39926 40210 74444 886 333 88702
201711241500 AAXX 24151 11968 41108 82001 10053 20049 39928 40212 53005 74442 886 333 88702
201711241400 AAXX 24141 11968 41011 81903 10056 20050 39924 40208 72844 886 333 81701 88703
201711241300 AAXX 24131 11968 41109 81901 10060 20053 39922 40205 74422 886 333 88702
201711241200 AAXX 24121 11968 11118 80000 10061 20052 39923 40206 58004 60001 71022 886 333 88703
201711241100 AAXX 24111 11968 41130 81001 10059 20052 39926 40209 71022 886 333 88703
201711241000 AAXX 24101 11968 41131 80301 10059 20052 39927 40210 71022 886 333 88703
201711240900 AAXX 24091 11968 41131 80001 10056 20050 39927 40211 50005 71022 886 333 88703
201711240800 AAXX 24081 11968 41112 80001 10052 20046 39928 40212 71022 886 333 88703
201711240700 AAXX 24071 11968 41216 80002 10050 20044 39926 40210 71022 886 333 88704
201711240600 AAXX 24061 11968 11116 80000 10046 20040 39922 40207 50000 60002 71022 886 333 20043 31004 70003 88703
201711240500 AAXX 24051 11968 41240 83101 10047 20040 39922 40206 71022 886 333 88705
201711240400 AAXX 24041 11968 41335 83401 10045 20039 39923 40208 71022 886 333 88707
201711240300 AAXX 24031 11968 41335 81201 10044 20038 39922 40207 57002 71022 886 333 88707
201711240200 AAXX 24021 11968 41244 80000 10044 20038 39921 40206 71022 886 333 88705
201711240100 AAXX 24011 11968 41130 80001 10044 20040 39921 40206 71022 886 333 88703
201711240000 AAXX 24001 11968 11128 80000 10044 20040 39924 40209 57003 60001 71022 886 333 55000 88703
201711232300 AAXX 23231 11968 41235 80001 10044 20040 39926 40211 71022 886 333 88704
201711232200 AAXX 23221 11968 41135 82502 10044 20040 39926 40211 71022 886 333 88703
201711232100 AAXX 23211 11968 41210 82301 10043 20039 39927 40212 51002 71022 886 333 88704
201711232000 AAXX 23201 11968 41110 81802 10043 20039 39927 40212 71022 886 333 88702
201711231900 AAXX 23191 11968 41115 81601 10045 20041 39927 40212 71022 886 333 84703 88707
201711231800 AAXX 23181 11968 11332 81902 10045 20039 39925 40210 52005 69922 72052 886 333 10046 88707
201711231700 AAXX 23171 11968 41335 82301 10044 20038 39924 40209 75155 886 333 88707
201711231600 AAXX 23161 11968 41118 82601 10043 20037 39922 40207 75155 886 333 85703 88705
201711231500 AAXX 23151 11968 41128 80001 10044 20037 39920 40205 52004 75122 886 333 88703
201711231400 AAXX 23141 11968 41245 80001 10043 20034 39918 40203 71022 886 333 88704
201711231300 AAXX 23131 11968 41256 82601 10045 20035 39916 40200 71022 886 333 88705
201711231200 AAXX 23121 11968 12260 82602 10044 20032 39916 40201 57006 60001 886 333 88706
201711231100 AAXX 23111 11968 42260 80002 10041 20031 39918 40203 886 333 88706
201711231000 AAXX 23101 11968 41256 80002 10039 20032 39920 40205 71022 886 333 88706
201711230900 AAXX 23091 11968 41125 82503 10032 20028 39922 40208 52009 71022 886 333 85703 88706
201711230800 AAXX 23081 11968 41114 82602 10032 20028 39920 40206 74022 886 333 85702 88705
201711230700 AAXX 23071 11968 41115 82202 10029 20025 39916 40202 72822 886 333 88703
201711230600 AAXX 23061 11968 11116 81402 10028 20024 39913 40199 52009 60002 74011 886 333 20001 31101 70010 88702
201711230500 AAXX 23051 11968 41213 80001 10028 20024 39909 40195 74022 886 333 88704
201711230400 AAXX 23041 11968 41132 82401 10026 20020 39908 40194 71011 876 333 87702
201711230300 AAXX 23031 11968 41120 30001 10019 20013 39904 40191 52009 74011 83600 333 83702
201711230200 AAXX 23021 11968 41233 33201 10016 20010 39902 40189 74000 83601 333 83704
201711230100 AAXX 23011 11968 41257 20001 10025 20018 39897 40183 71011 82601 333 82706
201711230000 AAXX 23001 11968 12665 80202 10030 20023 39895 40180 50003 60001 885 333 55000 88641
201711222300 AAXX 22231 11968 42665 83602 10033 20026 39896 40181 885 333 88642
201711222200 AAXX 22221 11968 42465 80302 10034 20028 39894 40179 885 333 82715 88642
201711222100 AAXX 22211 11968 42261 80102 10034 20028 39892 40177 52009 885 333 85705 87713 88644
201711222000 AAXX 22201 11968 41259 80101 10039 20033 39889 40173 71022 885 333 85705 88643
201711221900 AAXX 22191 11968 41258 83402 10038 20034 39886 40170 71022 886 333 85706 88707
201711221800 AAXX 22181 11968 11240 80302 10037 20033 39883 40167 52014 60012 72065 886 333 10041 88704
201711221700 AAXX 22171 11968 41228 80602 10037 20033 39879 40163 75054 886 333 88704
201711221600 AAXX 22161 11968 41109 80001 10041 20037 39876 40160 75865 886 333 88702
201711221500 AAXX 22151 11968 41108 82601 10041 20037 39869 40153 53001 75054 886 333 88703
201711221400 AAXX 22141 11968 41112 82001 10040 20036 39864 40148 75054 886 333 88702
201711221300 AAXX 22131 11968 41112 81801 10039 20035 39866 40150 75055 886 333 88702
201711221200 AAXX 22121 11968 11215 80001 10038 20034 39868 40152 57004 69911 75054 886 333 88704
201711221100 AAXX 22111 11968 41109 80001 10036 20032 39869 40153 75054 886 333 88702
201711221000 AAXX 22101 11968 41105 82201 10034 20028 39873 40158 74654 886 333 88702
201711220900 AAXX 22091 11968 41120 80000 10032 20026 39872 40157 51003 71042 886 333 88702
201711220800 AAXX 22081 11968 41220 80001 10029 20025 39872 40157 71022 886 333 88704
201711220700 AAXX 22071 11968 41214 82101 10028 20024 39870 40155 71042 886 333 88706
201711220600 AAXX 22061 11968 11205 80000 10026 20022 39869 40154 52008 69962 74664 886 333 20016 32002 70008 84705 88710
201711220500 AAXX 22051 11968 41508 80001 10025 20021 39862 40147 74422 886 333 88726
201711220400 AAXX 22041 11968 41130 81701 10025 20019 39864 40149 71022 886 333 88703
201711220300 AAXX 22031 11968 41256 80001 10025 20019 39861 40146 56003 71022 886 333 88704
201711220200 AAXX 22021 11968 41250 80002 10025 20019 39864 40149 71022 886 333 88705
201711220100 AAXX 22011 11968 41250 82202 10025 20019 39865 40150 71022 886 333 88705
201711220000 AAXX 22001 11968 11130 82002 10024 20018 39864 40149 57002 69961 71065 886 333 55000 88703
201711212300 AAXX 21231 11968 41130 81902 10024 20018 39866 40151 71022 886 333 88702
201711212200 AAXX 21221 11968 41130 81903 10022 20018 39866 40152 72166 886 333 88702
201711212100 AAXX 21211 11968 41125 81801 10020 20016 39866 40152 57004 76055 886 333 88702
201711212000 AAXX 21201 11968 41140 81901 10019 20013 39869 40155 76066 886 333 88702
201711211900 AAXX 21191 11968 41256 81802 10019 20012 39869 40155 76055 886 333 88704
201711211800 AAXX 21181 11968 11258 80001 10017 20010 39870 40156 52001 69922 75122 886 333 10017 88705
201711211700 AAXX 21171 11968 41458 81702 10014 20007 39869 40156 75155 886 333 88710
201711211600 AAXX 21161 11968 41358 81602 10013 20006 39870 40157 75155 886 333 86707 88713
201711211500 AAXX 21151 11968 41349 80001 10013 20006 39869 40156 57003 75122 886 333 82707 88710
201711211400 AAXX 21141 11968 41350 80902 10012 20003 39870 40157 75122 886 333 84707 88710
201711211300 AAXX 21131 11968 41448 80001 10011 20001 39871 40158 71022 886 333 85710 88714
201711211200 AAXX 21121 11968 11349 81002 10008 21002 39872 40159 57010 60001 71022 886 333 86707 88713
201711211100 AAXX 21111 11968 41356 80001 10007 21004 39877 40165 71022 886 333 88708
201711211000 AAXX 21101 11968 41350 80001 10006 21008 39881 40169 71022 886 333 88707
201711210900 AAXX 21091 11968 41350 80000 10001 21012 39882 40170 52009 71022 886 333 88707
201711210800 AAXX 21081 11968 41356 83401 11003 21016 39879 40168 71022 886 333 88707
201711210700 AAXX 21071 11968 41457 70102 11010 21023 39879 40169 74022 87600 333 85710
201711210600 AAXX 21061 11968 11356 63602 11015 21025 39873 40163 53002 60002 74011 85530 333 21034 34108 70000 81709 85646
201711210500 AAXX 21051 11968 41156 82801 11022 21030 39872 40163 74022 8267 333 82702 87361
201711210400 AAXX 21041 11968 41156 73602 11019 21027 39871 40161 74022 82670 333 82703 87460
201711210300 AAXX 21031 11968 41040 70001 11021 21029 39871 40162 55004 74022 82670 333 82701 87460
201711210200 AAXX 21021 11968 41020 20501 11029 21036 39870 40161 74011 82600 333 82701
201711210100 AAXX 21011 11968 41017 20001 11022 21028 39875 40166 74000 82600 333 82701
201711210000 AAXX 21001 11968 11012 20001 11023 21028 39875 40166 56003 60001 74000 82600 333 55034 82701
201711202300 AAXX 20231 11968 41956 01803 11018 21025 39875 40165 71000
201711202200 AAXX 20221 11968 41856 32601 11009 21016 39877 40166 71000 81530 333 81657 83359
201711202100 AAXX 20211 11968 41060 23501 11010 21018 39878 40168 53001 74000 81630 333 81701
201711202000 AAXX 20201 11968 4260 30001 11003 21013 39877 40166 83030 333 83359
201711201900 AAXX 20191 11968 42760 60001 10005 21008 39876 40164 82530 333 82656 83359
201711201800 AAXX 20181 11968 1260 63402 10012 21006 39877 40164 52011 60002 86030 333 10047 82357 84358
201711201700 AAXX 20171 11968 42770 20001 11001 21015 39874 40162 81530 333 81656
201711201600 AAXX 20161 11968 42770 13602 10004 21010 39871 40159 81500 333 81656
201711201500 AAXX 20151 11968 42770 13503 10024 20005 39866 40151 52004 81500 333 81650
201711201400 AAXX 20141 11968 42770 10303 10035 20010 39864 40148 81530 333 81650
201711201300 AAXX 20131 11968 42762 50403 10042 20019 39863 40146 84530 333 84650
201711201200 AAXX 20121 11968 11060 60001 10041 20023 39862 40145 52006 60001 70341 85530 333 81701 84656
201711201100 AAXX 20111 11968 41030 30002 10018 20014 39861 40147 71011 83600 333 83701
201711201000 AAXX 20101 11968 41110 61102 10003 21001 39862 40150 71011 86600 333 86702
201711200900 AAXX 20091 11968 41010 31702 11002 21009 39856 40144 52013 72841 83600 333 83701
201711200800 AAXX 20081 11968 41002 30001 11011 21016 39854 40143 74444 83600 333 83701
201711200700 AAXX 20071 11968 41009 33201 11019 21024 39849 40139 74411 82630 333 82701
201711200600 AAXX 20061 11968 11457 63002 11010 21017 39843 40132 52013 69942 72261 84630 333 21030 3107 43997 70006 84710 85359
201711200500 AAXX 20051 11968 41458 71502 11007 21014 39838 40126 72222 84520 333 82710 84635 87458
201711200400 AAXX 20041 11968 42465 60002 11003 21014 39833 40120 83630 333 83710 86359
201711200300 AAXX 20031 11968 42360 62501 11008 21019 39830 40118 57005 84630 333 84707 85363
201711200200 AAXX 20021 11968 42460 52002 11009 21016 39830 40118 83601 333 83710 84070
201711200100 AAXX 20011 11968 41357 41501 11018 21024 39834 40123 74000 83601 333 83707 83070
201711200000 AAXX 20001 11968 11358 41401 11028 21035 39835 40125 52002 60001 74000 84600 333 55001 84707
201711192300 AAXX 19231 11968 41358 12201 11019 21026 39834 40123 74000 81600 333 81707
201711192200 AAXX 19221 11968 41760 10001 11013 21020 39835 40124 74000 81500 333 81650
201711192100 AAXX 19211 11968 41760 10001 11010 21017 39833 40121 52007 74000 81500 333 81650
201711192000 AAXX 19201 11968 42770 12101 10003 21006 39830 40117 81500 333 81650
201711191900 AAXX 19191 11968 42770 22404 10016 21002 39827 40112 81540 333 81650
201711191800 AAXX 19181 11968 11770 22203 10019 20001 39826 40111 52005 69922 70161 81540 333 10055 81650
201711191700 AAXX 19171 11968 42665 42205 10031 20007 39824 40108 81530 333 81640 84357
201711191600 AAXX 19161 11968 42560 62206 10040 20009 39821 40103 83570 333 81625 86459
201711191500 AAXX 19151 11968 41560 82206 10048 20013 39821 40103 57007 72162 8652 333 82622 84633
201711191400 AAXX 19141 11968 41460 80001 10039 20019 39822 40104 76022 8652 333 81615 85622
201711191300 AAXX 19131 11968 42570 81804 10054 20019 39824 40105 8657 333 82620 84635 87359
201711191200 AAXX 19121 11968 11565 82103 10052 20013 39828 40109 57011 60001 70242 8657 333 86620 86360
201711191100 AAXX 19111 11968 42562 61903 10050 20011 39832 40114 84531 333 84620 85070
201711191000 AAXX 19101 11968 42460 61804 10042 20011 39837 40120 83531 333 83613 84070
201711190900 AAXX 19091 11968 41758 61302 10030 20014 39839 40123 58002 71042 82530 333 82650 86365
201711190800 AAXX 19081 11968 41256 60001 10022 20013 39841 40126 72844 82531 333 81704 85070
201711190700 AAXX 19071 11968 41105 40001 10011 20005 39843 40129 74400 83630 333 83703
201711190600 AAXX 19061 11968 11240 60000 10012 20005 39841 40127 51006 60002 71022 83531 333 20006 31101 70005 81705 83656
201711190500 AAXX 19051 11968 41259 80000 10014 20005 39841 40127 71022 885 333 84705 88657
201711190400 AAXX 19041 11968 41758 82101 10009 21002 39840 40126 71022 84507 333 84656 88270
201711190300 AAXX 19031 11968 41357 81602 10014 20004 39835 40121 57015 71022 885 333 85707 88656
201711190200 AAXX 19021 11968 41359 81702 10021 20011 39840 40125 71022 885 333 85707 88656
201711190100 AAXX 19011 11968 41557 81903 10033 20026 39846 40130 71022 886 333 85726 88643
201711190000 AAXX 19001 11968 11270 81802 10037 20027 39850 40134 57012 69901 70262 885 333 55000 83705 85711 88645
201711182300 AAXX 18231 11968 42470 82601 10043 20020 39855 40138 886 333 84710 88715
201711182200 AAXX 18221 11968 42382 83601 10041 20023 39858 40141 886 333 84708 88715
201711182100 AAXX 18211 11968 42460 80702 10044 20032 39862 40145 57011 885 333 83710 88820
201711182000 AAXX 18201 11968 42360 80001 10051 20041 39867 40150 885 333 84707 88620
201711181900 AAXX 18191 11968 42260 81902 10051 20042 39870 40152 885 333 82605 88620
201711181800 AAXX 18181 11968 11560 82102 10053 20043 39873 40155 57008 69952 72162 886 333 10070 88720
201711181700 AAXX 18171 11968 41360 82102 10053 20044 39876 40158 76122 885 333 84707 88625
201711181600 AAXX 18161 11968 42460 71902 10055 20042 39877 40159 87500 333 83710 87625
201711181500 AAXX 18151 11968 42460 72001 10058 20040 39881 40163 57013 87500 333 81710 87632
201711181400 AAXX 18141 11968 42465 72601 10060 20040 39885 40167 87500 333 82718 87633
201711181300 AAXX 18131 11968 42460 72402 10064 20041 39890 40172 87500 333 81718 87628
201711181200 AAXX 18121 11968 11460 72302 10067 20030 39894 40176 57016 69941 70262 87500 333 83718 87625
201711181100 AAXX 18111 11968 42460 70001 10068 20032 39898 40180 86530 333 82717 84625 86359
201711181000 AAXX 18101 11968 41460 70001 10061 20038 39906 40189 72166 87500 333 82710 87650
201711180900 AAXX 18091 11968 41460 80501 10053 20036 39910 40194 50001 76166 885 333 82715 88638
201711180800 AAXX 18081 11968 41660 83602 10049 20029 39912 40196 76166 885 333 84635 88648
201711180700 AAXX 18071 11968 41460 80001 10044 20029 39911 40196 76122 885 333 82715 88640
201711180600 AAXX 18061 11968 11460 83401 10040 20025 39909 40194 57008 60032 72166 885 333 20039 32003 70044 81715 84642 88650
201711180500 AAXX 18051 11968 4165 83402 10041 20023 39911 40196 76166 8802 333 88546
201711180400 AAXX 18041 11968 4162 83503 10042 20022 39915 40200 76166 8802 333 88530
201711180300 AAXX 18031 11968 4162 83503 10043 20023 39917 40202 57009 76166 8802 333 88528
201711180200 AAXX 18021 11968 41662 83603 10044 20026 39920 40205 76166 8152 333 81637 88545
201711180100 AAXX 18011 11968 4165 80103 10044 20026 39925 40210 76166 8802 333 88536
201711180000 AAXX 18001 11968 1165 80205 10046 20026 39926 40211 57007 60021 76166 8802 333 55003 88540
201711172300 AAXX 17231 11968 4165 80106 10052 20030 39929 40213 76166 8802 333 88534
201711172200 AAXX 17221 11968 41465 80106 10055 20035 39932 40216 76166 8172 333 81715 88533
201711172100 AAXX 17211 11968 4165 80106 10056 20039 39933 40217 58001 76166 8802 333 88530
201711172000 AAXX 17201 11968 4165 80106 10057 20040 39935 40219 76166 8802 333 88528
201711171900 AAXX 17191 11968 41565 80106 10060 20040 39934 40218 76166 8152 333 81629 88541
201711171800 AAXX 17181 11968 11665 80205 10062 20044 39934 40217 58002 60012 76166 885 333 10082 85636 88649
201711171700 AAXX 17171 11968 41665 80802 10066 20039 39935 40218 76066 86530 333 82635 86650 87358
201711171600 AAXX 17161 11968 41665 80102 10063 20040 39936 40219 76066 86530 333 82635 85650 87358
201711171500 AAXX 17151 11968 41665 80402 10063 20049 39936 40219 55001 76066 8653 333 82645 86650 87358
201711171400 AAXX 17141 11968 41665 73601 10071 20037 39934 40216 76066 84530 333 84647 86358
201711171300 AAXX 17131 11968 41765 70001 10073 20037 39934 40216 76066 84530 333 84656 87358
201711171200 AAXX 17121 11968 11670 70001 10076 20035 39937 40219 57012 69901 76062 84530 333 84645 86358
201711171100 AAXX 17111 11968 41680 70001 10081 20017 39941 40223 76066 85530 333 81635 84650 86360
201711171000 AAXX 17101 11968 41680 70001 10075 20009 39945 40227 76022 85530 333 81645 84650 86360
201711170900 AAXX 17091 11968 42780 70001 10074 20010 39949 40232 53004 84540 333 84650 86360
201711170800 AAXX 17081 11968 42580 70301 10062 20011 39945 40229 83830 333 81830 83656 86360
201711170700 AAXX 17071 11968 42780 70001 10042 20016 39946 40232 83530 333 83656 86360
201711170600 AAXX 17061 11968 12780 70301 10043 20006 39945 40231 55003 60002 83530 333 20030 30002 70000 83656 86360
201711170500 AAXX 17051 11968 42770 83401 10038 20008 39944 40230 84530 333 84656 86360
201711170400 AAXX 17041 11968 42765 80101 10044 20009 39945 40231 84530 333 84656 87359
201711170300 AAXX 17031 11968 42765 82801 10042 20009 39948 40234 57008 8753 333 87656
201711170200 AAXX 17021 11968 42765 83101 10036 20012 39949 40236 84530 333 84650 87359
201711170100 AAXX 17011 11968 4270 71301 10033 20013 39954 40241 87030 333 87359
201711170000 AAXX 17001 11968 12770 80001 10040 20015 39956 40242 57006 60001 82530 333 55078 82650 87359
201711162300 AAXX 16231 11968 42770 82901 10038 20012 39958 40245 82530 333 82656 87359
201711162200 AAXX 16221 11968 42870 80701 10032 20012 39960 40247 82530 333 82657 87358
201711162100 AAXX 16211 11968 4270 70001 10036 20010 39962 40249 58002 87030 333 87358
201711162000 AAXX 16201 11968 4270 70601 10038 20010 39962 40249 87030 333 87358
201711161900 AAXX 16191 11968 4270 70902 10043 20006 39964 40250 87030 333 87357
201711161800 AAXX 16181 11968 1270 50001 10047 21003 39964 40250 57005 60002 85030 333 10094 85358
201711161700 AAXX 16171 11968 4280 10001 10041 21007 39966 40253 81031 333 81360
201711161600 AAXX 16161 11968 4280 10103 10065 20000 39967 40251 81030 333 81360
201711161500 AAXX 16151 11968 4284 30403 10049 21003 39969 40255 57008 82031 333 82360
201711161400 AAXX 16141 11968 42984 20304 10086 20003 39972 40254 80001 333 82070
201711161300 AAXX 16131 11968 4282 30106 10093 20002 39972 40253 81031 333 81360 83070
201711161200 AAXX 16121 11968 1282 20205 10093 20002 39977 40258 57016 60001 81031 333 81360
201711161100 AAXX 16111 11968 4282 33606 10085 20000 39982 40264 82031 333 82360
201711161000 AAXX 16101 11968 4282 33506 10076 21004 39988 40272 82031 333 82358 83070
201711160900 AAXX 16091 11968 4280 30503 10063 21011 39993 40278 58002 82031 333 82358
201711160800 AAXX 16081 11968 42780 40402 10043 21015 39992 40279 81531 333 81650 83070
201711160700 AAXX 16071 11968 4281 30000 11005 21030 39996 40288 81031 333 81360 83070
201711160600 AAXX 16061 11968 1282 30000 11028 21046 39995 40290 52001 60002 81031 333 21040 34108 70000 81360 83070
201711160500 AAXX 16051 11968 42980 13601 11020 21042 39994 40288 80001 333 81070
201711160400 AAXX 16041 11968 42980 00001 11025 21042 39995 40290
201711160300 AAXX 16031 11968 42980 02201 11021 21038 39994 40288 52001
201711160200 AAXX 16021 11968 42980 00903 11030 21047 39990 40285
201711160100 AAXX 16011 11968 42980 00402 11016 21039 39991 40285
201711160000 AAXX 16001 11968 12980 00002 11022 21038 39993 40287 58003 60001 333 55073
201711152300 AAXX 15231 11968 42980 00502 11010 21034 39995 40288
201711152200 AAXX 15221 11968 42980 00001 11006 21030 39997 40290
201711152100 AAXX 15211 11968 42980 03603 10012 21035 39996 40287 50006
201711152000 AAXX 15201 11968 42980 00001 11011 21038 39998 40291
201711151900 AAXX 15191 11968 42980 00001 11009 21036 39995 40288
201711151800 AAXX 15181 11968 12980 03604 10018 21039 39990 40280 52007 60002 333 10088
201711151700 AAXX 15171 11968 42980 00000 10034 21038 39989 40277
201711151600 AAXX 15161 11968 42980 10001 10045 21019 39987 40274 80001 333 81070
201711151500 AAXX 15151 11968 42982 10602 10050 21028 39983 40269 57004 80001 333 81070
201711151400 AAXX 15141 11968 42982 10502 10083 21026 39984 40267 80001 333 81070
201711151300 AAXX 15131 11968 42982 10002 10086 21036 39982 40264 80001 333 81070
201711151200 AAXX 15121 11968 12982 10002 10087 21028 39987 40270 57012 60001 80001 333 81070
201711151100 AAXX 15111 11968 42982 10001 10071 21004 39995 40279 80001 333 81070
201711151000 AAXX 15101 11968 42982 10002 10052 21004 39999 40285 80001 333 81070
201711150900 AAXX 15091 11968 42982 10001 10037 21012 39999 40287 52008 80001 333 81070
201711150800 AAXX 15081 11968 42982 10001 10018 21016 39998 40288 80001 333 81070
201711150700 AAXX 15071 11968 4280 11401 11011 21031 39994 40287 81040 333 81360
201711150600 AAXX 15061 11968 1280 12201 11016 21033 39991 40284 53013 60002 81040 333 21030 34108 70000 81360
201711150500 AAXX 15051 11968 4280 10001 11027 21040 39983 40278 81040 333 81360
201711150400 AAXX 15041 11968 42980 00001 11023 21037 39978 40272
201711150300 AAXX 15031 11968 42980 00403 11006 21041 39978 40270 52003
201711150200 AAXX 15021 11968 42980 00002 11007 21040 39977 40269
201711150100 AAXX 15011 11968 42980 03502 11004 21034 39977 40269
201711150000 AAXX 15001 11968 12980 00104 10009 21028 39975 40265 52005 60001 333 55068
201711142300 AAXX 14231 11968 42980 00203 10002 21030 39974 40265
201711142200 AAXX 14221 11968 42982 00104 10007 21030 39972 40262
201711142100 AAXX 14211 11968 42982 00105 10019 21028 39970 40259 51006
201711142000 AAXX 14201 11968 42982 00104 10014 21029 39970 40260
201711141900 AAXX 14191 11968 42980 00204 10013 21030 39967 40257
201711141800 AAXX 14181 11968 12980 00105 10029 21028 39964 40252 52015 60002 333 10069
201711141700 AAXX 14171 11968 42680 10205 10036 21028 39963 40250 81500 333 81635
201711141600 AAXX 14161 11968 42680 30206 10041 21023 39958 40244 83500 333 83634
201711141500 AAXX 14151 11968 42680 20206 10046 21016 39949 40235 52015 81530 333 81635 91011
201711141400 AAXX 14141 11968 42680 20208 10054 21020 39943 40228 81530 333 81635
201711141300 AAXX 14131 11968 42680 20207 10061 21015 39938 40222 81530 333 81634
201711141200 AAXX 14121 11968 12680 20210 10068 21016 39934 40217 52010 60001 81530 333 81635
201711141100 AAXX 14111 11968 42680 30110 10062 21014 39928 40211 82530 333 82635
201711141000 AAXX 14101 11968 42680 30110 10062 21012 39925 40208 82530 333 82635
201711140900 AAXX 14091 11968 42570 43610 10057 21010 39924 40208 52023 83501 333 83633
201711140800 AAXX 14081 11968 42670 40208 10055 20003 39919 40203 83531 333 83636
201711140700 AAXX 14071 11968 42670 50207 10047 20001 39912 40196 82530 333 82635 85358
201711140600 AAXX 14061 11968 12670 50208 10043 20003 39901 40186 52023 69922 82530 333 20032 32002 70036 82635 84358
201711140500 AAXX 14051 11968 42670 40208 10043 21005 39890 40174 81530 333 81635 83359
201711140400 AAXX 14041 11968 4270 60208 10042 20000 39882 40166 86010 333 86460
201711140300 AAXX 14031 11968 4270 70208 10045 21001 39878 40162 52022 87010 333 87459
201711140200 AAXX 14021 11968 42865 80208 10048 21002 39868 40151 885 333 88657
201711140100 AAXX 14011 11968 42765 80207 10047 21003 39862 40145 885 333 88656
201711140000 AAXX 14001 11968 11765 80107 10045 21001 39856 40139 52018 69921 70262 885 333 55000 88656
201711132300 AAXX 13231 11968 41765 80207 10040 20009 39853 40136 72122 885 333 81650 87656
201711132200 AAXX 13221 11968 42765 80208 10033 20010 39844 40128 885 333 88650
201711132100 AAXX 13211 11968 41665 80108 10033 20009 39838 40122 52024 72162 8752 333 81635 87650
201711132000 AAXX 13201 11968 41665 80108 10035 20006 39834 40117 76062 8752 333 82640 87650
201711131900 AAXX 13191 11968 41565 83608 10039 20006 39827 40110 76166 8252 333 82628 88550
201711131800 AAXX 13181 11968 11565 83610 10046 20004 39814 40096 52036 60032 76162 8252 333 10094 82625 88547
201711131700 AAXX 13171 11968 41670 83610 10055 20007 39801 40081 76122 885 333 88640
201711131600 AAXX 13161 11968 42660 83609 10059 20006 39791 40071 885 333 88635
201711131500 AAXX 13151 11968 41560 80109 10061 20022 39778 40057 52024 70262 885 333 81625 88630
201711131400 AAXX 13141 11968 41460 80108 10066 20039 39772 40050 72166 885 333 82714 88625
201711131300 AAXX 13131 11968 41459 83607 10078 20059 39764 40041 76066 8652 333 81710 85625 88560
201711131200 AAXX 13121 11968 11559 80205 10088 20076 39754 40029 52013 60021 76062 8652 333 86620 88560
201711131100 AAXX 13111 11968 41450 80202 10087 20076 39751 40026 76066 8672 333 86716 88560
201711131000 AAXX 13101 11968 41560 70103 10093 20072 39745 40020 76022 84830 333 81825 83650 86360
201711130900 AAXX 13091 11968 42760 73504 10090 20071 39741 40016 53003 83530 333 83656 86360
201711130800 AAXX 13081 11968 41758 60203 10079 20068 39737 40013 71022 84530 333 84656 85360
201711130700 AAXX 13071 11968 41550 63603 10072 20064 39737 40013 71022 84530 333 82625 86357
201711130600 AAXX 13061 11968 11560 63501 10071 20062 39738 40015 52013 60082 70262 84530 333 20050 32005 70086 82620 84650 86358
201711130500 AAXX 13051 11968 41558 60402 10067 20061 39733 40010 71022 86500 333 82622 83642 85656
201711130400 AAXX 13041 11968 41559 83602 10072 20063 39729 40005 72166 885 333 85621 88650
201711130300 AAXX 13031 11968 41456 83403 10067 20061 39725 40002 57010 76022 885 333 83717 88656
201711130200 AAXX 13021 11968 41445 80201 10064 20058 39726 40003 76166 8262 333 82716 88547
201711130100 AAXX 13011 11968 4157 83401 10062 20056 39737 40014 76122 8802 333 88520
201711130000 AAXX 13001 11968 11257 83603 10060 20054 39735 40013 57013 60061 72166 885 333 55018 82705 85714 88650
201711122300 AAXX 12231 11968 4135 80202 10056 20050 39737 40015 76166 8802 333 88503
201711122200 AAXX 12221 11968 4150 80001 10057 20050 39745 40023 76166 8802 333 88505
201711122100 AAXX 12211 11968 4157 80001 10056 20047 39748 40026 57025 76166 8802 333 88509
201711122000 AAXX 12201 11968 4158 80001 10051 20041 39757 40036 76166 8802 333 88508
201711121900 AAXX 12191 11968 4158 81502 10051 20039 39765 40044 76122 8802 333 88518
201711121800 AAXX 12181 11968 11564 81302 10052 20037 39773 40053 57018 69962 72122 885 333 10077 87630 88644
201711121700 AAXX 12171 11968 41562 71503 10052 20037 39782 40062 76066 87500 333 87630
201711121600 AAXX 12161 11968 41562 71504 10057 20037 39787 40067 76066 87500 333 87620
201711121500 AAXX 12151 11968 41462 71403 10065 20036 39791 40070 57010 76022 87500 333 87618
201711121400 AAXX 12141 11968 41462 71503 10069 20044 39794 40072 76022 86530 333 86618 83359
201711121300 AAXX 12131 11968 42562 71601 10073 20034 39797 40075 82532 333 82625 83360 86070
201711121200 AAXX 12121 11968 12562 60001 10076 20031 39801 40079 57006 60001 82632 333 82720 86070
201711121100 AAXX 12111 11968 42462 40002 10076 20040 39805 40083 84630 333 84714
201711121000 AAXX 12101 11968 42460 40001 10069 20032 39805 40084 84600 333 84710
201711120900 AAXX 12091 11968 42360 50102 10053 20033 39807 40088 52012 85600 333 85707
201711120800 AAXX 12081 11968 42260 50001 10050 20033 39806 40087 85600 333 85706
201711120700 AAXX 12071 11968 42462 20000 10039 20027 39800 40082 82600 333 82710
201711120600 AAXX 12061 11968 11456 70001 10040 20030 39795 40077 53008 60012 71066 87600 333 20036 31002 70014 87710
201711120500 AAXX 12051 11968 42460 71703 10044 20031 39786 40067 87500 333 84710 87621
201711120400 AAXX 12041 11968 41365 71903 10041 20032 39785 40066 72166 87500 333 86708 87621
201711120300 AAXX 12031 11968 41257 72103 10040 20031 39787 40068 57016 76166 87500 333 85706 87621
201711120200 AAXX 12021 11968 41256 81805 10040 20031 39790 40071 76166 8362 333 83706 88510
201711120100 AAXX 12011 11968 4165 82203 10040 20025 39800 40082 76166 8802 333 88512
201711120000 AAXX 12001 11968 11570 72104 10048 20016 39803 40084 57013 69901 76162 87500 333 55049 83621 87640
201711112300 AAXX 11231 11968 41680 72005 10047 20012 39809 40090 76122 87500 333 87649
201711112200 AAXX 11221 11968 42782 72003 10049 20005 39813 40094 87500 333 87656
201711112100 AAXX 11211 11968 42782 72204 10050 20000 39816 40097 57018 87500 333 82656 87658
201711112000 AAXX 11201 11968 4282 62204 10047 21001 39823 40105 86050 333 86359
201711111900 AAXX 11191 11968 4282 52205 10048 21010 39827 40109 85050 333 85361
201711111800 AAXX 11181 11968 1180 12305 10049 21020 39834 40116 50000 69902 70181 81030 333 10102 81360
201711111700 AAXX 11171 11968 4280 52505 10063 21026 39835 40116 85030 333 85360
201711111600 AAXX 11161 11968 42780 22505 10063 21026 39836 40117 81430 333 81656
201711111500 AAXX 11151 11968 41782 32405 10078 21020 39834 40113 53005 70280 82431 333 82656
201711111400 AAXX 11141 11968 41782 32408 10093 21023 39832 40110 71400 82840 333 82850
201711111300 AAXX 11131 11968 41682 32309 10101 21010 39827 40104 72500 83240 333 81842 83850
201711111200 AAXX 11121 11968 11680 42408 10095 20019 39829 40106 57008 60001 71511 84860 333 82836 83656
201711111100 AAXX 11111 11968 42580 32407 10089 20037 39833 40111 83500 333 81622 83657
201711111000 AAXX 11101 11968 42575 72408 10081 20039 39835 40114 87500 333 82620 86656
201711110900 AAXX 11091 11968 42470 72306 10080 20046 39837 40116 50002 85530 333 81715 85657
201711110800 AAXX 11081 11968 42462 62304 10072 20045 39841 40120 83530 333 82712 84358
201711110700 AAXX 11071 11968 41458 62004 10057 20040 39844 40125 71011 85630 333 84711
201711110600 AAXX 11061 11968 11457 32205 10051 20038 39835 40117 55004 69912 71061 83600 333 20051 31004 70002 83712
201711110500 AAXX 11051 11968 42462 72205 10058 20043 39834 40115 85630 333 85710 91010
201711110400 AAXX 11041 11968 41462 72105 10061 20046 39838 40119 72166 85530 333 83710 85635
201711110300 AAXX 11031 11968 41562 72208 10062 20042 39839 40120 57013 76066 87500 333 87625
201711110200 AAXX 11021 11968 41462 82406 10060 20040 39843 40124 76066 885 333 85711 88620
201711110100 AAXX 11011 11968 41462 82305 10061 20041 39848 40129 76066 885 333 84710 88620
201711110000 AAXX 11001 11968 11462 72304 10062 20039 39852 40133 57022 69901 76022 87500 333 55000 84715 87625
201711102300 AAXX 10231 11968 42565 72004 10067 20035 39860 40141 87500 333 87625
201711102200 AAXX 10221 11968 42665 72206 10072 20029 39869 40149 87500 333 87635
201711102100 AAXX 10211 11968 42665 72104 10077 20024 39874 40154 57010 87500 333 87640
201711102000 AAXX 10201 11968 42665 72106 10074 20031 39878 40158 87500 333 87645
201711101900 AAXX 10191 11968 42765 72006 10072 20033 39880 40161 87500 333 87650
201711101800 AAXX 10181 11968 12565 72205 10072 20040 39884 40165 57009 60002 87500 333 10090 83620 87650
201711101700 AAXX 10171 11968 42565 72204 10075 20041 39888 40169 87500 333 82622 87647
201711101600 AAXX 10161 11968 42665 72304 10077 20045 39891 40172 87500 333 87648
201711101500 AAXX 10151 11968 42665 72207 10078 20048 39893 40173 57012 87500 333 87648
201711101400 AAXX 10141 11968 42465 72204 10083 20049 39897 40177 87800 333 82819 87649
201711101300 AAXX 10131 11968 42565 82205 10089 20053 39898 40177 888 333 82822 88650
201711101200 AAXX 10121 11968 12460 82303 10090 20059 39905 40184 57019 60001 885 333 82715 87623
201711101100 AAXX 10111 11968 41357 80002 10077 20062 39912 40193 71022 886 333 86708 88714
201711101000 AAXX 10101 11968 41345 82101 10074 20062 39919 40200 71022 886 333 88708
201711100900 AAXX 10091 11968 41242 81901 10074 20062 39924 40206 52002 71022 886 333 88706
201711100800 AAXX 10081 11968 41338 82302 10073 20062 39925 40207 71022 886 333 86707 88630
201711100700 AAXX 10071 11968 41335 80001 10070 20062 39922 40204 71022 885 333 85707 88630
201711100600 AAXX 10061 11968 11235 82101 10070 20062 39922 40204 57008 69952 72022 885 333 20069 31007 70009 84706 88630
201711100500 AAXX 10051 11968 41435 80002 10071 20064 39925 40207 75052 885 333 86710 88625
201711100400 AAXX 10041 11968 41421 82002 10073 20066 39928 40210 75022 885 333 85715 88623
201711100300 AAXX 10031 11968 41143 82502 10077 20070 39930 40211 57006 71022 886 333 84703 88707
201711100200 AAXX 10021 11968 41243 82302 10077 20070 39933 40214 71022 886 333 88705
201711100100 AAXX 10011 11968 41245 82102 10078 20070 39936 40218 71022 886 333 88705
201711100000 AAXX 10001 11968 11240 82302 10078 20070 39936 40218 57005 69921 71062 886 333 55000 88705
201711092300 AAXX 09231 11968 41240 80001 10078 20070 39938 40220 71022 886 333 88705
201711092200 AAXX 09221 11968 41235 82102 10077 20070 39940 40222 71022 886 333 88705
201711092100 AAXX 09211 11968 41235 81902 10079 20073 39941 40222 58001 71062 886 333 88705
201711092000 AAXX 09201 11968 41135 82002 10080 20074 39942 40223 72162 886 333 82702 88706
201711091900 AAXX 09191 11968 41240 81902 10081 20073 39944 40225 76062 886 333 88705
201711091800 AAXX 09181 11968 11245 82102 10081 20073 39942 40223 50002 69942 71062 886 333 10084 88706
201711091700 AAXX 09171 11968 41240 71902 10082 20074 39943 40224 71022 87600 333 84705 87708
201711091600 AAXX 09161 11968 41240 72401 10081 20073 39941 40222 71022 87600 333 84705 87710
201711091500 AAXX 09151 11968 41240 71101 10082 20073 39940 40221 55001 72166 87600 333 84705 87710
201711091400 AAXX 09141 11968 41340 71301 10082 20071 39939 40220 76066 87600 333 87708
201711091300 AAXX 09131 11968 41350 71802 10082 20071 39940 40221 76066 87600 333 84707 87712
201711091200 AAXX 09121 11968 11240 71601 10081 20069 39941 40222 56006 69931 76066 87600 333 84706 87711
201711091100 AAXX 09111 11968 41250 71401 10080 20068 39942 40224 76066 87600 333 85706 87713
201711091000 AAXX 09101 11968 41340 71401 10075 20066 39945 40227 76066 87600 333 87708
201711090900 AAXX 09091 11968 41140 70001 10071 20062 39947 40230 51008 76066 87500 333 81703 87620
201711090800 AAXX 09081 11968 41540 71401 10065 20058 39946 40229 76066 87500 333 87621
201711090700 AAXX 09071 11968 41550 71801 10065 20058 39943 40226 76066 87500 333 87626
201711090600 AAXX 09061 11968 11556 72901 10062 20055 39939 40222 52006 60012 76066 87500 333 20057 31005 70011 87629
201711090500 AAXX 09051 11968 41558 70000 10060 20053 39937 40220 76066 87600 333 87724
201711090400 AAXX 09041 11968 41558 82201 10058 20049 39935 40219 76066 886 333 88725
201711090300 AAXX 09031 11968 41560 80000 10061 20052 39933 40216 57001 76066 886 333 88726
201711090200 AAXX 09021 11968 41565 80601 10064 20054 39933 40216 76066 885 333 83630 88650
201711090100 AAXX 09011 11968 41565 80501 10061 20050 39934 40217 76066 885 333 85730 88650
201711090000 AAXX 09001 11968 11770 72801 10065 20047 39934 40217 52004 69931 76022 87500 333 55056 87650
201711082300 AAXX 08231 11968 41770 73101 10066 20044 39930 40213 76066 87500 333 87656
201711082200 AAXX 08221 11968 41770 71201 10062 20044 39932 40215 76022 87500 333 87656
201711082100 AAXX 08211 11968 42770 70102 10082 20035 39930 40211 52005 87500 333 87656
201711082000 AAXX 08201 11968 42770 73602 10081 20036 39929 40210 87500 333 87656
201711081900 AAXX 08191 11968 42870 70103 10084 20034 39926 40207 87500 333 87657
201711081800 AAXX 08181 11968 12770 73503 10088 20034 39925 40205 52002 60002 87500 333 10118 87656
201711081700 AAXX 08171 11968 42780 70203 10090 20034 39923 40203 85530 333 85650 85360
201711081600 AAXX 08161 11968 42770 70103 10091 20035 39926 40206 85530 333 85650 85359
201711081500 AAXX 08151 11968 42770 70402 10093 20033 39923 40203 51002 83532 333 83650 85359
201711081400 AAXX 08141 11968 4270 70602 10104 20034 39923 40202 85052 333 85357 85070
201711081300 AAXX 08131 11968 4270 70504 10109 20032 39921 40199 84054 333 84358 85070
201711081200 AAXX 08121 11968 12980 10603 10112 20025 39921 40199 57012 60001 80001 333 81070
201711081100 AAXX 08111 11968 42980 10503 10114 20030 39924 40202 80001 333 81070
201711081000 AAXX 08101 11968 42980 10104 10100 20024 39929 40208 80001 333 81070
201711080900 AAXX 08091 11968 4280 10205 10086 20028 39933 40214 53001 81031 333 81360
201711080800 AAXX 08081 11968 4280 20204 10059 20020 39932 40216 81032 333 81360
201711080700 AAXX 08071 11968 4280 10104 10034 20010 39932 40218 81031 333 81360
201711080600 AAXX 08061 11968 1280 13605 10019 20001 39932 40220 50002 60002 81031 333 20007 30000 70000 81360
201711080500 AAXX 08051 11968 4280 23605 10019 20000 39933 40221 81031 333 81360
201711080400 AAXX 08041 11968 42975 00105 10020 20002 39933 40221
201711080300 AAXX 08031 11968 42970 00105 10023 20005 39930 40217 57008
201711080200 AAXX 08021 11968 42970 00404 10021 20005 39932 40220
201711080100 AAXX 08011 11968 42970 00404 10035 20014 39936 40222
201711080000 AAXX 08001 11968 12970 00303 10036 20015 39938 40224 58002 60001 333 55080
201711072300 AAXX 07231 11968 42970 00403 10037 20012 39940 40226
201711072200 AAXX 07221 11968 42970 00403 10047 20017 39942 40227
201711072100 AAXX 07211 11968 42965 20304 10048 20018 39940 40225 50000 80001 333 82070
201711072000 AAXX 07201 11968 42965 20204 10052 20019 39943 40228 80001 333 82070
201711071900 AAXX 07191 11968 42965 00303 10051 20018 39941 40226
201711071800 AAXX 07181 11968 12965 00106 10061 20022 39940 40224 50003 60002 333 10111
201711071700 AAXX 07171 11968 42970 20106 10062 20023 39942 40226 80001 333 82070
201711071600 AAXX 07161 11968 42970 20105 10072 20027 39942 40224 80001 333 82070
201711071500 AAXX 07151 11968 42970 20204 10081 20030 39937 40218 55001 80001 333 82070
201711071400 AAXX 07141 11968 42970 00205 10098 20035 39937 40217
201711071300 AAXX 07131 11968 42970 00206 10106 20039 39935 40214
201711071200 AAXX 07121 11968 12970 00405 10110 20042 39938 40216 58009 60001
201711071100 AAXX 07111 11968 42965 00306 10105 20040 39944 40223
201711071000 AAXX 07101 11968 42965 00306 10103 20042 39947 40226
201711070900 AAXX 07091 11968 42965 00207 10097 20047 39947 40227 51005
201711070800 AAXX 07081 11968 42965 10108 10089 20047 39947 40228 80001 333 81075
201711070700 AAXX 07071 11968 42965 10106 10084 20042 39945 40226 80001 333 81070
201711070600 AAXX 07061 11968 12965 10106 10081 20041 39942 40224 52005 60002 80001 333 20048 30101 70000 81070
201711070500 AAXX 07051 11968 42980 03506 10089 20037 39938 40219
201711070400 AAXX 07041 11968 42980 03607 10091 20045 39938 40218
201711070300 AAXX 07031 11968 42980 03505 10091 20047 39937 40217 55002
201711070200 AAXX 07021 11968 42980 03605 10086 20044 39936 40217
201711070100 AAXX 07011 11968 42980 03506 10089 20043 39938 40219
201711070000 AAXX 07001 11968 12980 00104 10089 20043 39939 40220 52010 60001 333 55074
201711062300 AAXX 06231 11968 42980 03605 10091 20039 39935 40215
201711062200 AAXX 06221 11968 42980 10106 10096 20036 39933 40213 80001 333 81070
201711062100 AAXX 06211 11968 42980 20002 10050 20024 39929 40213 52013 80001 333 82070
201711062000 AAXX 06201 11968 42980 20202 10100 20040 39925 40204 80001 333 82070
201711061900 AAXX 06191 11968 42980 10102 10068 20023 39920 40202 80001 333 81070
201711061800 AAXX 06181 11968 12980 10701 10067 20026 39916 40198 52010 60002 80001 333 10148 81070
201711061700 AAXX 06171 11968 42970 10201 10080 20027 39914 40195 80001 333 81070
201711061600 AAXX 06161 11968 42975 23402 10093 20028 39912 40192 80001 333 82070
201711061500 AAXX 06151 11968 42982 33301 10114 20034 39906 40183 53004 80002 333 83070
201711061400 AAXX 06141 11968 42982 32401 10147 20032 39904 40178 80002 333 83070
201711061300 AAXX 06131 11968 42980 41301 10134 20029 39901 40176 80002 333 84070
201711061200 AAXX 06121 11968 12980 40002 10136 20031 39902 40177 58003 60001 80002 333 84070
201711061100 AAXX 06111 11968 42980 40001 10128 20048 39902 40178 80002 333 84070
201711061000 AAXX 06101 11968 42980 50001 10122 20040 39905 40181 80006 333 85270
201711060900 AAXX 06091 11968 42975 50002 10099 20038 39905 40184 52011 80006 333 85270
201711060800 AAXX 06081 11968 42975 50203 10083 20038 39903 40183 80004 333 85070
201711060700 AAXX 06071 11968 41970 20102 10056 20028 39900 40183 71200 80001 333 82070
201711060600 AAXX 06061 11968 11970 30101 10031 20016 39894 40179 52010 60002 71200 80001 333 20006 30103 70000 83070
201711060500 AAXX 06051 11968 4260 30001 10021 20011 39888 40174 81031 333 81361 83070
201711060400 AAXX 06041 11968 4260 13501 10017 20008 39886 40173 81030 333 81360
201711060300 AAXX 06031 11968 4260 33201 10013 20004 39884 40171 57003 83030 333 83363
201711060200 AAXX 06021 11968 4260 33401 10019 20009 39886 40172 83030 333 83364
201711060100 AAXX 06011 11968 4260 33401 10021 20011 39888 40174 83030 333 83364
201711060000 AAXX 06001 11968 1260 23601 10028 20016 39887 40173 51002 60001 82031 333 55022 82365
201711052300 AAXX 05231 11968 42960 30000 10032 20019 39887 40172 80001 333 83070
201711052200 AAXX 05221 11968 42965 40202 10029 20016 39887 40172 80001 333 84070
201711052100 AAXX 05211 11968 42970 52001 10056 20031 39885 40168 55000 80008 333 85270
201711052000 AAXX 05201 11968 42970 62102 10072 20034 39884 40165 80008 333 86270
201711051900 AAXX 05191 11968 42970 62702 10052 20034 39883 40166 80006 333 86270
201711051800 AAXX 05181 11968 1270 63002 10047 20030 39885 40168 58001 60002 81046 333 10108 81365 86270
201711051700 AAXX 05171 11968 4265 33002 10064 20037 39885 40167 81041 333 81365 83070
201711051600 AAXX 05161 11968 4270 32001 10066 20041 39887 40168 81041 333 81360 83070
201711051500 AAXX 05151 11968 42970 52303 10094 20048 39886 40165 57016 80001 333 85070
201711051400 AAXX 05141 11968 4270 52103 10106 20050 39888 40166 81031 333 81360 85070
201711051300 AAXX 05131 11968 42462 30002 10101 20059 39895 40173 81501 333 81615
201711051200 AAXX 05121 11968 11457 20002 10098 20058 39902 40181 57020 60001 71041 81501 333 81612
201711051100 AAXX 05111 11968 41356 52502 10083 20061 39910 40190 71011 84531 333 81609 83630
201711051000 AAXX 05101 11968 41250 72403 10066 20057 39917 40199 71022 87500 333 84706 87630
201711050900 AAXX 05091 11968 41131 72302 10055 20052 39922 40206 58005 71042 876 333 87703
201711050800 AAXX 05081 11968 41115 72402 10046 20043 39927 40212 71042 87600 333 87702
201711050700 AAXX 05071 11968 41108 72402 10042 20039 39928 40213 74444 87600 333 87702
201711050600 AAXX 05061 11968 11008 70000 10036 20032 39927 40213 58003 60002 74422 87600 333 21005 30104 70000 87701
201711050500 AAXX 05051 11968 41112 72602 10035 20031 39928 40214 71022 87600 333 87702
201711050400 AAXX 05041 11968 41112 62303 10035 20031 39930 40216 71011 86600 333 86702
201711050300 AAXX 05031 11968 41110 62204 10038 20034 39930 40216 58001 74011 86600 333 86702
201711050200 AAXX 05021 11968 41015 42303 10037 20033 39931 40217 74000 84600 333 84701
201711050100 AAXX 05011 11968 41440 20001 10007 20003 39932 40221 74000 82600 333 82710
201711050000 AAXX 05001 11968 11340 20001 10018 20012 39931 40219 57007 60001 74000 82600 333 55064 82707
201711042300 AAXX 04231 11968 41940 00101 10025 20019 39935 40222 74000
201711042200 AAXX 04221 11968 41956 00001 10031 20025 39937 40224 74000
201711042100 AAXX 04211 11968 41960 01401 10035 20028 39938 40224 51004 74000
201711042000 AAXX 04201 11968 42970 02202 10036 20023 39938 40224
201711041900 AAXX 04191 11968 42980 02402 10054 20034 39936 40220
201711041800 AAXX 04181 11968 12980 01903 10064 20044 39934 40217 51005 60002 333 10130
201711041700 AAXX 04171 11968 42982 01904 10074 20047 39934 40216
201711041600 AAXX 04161 11968 42982 01905 10084 20052 39931 40212
201711041500 AAXX 04151 11968 42582 21904 10100 20050 39929 40208 57005 82500 333 82633
201711041400 AAXX 04141 11968 42682 42005 10116 20050 39930 40208 84500 333 84635
201711041300 AAXX 04131 11968 42682 42105 10125 20050 39932 40209 84100 333 84840
201711041200 AAXX 04121 11968 12580 22206 10127 20054 39934 40211 57010 60001 82100 333 82833
201711041100 AAXX 04111 11968 42580 22105 10120 20052 39938 40216 82100 333 82830
201711041000 AAXX 04101 11968 42570 22004 10108 20051 39942 40221 82100 333 82825
201711040900 AAXX 04091 11968 41770 11704 10098 20062 39944 40224 52008 70340 81100 333 81850
201711040800 AAXX 04081 11968 41970 00001 10066 20046 39943 40226 72840
201711040700 AAXX 04071 11968 41565 21501 10052 20043 39941 40226 71244 82500 333 82630
201711040600 AAXX 04061 11968 11570 30001 10037 20030 39936 40222 52002 60002 71241 83500 333 20035 31000 70000 83630
201711040500 AAXX 04051 11968 42675 60001 10046 20039 39932 40217 86500 333 86634
201711040400 AAXX 04041 11968 42670 70001 10046 20037 39935 40220 87500 333 87636
201711040300 AAXX 04031 11968 42675 70001 10053 20036 39934 40218 55001 87500 333 81635 87642
201711040200 AAXX 04021 11968 42670 73602 10064 20041 39932 40215 87500 333 83637 86650
201711040100 AAXX 04011 11968 42670 83302 10062 20040 39934 40217 885 333 85635 88650
201711040000 AAXX 04001 11968 12675 73302 10066 20039 39935 40218 52006 60001 87500 333 55016 83637 87649
201711032300 AAXX 03231 11968 42675 70001 10061 20038 39934 40217 87500 333 83649 86656
201711032200 AAXX 03221 11968 42775 60001 10055 20035 39932 40216 86500 333 86650
201711032100 AAXX 03211 11968 42775 50102 10076 20047 39929 40211 52015 85500 333 85656
201711032000 AAXX 03201 11968 42675 51102 10067 20035 39925 40208 85500 333 81648 85656
201711031900 AAXX 03191 11968 42770 73503 10093 20047 39919 40199 87500 333 87656
201711031800 AAXX 03181 11968 12770 70203 10085 20049 39914 40194 52014 60002 87500 333 10120 87656
201711031700 AAXX 03171 11968 42775 70204 10093 20049 39910 40189 87500 333 87656
201711031600 AAXX 03161 11968 42675 70303 10092 20050 39906 40185 87500 333 87635
201711031500 AAXX 03151 11968 42662 70203 10103 20053 39900 40178 52014 87500 333 87640
201711031400 AAXX 03141 11968 42775 70402 10114 20048 39892 40169 87500 333 87656
201711031300 AAXX 03131 11968 42675 70001 10110 20062 39889 40166 87500 333 87645
201711031200 AAXX 03121 11968 11665 70902 10109 20059 39886 40163 52007 60001 70244 87500 333 87645
201711031100 AAXX 03111 11968 42665 70602 10115 20054 39883 40159 87500 333 87640
201711031000 AAXX 03101 11968 42665 60001 10113 20045 39881 40158 86500 333 86645
201711030900 AAXX 03091 11968 41665 50001 10098 20063 39879 40157 52016 70244 84531 333 84645
201711030800 AAXX 03081 11968 41765 50001 10087 20062 39873 40152 70344 83531 333 83650 83360
201711030700 AAXX 03071 11968 41065 40301 10057 20053 39870 40152 74044 82531 333 81701 83360
201711030600 AAXX 03061 11968 11003 30001 10037 20033 39863 40147 52015 60012 74411 83500 333 20025 31000 70011 82701
201711030500 AAXX 03051 11968 41007 51602 10042 20033 39856 40139 74411 83530 333 83701
201711030400 AAXX 03041 11968 41213 30000 10049 20043 39852 40134 74011 83500 333 81705 83657
201711030300 AAXX 03031 11968 41630 41001 10049 20040 39848 40130 53005 74011 84500 333 82640 83657
201711030200 AAXX 03021 11968 41657 40202 10073 20059 39847 40126 71011 83530 333 83640
201711030100 AAXX 03011 11968 41557 63602 10070 20059 39843 40123 71022 84530 333 81626 83635
201711030000 AAXX 03001 11968 11557 80204 10075 20063 39843 40122 53004 60011 71062 8752 333 55000 87622
201711022300 AAXX 02231 11968 41658 80801 10073 20061 39838 40117 76062 8752 333 82640 85650
201711022200 AAXX 02221 11968 42660 80001 10076 20057 39838 40117 8752 333 87646
201711022100 AAXX 02211 11968 41660 82104 10077 20058 39839 40118 57008 76022 8457 333 81640 83656 87459
201711022000 AAXX 02201 11968 41560 82004 10085 20056 39841 40119 76022 8357 333 81632 83357 88459
201711021900 AAXX 02191 11968 42665 82005 10088 20055 39843 40121 885 333 88637
201711021800 AAXX 02181 11968 12665 82005 10091 20056 39847 40125 57012 60002 885 333 10093 88636
201711021700 AAXX 02171 11968 42670 82204 10092 20058 39853 40131 885 333 88635
201711021600 AAXX 02161 11968 42570 82204 10089 20060 39855 40133 885 333 83620 88635
201711021500 AAXX 02151 11968 42670 81905 10089 20058 39859 40137 57019 885 333 88635
201711021400 AAXX 02141 11968 42565 82203 10081 20056 39864 40143 885 333 88620
201711021300 AAXX 02131 11968 42465 82004 10077 20053 39872 40152 886 333 88715
201711021200 AAXX 02121 11968 12460 82004 10074 20054 39878 40158 57023 60001 886 333 88713
201711021100 AAXX 02111 11968 42460 81904 10071 20048 39887 40168 886 333 82712 88819
201711021000 AAXX 02101 11968 42460 81904 10067 20045 39897 40179 886 333 88717
201711020900 AAXX 02091 11968 42460 82003 10058 20036 39901 40184 58004 886 333 88717
201711020800 AAXX 02081 11968 42460 70002 10054 20032 39904 40187 85630 333 85717 86360
201711020700 AAXX 02071 11968 42460 71901 10044 20029 39907 40191 84630 333 84717 87360
201711020600 AAXX 02061 11968 12460 60001 10030 20020 39905 40191 57009 60002 82630 333 20017 30101 70000 82716 86359
201711020500 AAXX 02051 11968 42460 62801 10028 20016 39906 40192 81630 333 81710 86359
201711020400 AAXX 02041 11968 42460 50001 10023 20013 39909 40196 82530 333 81710 85359
201711020300 AAXX 02031 11968 42460 30001 10036 20018 39914 40200 55005 83500 333 81710 83656
201711020200 AAXX 02021 11968 42760 20001 10034 20016 39912 40198 81530 333 81656
201711020100 AAXX 02011 11968 42780 52101 10039 20021 39918 40203 85500 333 85656
201711020000 AAXX 02001 11968 12770 71802 10050 20027 39919 40203 57006 60001 87500 333 55021 87650
201711012300 AAXX 01231 11968 42770 62002 10049 20026 39919 40203 84530 333 84656 86361
201711012200 AAXX 01221 11968 42770 71903 10049 20028 39922 40206 82520 333 82656 87462
201711012100 AAXX 01211 11968 42770 61902 10047 20022 39925 40210 57006 81530 333 81650 86359
201711012000 AAXX 01201 11968 4270 71803 10049 20024 39930 40215 87010 333 87459
201711011900 AAXX 01191 11968 4270 72003 10053 20023 39929 40213 87020 333 87459
201711011800 AAXX 01181 11968 12470 62103 10053 20025 39931 40215 58001 60002 81630 333 10086 81712 86365
201711011700 AAXX 01171 11968 4265 61703 10052 20029 39934 40218 86030 333 86362
201711011600 AAXX 01161 11968 4270 61903 10056 20031 39934 40218 86030 333 86361
201711011500 AAXX 01151 11968 42570 71904 10067 20022 39932 40215 57012 82530 333 82623 87361
201711011400 AAXX 01141 11968 42570 71904 10071 20028 39936 40218 86530 333 86625
201711011300 AAXX 01131 11968 42580 61904 10084 20028 39937 40218 84830 333 83622 84360
201711011200 AAXX 01121 11968 12580 51903 10078 20029 39944 40226 57014 60001 81130 333 81824 85360
201711011100 AAXX 01111 11968 4280 72004 10058 20015 39949 40233 87030 333 87360
201711011000 AAXX 01101 11968 4280 51903 10050 20009 39957 40242 85030 333 85360
201711010900 AAXX 01091 11968 4280 52403 10040 20005 39958 40244 51004 85030 333 85360
201711010800 AAXX 01081 11968 42480 51101 10014 21005 39958 40247 82530 333 81710 84358
201711010700 AAXX 01071 11968 42680 70001 10006 21015 39956 40246 84530 333 83640 84357
201711010600 AAXX 01061 11968 12780 70001 11003 21017 39954 40245 55001 60002 84570 333 21034 34107 70000 84650 85358
201711010500 AAXX 01051 11968 42870 73201 11003 21024 39953 40244 83520 333 83657 87459
201711010400 AAXX 01041 11968 4270 73301 11010 21027 39954 40246 87020 333 87459
201711010300 AAXX 01031 11968 4270 71201 11011 21030 39955 40247 56001 87020 333 87462
201711010200 AAXX 01021 11968 4270 71101 11015 21032 39955 40247 87020 333 87461
201711010100 AAXX 01011 11968 4270 10102 11019 21038 39955 40248 81030 333 81360
201711010000 AAXX 01001 11968 12970 02502 11013 21036 39956 40248 50001 60001 333 55038
202312010000 AAXX 01001 11968 1135 80103 11008 21011 39743 40028 57016 60031 77177 8802 333 55000 88510
202311302300 AAXX 30231 11968 4158 83604 11008 21014 39745 40030 77177 8802 333 88513
202311302200 AAXX 30221 11968 41432 83604 11011 21014 39752 40038 77177 8672 333 86713 88525
202311302100 AAXX 30211 11968 41418 83503 11014 21017 39759 40045 57018 77177 8672 333 86710 88527
202311302000 AAXX 30201 11968 41315 83503 11015 21018 39767 40054 77177 8672 333 86707 88525
202311301900 AAXX 30191 11968 41315 83604 11017 21020 39773 40060 77377 8572 333 82707 85714 88525
202311301800 AAXX 30181 11968 1111 80103 11018 21021 39777 40064 57020 60082 77344 8802 333 11015 47016 88510
202311301700 AAXX 30171 11968 4109 83602 11018 21021 39788 40076 77374 8802 333 88510
202311301600 AAXX 30161 11968 41209 83401 11020 21023 39792 40080 77174 8172 333 81706 88517
202311301500 AAXX 30151 11968 41209 80000 11021 21024 39797 40085 57018 77174 8172 333 81705 88510
202311301400 AAXX 30141 11968 41209 81301 11019 21022 39802 40090 77174 8172 333 81705 88512
202311301300 AAXX 30131 11968 4112 81602 11020 21024 39808 40097 77144 8802 333 88513
202311301200 AAXX 30121 11968 11207 81201 11020 21026 39815 40104 57026 69951 77374 8272 333 82704 88511
202311301100 AAXX 30111 11968 41550 80002 11016 21033 39826 40115 77177 885 333 81620 88634
202311301000 AAXX 30101 11968 41565 81902 11018 21034 39834 40123 77177 885 333 82628 88656
202311300900 AAXX 30091 11968 41458 81502 11019 21033 39841 40130 58001 77172 885 333 82710 88656
202311300800 AAXX 30081 11968 41456 82104 11020 21030 39846 40136 77122 876 333 85713 87719
202311300700 AAXX 30071 11968 41250 81804 11026 21031 39842 40132 71022 876 333 85705 87711
202311300600 AAXX 30061 11968 12365 61906 11033 21043 39842 40133 57004 60002 83530 333 21075 3110 43009 70000 81707 83642
202311300500 AAXX 30051 11968 42460 72304 11031 21045 39843 40134 85532 333 81710 85641
202311300400 AAXX 30041 11968 42660 72204 11032 21048 39844 40135 8553 333 85640
202311300300 AAXX 30031 11968 42660 72205 11029 21046 39846 40137 52003 875 333 87642
202311300200 AAXX 30021 11968 42660 72204 11038 21052 39844 40136 875 333 87648
202311300100 AAXX 30011 11968 41458 62204 11050 21055 39845 40138 71022 86500 333 81713 86642
202311300000 AAXX 30001 11968 11440 21803 11072 21079 39843 40138 51002 60001 74011 82500 333 55005 82713
202311292300 AAXX 29231 11968 42960 12004 11053 21060 39842 40135 80002 333 81070
202311292200 AAXX 29221 11968 42570 32004 11038 21055 39843 40135 83500 333 82620
202311292100 AAXX 29211 11968 42565 82003 11027 21050 39841 40131 52008 885 333 84622 87648
202311292000 AAXX 29201 11968 42565 81803 11024 21040 39836 40126 885 333 81621 86630
202311291900 AAXX 29191 11968 42665 71802 11026 21040 39836 40126 875 333 84637 86650
202311291800 AAXX 29181 11968 12470 72203 11025 21044 39833 40123 52012 60002 875 333 10003 43009 81716 87650
202311291700 AAXX 29171 11968 42580 62003 11035 21052 39830 40121 86500 333 82620 85645
202311291600 AAXX 29161 11968 42880 61903 11045 21063 39827 40119 86500 333 86657
202311291500 AAXX 29151 11968 42780 61802 11023 21054 39821 40110 52014 86500 333 82656 85657
202311291400 AAXX 29141 11968 42880 51702 11017 21059 39816 40105 85500 333 85657
202311291300 AAXX 29131 11968 42880 51102 11016 21056 39809 40097 85500 333 85657
202311291200 AAXX 29121 11968 12780 60902 11011 21064 39807 40095 52017 60001 83530 333 83656 85358
202311291100 AAXX 29111 11968 42780 63303 10002 21080 39801 40087 83530 333 83656 86358
202311291000 AAXX 29101 11968 42780 60001 10000 21080 39796 40082 82530 333 82650 86358
202311290900 AAXX 29091 11968 42780 60104 11003 21073 39790 40076 52024 82530 333 82650 86358
202311290800 AAXX 29081 11968 42780 63403 11010 21080 39781 40068 83530 333 83650 85358
202311290700 AAXX 29071 11968 42770 73504 11014 21093 39774 40061 81530 333 81650 86358
202311290600 AAXX 29061 11968 12870 70106 11017 21084 39766 40053 52026 60002 87500 333 21018 3103 43010 70096 87657
202311290500 AAXX 29051 11968 4270 73606 11014 21077 39755 40042 87010 333 87458
202311290400 AAXX 29041 11968 42665 73606 11013 21059 39746 40032 81530 333 81640 87358
202311290300 AAXX 29031 11968 42660 83505 11006 21060 39740 40025 52033 8652 333 85635 88460
202311290200 AAXX 29021 11968 42560 83506 11004 21052 39725 40010 8552 333 85630 88458
202311290100 AAXX 29011 11968 42560 73506 11001 21045 39718 40002 85530 333 83632 87358 91012
202311290000 AAXX 29001 11968 12570 83605 10004 21039 39707 49990 52028 60001 8451 333 55000 82627 88458
202311282300 AAXX 28231 11968 42570 83606 10007 21029 39697 49979 8451 333 82626 88457
202311282200 AAXX 28221 11968 42570 83506 10012 21027 39688 49970 8451 333 82625 83650 88457
202311282100 AAXX 28211 11968 42570 80204 10009 21002 39679 49961 52027 8451 333 82625 83656 88457
202311282000 AAXX 28201 11968 42670 80204 10011 21004 39669 49950 84521 333 82648 83656 88461
202311281900 AAXX 28191 11968 42780 80204 10009 21001 39658 49939 8452 333 82650 83657 88461
202311281800 AAXX 28181 11968 11665 80204 10006 20000 39652 49933 52004 60092 70272 8452 333 10008 43011 82648 88461
202311281700 AAXX 28171 11968 41658 80203 10003 20000 39651 49932 72277 8452 333 84646 88556
202311281600 AAXX 28161 11968 41631 83603 10002 20001 39650 49932 77177 8652 333 84640 85650 88558
202311281500 AAXX 28151 11968 41218 80202 10001 20000 39648 49930 58003 77177 8562 333 84706 85715 88534
202311281400 AAXX 28141 11968 41118 80102 10002 20001 39649 49930 77177 8562 333 85703 88516
202311281300 AAXX 28131 11968 41220 83602 10003 20002 39648 49929 77177 8562 333 85706 88509
202311281200 AAXX 28121 11968 11110 83603 10002 21001 39651 49932 57023 60081 77177 8562 333 85703 88513
202311281100 AAXX 28111 11968 41113 80102 10003 20000 39655 49936 77177 8662 333 86703 88505
202311281000 AAXX 28101 11968 41218 80101 10006 20000 39665 49946 77177 8562 333 85704 88509
202311280900 AAXX 28091 11968 41120 81701 10006 20003 39674 49956 57014 77177 8562 333 85702 88503
202311280800 AAXX 28081 11968 41213 80001 11002 21003 39680 49963 77177 8562 333 85704 88511
202311280700 AAXX 28071 11968 41110 80001 11006 21007 39684 49967 77277 8462 333 84703 88504
202311280600 AAXX 28061 11968 11112 83502 11009 21010 39688 49972 56030 60082 77277 8462 333 21018 3102 47008 70077 84703 88508
202311280500 AAXX 28051 11968 41113 80402 11010 21011 39696 49980 77177 8362 333 83703 88506
202311280400 AAXX 28041 11968 41114 80402 11010 21011 39706 49990 77177 8562 333 85703 88507
202311280300 AAXX 28031 11968 41217 80401 11010 21011 39718 40003 57030 77177 8562 333 85704 88510
202311280200 AAXX 28021 11968 41223 80102 11010 21013 39727 40012 77122 8662 333 86704 88507
202311280100 AAXX 28011 11968 41225 80702 11013 21016 39738 40024 77177 8572 333 85704 88508
202311280000 AAXX 28001 11968 1130 80001 11012 21016 39748 40034 57025 69961 77172 8802 333 55046 88504
202311272300 AAXX 27231 11968 4135 80501 11017 21021 39756 40043 77177 8802 333 88504
202311272200 AAXX 27221 11968 4140 80001 11017 21025 39767 40054 77122 8802 333 88506
202311272100 AAXX 27211 11968 41360 83001 11015 21037 39773 40060 57021 72222 886 333 88708
202311272000 AAXX 27201 11968 4162 80101 11016 21038 39781 40068 77177 8802 333 88511
202311271900 AAXX 27191 11968 4162 80401 11017 21042 39791 40079 77177 8802 333 88516
202311271800 AAXX 27181 11968 11460 83001 11017 21044 39794 40082 57009 69902 77122 885 333 10001 87715 88650
202311271700 AAXX 27171 11968 42470 83401 11021 21044 39797 40085 8252 333 82618 88459
202311271600 AAXX 27161 11968 42580 70000 11032 21049 39799 40089 81520 333 81623 87460
202311271500 AAXX 27151 11968 4280 31802 11034 21054 39803 40093 57010 83070 333 83360
202311271400 AAXX 27141 11968 4280 31502 11016 21060 39806 40094 83080 333 83360
202311271300 AAXX 27131 11968 4280 30001 11005 21057 39809 40096 83080 333 83360
202311271200 AAXX 27121 11968 1280 31802 11016 21060 39813 40101 57011 60001 83030 333 83360
202311271100 AAXX 27111 11968 42780 40002 11005 21061 39815 40102 82580 333 82656
202311271000 AAXX 27101 11968 4280 30002 11012 21075 39821 40109 83080 333 83360
202311270900 AAXX 27091 11968 4280 30001 11026 21069 39824 40114 58001 83020 333 83460
202311270800 AAXX 27081 11968 4280 60001 11043 21071 39825 40117 86020 333 84460
202311270700 AAXX 27071 11968 4280 41602 11053 21067 39825 40118 84030 333 84360
202311270600 AAXX 27061 11968 1280 41802 11072 21088 39825 40120 55001 60002 84030 333 21082 34110 70000 84360
202311270500 AAXX 27051 11968 4280 31801 11074 21089 39822 40117 83030 333 83364
202311270400 AAXX 27041 11968 4280 12702 11058 21084 39825 40118 81030 333 81360
202311270300 AAXX 27031 11968 4280 11702 11054 21075 39826 40119 57004 81040 333 81360
202311270200 AAXX 27021 11968 4280 20801 11048 21091 39828 40120 82040 333 82361
202311270100 AAXX 27011 11968 4280 20001 11026 21089 39830 40120 82040 333 82360
202311270000 AAXX 27001 11968 1280 51801 11028 21079 39830 40120 52004 60001 85030 333 55048 85360
202311262300 AAXX 26231 11968 4280 63302 11016 21083 39830 40119 86030 333 86360
202311262200 AAXX 26221 11968 4280 60001 11013 21085 39829 40118 86030 333 86361
202311262100 AAXX 26211 11968 42880 60001 11013 21087 39826 40114 52006 82530 333 82657 86360
202311262000 AAXX 26201 11968 4280 12602 11022 21085 39825 40114 81040 333 81361
202311261900 AAXX 26191 11968 4280 13202 11017 21082 39822 40111 81030 333 81360
202311261800 AAXX 26181 11968 12782 10001 11026 21075 39820 40110 52014 60002 81500 333 10022 81650
202311261700 AAXX 26171 11968 42782 13403 11012 21078 39816 40104 81500 333 81650
202311261600 AAXX 26161 11968 42782 13604 11008 21074 39811 40098 81400 333 81650
202311261500 AAXX 26151 11968 42682 33606 10000 21070 39806 40092 52016 82460 333 82638
202311261400 AAXX 26141 11968 41682 63408 10009 21078 39800 40085 71522 86200 333 81841 83846 91013
202311261300 AAXX 26131 11968 41682 53408 10016 21085 39794 40078 71522 84260 333 83848
202311261200 AAXX 26121 11968 12682 53409 10014 21095 39790 40075 52015 60001 85800 333 83847 83657 91014
202311261100 AAXX 26111 11968 42682 53410 10012 21091 39783 40068 85200 333 83844 83850
202311261000 AAXX 26101 11968 42682 53509 10015 21078 39779 40063 84831 333 81840 83645
202311260900 AAXX 26091 11968 42682 43205 10012 21055 39775 40059 52013 84800 333 81836 83645
202311260800 AAXX 26081 11968 42582 53202 10007 21038 39770 40055 84802 333 81828 84642
202311260700 AAXX 26071 11968 42580 60001 11023 21050 39768 40056 86500 333 82632 85644
202311260600 AAXX 26061 11968 12580 53302 11035 21060 39762 40051 52017 60002 85500 333 21052 34108 70000 81633 85634
202311260500 AAXX 26051 11968 4280 20001 11042 21066 39753 40042 82030 333 82360
202311260400 AAXX 26041 11968 42780 10001 11038 21072 39750 40039 81500 333 81650
202311260300 AAXX 26031 11968 42980 01402 11048 21068 39745 40035 55000
202311260200 AAXX 26021 11968 42680 50102 11015 21062 39743 40029 85500 333 85642
202311260100 AAXX 26011 11968 42680 40001 11046 21063 39746 40036 84500 333 84645
202311260000 AAXX 26001 11968 12982 00001 11036 21059 39745 40034 50001 60001 333 55004
202311252300 AAXX 25231 11968 42982 00001 11033 21061 39749 40037
202311252200 AAXX 25221 11968 42982 00001 11037 21068 39748 40037
202311252100 AAXX 25211 11968 42982 03602 11013 21064 39744 40030 52004
202311252000 AAXX 25201 11968 42782 12201 11015 21055 39743 40029 81500 333 81650
202311251900 AAXX 25191 11968 42682 20001 11015 21050 39742 40028 82500 333 82645
202311251800 AAXX 25181 11968 1282 10303 11017 21052 39740 40026 53009 60002 81030 333 10021 81360
202311251700 AAXX 25171 11968 4282 10404 11010 21054 39734 40019 81030 333 81360
202311251600 AAXX 25161 11968 42782 10404 11011 21059 39730 40015 81500 333 81656
202311251500 AAXX 25151 11968 42782 20206 10006 21058 39731 40015 52017 82500 333 82656
202311251400 AAXX 25141 11968 42780 53616 10019 21064 39722 40004 85500 333 85650
202311251300 AAXX 25131 11968 42570 50108 10022 21048 39718 40000 85500 333 83620 85650 91013
202311251200 AAXX 25121 11968 11570 60207 10017 21015 39714 49996 52006 60001 70242 86800 333 82820 85650
202311251100 AAXX 25111 11968 42170 60603 10020 21001 39713 49994 86500 333 83703 85630
202311251000 AAXX 25101 11968 41125 70002 10004 20004 39709 49992 71022 87600 333 87702
202311250900 AAXX 25091 11968 41111 80002 11004 21005 39708 49992 52009 72822 886 333 88702
202311250800 AAXX 25081 11968 41102 83402 11010 21011 39707 49992 74622 886 333 88702
202311250700 AAXX 25071 11968 41135 89901 11007 21011 39703 49987 71022 886 333 88702
202311250600 AAXX 25061 11968 11257 80002 11022 21028 39699 49985 51008 60002 71043 886 333 21038 34106 70001 88704
202311250500 AAXX 25051 11968 41257 53001 11023 21024 39699 49985 71044 84602 333 84706 84070
202311250400 AAXX 25041 11968 41105 40801 11034 21038 39696 49983 74400 84602 333 84702
202311250300 AAXX 25031 11968 42260 52902 11013 21017 39691 49975 58002 81602 333 81706 85070
202311250200 AAXX 25021 11968 42960 23401 11025 21030 39691 49977 80001 333 82070
202311250100 AAXX 25011 11968 42460 30001 11028 21039 39695 49981 81601 333 81710
202311250000 AAXX 25001 11968 12460 30202 11006 21009 39693 49977 50003 60001 81602 333 55023 81710
202311242300 AAXX 24231 11968 42770 30602 11018 21022 39694 49979 81531 333 81656
202311242200 AAXX 24221 11968 42770 32802 11007 21014 39698 49982 81532 333 81656
202311242100 AAXX 24211 11968 42970 20402 11002 21009 39690 49973 57004 80001 333 82070
202311242000 AAXX 24201 11968 42770 22203 10008 21006 39694 49976 81530 333 81650
202311241900 AAXX 24191 11968 4270 11102 10007 20000 39693 49975 81030 333 81359
202311241800 AAXX 24181 11968 12770 30801 10001 21012 39694 49977 50006 69912 81530 333 10068 81650 83358
202311241700 AAXX 24171 11968 42782 50001 10034 20008 39696 49976 84540 333 84656 83360
202311241600 AAXX 24161 11968 4282 40001 10024 20001 39690 49970 84040 333 84360
202311241500 AAXX 24151 11968 42682 42902 10041 20006 39688 49966 57013 82540 333 82640
202311241400 AAXX 24141 11968 42682 50000 10055 20016 39691 49968 82540 333 82640 83358
202311241300 AAXX 24131 11968 42680 51202 10061 20012 39698 49975 83540 333 82640
202311241200 AAXX 24121 11968 11575 41502 10063 20020 39701 49978 57020 69911 70161 82530 333 82625 83358
202311241100 AAXX 24111 11968 42575 60002 10044 20019 39708 49987 84830 333 81827 85358
202311241000 AAXX 24101 11968 42465 73102 10051 20023 39716 49994 84530 333 81714 84656 86360
202311240900 AAXX 24091 11968 42465 72502 10045 20020 39721 40000 55007 84520 333 81717 83640 87462
202311240800 AAXX 24081 11968 42582 72203 10038 20020 39717 49997 82570 333 82630 87460
202311240700 AAXX 24071 11968 42565 72303 10035 20017 39719 40001 83570 333 81622 83650 86465
202311240600 AAXX 24061 11968 12465 72603 10040 20015 39728 40008 55005 60002 8757 333 21001 31102 70000 81718 83630 86358
202311240500 AAXX 24051 11968 42865 82206 10041 20015 39720 40000 8357 333 83657 86358 88462
202311240400 AAXX 24041 11968 42565 82205 10043 20015 39727 40006 8552 333 85621 88462
202311240300 AAXX 24031 11968 42562 82206 10042 20011 39733 40013 57036 8552 333 85622 88465
202311240200 AAXX 24021 11968 42562 82406 10042 20007 39747 40027 8252 333 82625 88460
202311240100 AAXX 24011 11968 42565 72205 10036 20005 39757 40038 82530 333 82629 86360
202311240000 AAXX 24001 11968 12562 81906 10019 20001 39769 40052 57044 60001 8462 333 55000 84720 88459
202311232300 AAXX 23231 11968 42460 81807 10025 20006 39782 40065 886 333 88718
202311232200 AAXX 23221 11968 42460 81806 10024 20008 39801 40084 886 333 86716 88718
202311232100 AAXX 23211 11968 42462 81905 10022 20003 39813 40097 57042 886 333 88716
202311232000 AAXX 23201 11968 42462 82005 10017 21001 39829 40114 886 333 88717
202311231900 AAXX 23191 11968 42465 51704 10003 21008 39839 40126 83502 333 83619 83070
202311231800 AAXX 23181 11968 12565 41904 11004 21012 39855 40143 57025 60002 84500 333 10012 83620
202311231700 AAXX 23171 11968 42565 62003 11005 21022 39865 40154 86500 333 83623 86650
202311231600 AAXX 23161 11968 42665 52002 10005 21011 39872 40160 85500 333 85648
202311231500 AAXX 23151 11968 42470 52003 10012 21010 39880 40167 57028 85500 333 81715 85645
202311231400 AAXX 23141 11968 42470 81804 10008 21011 39889 40177 885 333 86612
202311231300 AAXX 23131 11968 42462 81804 10004 21015 39899 40188 885 333 86710
202311231200 AAXX 23121 11968 11459 81804 10003 21016 39908 40197 57027 60001 71022 885 333 86710
202311231100 AAXX 23111 11968 41458 81904 11001 21020 39916 40206 71022 886 333 88710
202311231000 AAXX 23101 11968 41358 81805 11008 21019 39929 40220 71022 886 333 88707
202311230900 AAXX 23091 11968 41258 81904 11010 21020 39935 40226 57014 71022 885 333 88706
202311230800 AAXX 23081 11968 42365 81905 11015 21029 39939 40231 885 333 85708 86612
202311230700 AAXX 23071 11968 42470 81903 11021 21038 39944 40237 8653 333 83711 86621
202311230600 AAXX 23061 11968 12575 82202 11027 21044 39949 40243 58004 60002 82530 333 21040 34106 70000 82624 86365
202311230500 AAXX 23051 11968 42580 52302 11032 21046 39950 40244 81530 333 81630 85368
202311230400 AAXX 23041 11968 42580 62401 11033 21050 39954 40248 86500 333 86626
202311230300 AAXX 23031 11968 42780 32401 11035 21050 39953 40248 57015 83500 333 83650
202311230200 AAXX 23021 11968 42580 30000 11035 21053 39961 40256 83500 333 83626
202311230100 AAXX 23011 11968 42980 00001 11031 21056 39963 40258
202311230000 AAXX 23001 11968 12980 00304 11027 21052 39968 40262 55009 60001 333 55061
202311222300 AAXX 22231 11968 42580 20404 11019 21050 39971 40264 82500 333 82620
202311222200 AAXX 22221 11968 42580 40207 11018 21050 39973 40266 84500 333 84622
202311222100 AAXX 22211 11968 42580 50206 11015 21047 39977 40270 52006 85500 333 85622
202311222000 AAXX 22201 11968 42580 40208 11014 21049 39975 40268 84500 333 84620
202311221900 AAXX 22191 11968 42580 40209 11010 21047 39973 40265 84500 333 84620
202311221800 AAXX 22181 11968 12475 60209 11007 21042 39971 40263 52012 60002 86600 333 10023 86718
202311221700 AAXX 22171 11968 42575 60109 11004 21039 39965 40256 86500 333 86620
202311221600 AAXX 22161 11968 42575 60112 11003 21040 39964 40255 86500 333 86620
202311221500 AAXX 22151 11968 42575 50109 11002 21039 39959 40250 51010 85500 333 85622
202311221400 AAXX 22141 11968 42575 40111 10004 21035 39958 40248 84500 333 84624
202311221300 AAXX 22131 11968 42480 30210 10012 21026 39955 40244 83500 333 81617 83628
202311221200 AAXX 22121 11968 12580 30211 10021 21024 39949 40237 53020 60001 83500 333 81621 83627
202311221100 AAXX 22111 11968 42580 40210 10018 21023 39940 40228 84500 333 84620
202311221000 AAXX 22101 11968 42580 60211 10015 21026 39936 40225 86500 333 86620
202311220900 AAXX 22091 11968 42480 10211 10019 21022 39929 40217 51023 81800 333 81818
202311220800 AAXX 22081 11968 42780 30111 10019 21020 39922 40210 82501 333 82650
202311220700 AAXX 22071 11968 42480 30109 10014 21024 39918 40206 81501 333 81716
202311220600 AAXX 22061 11968 12480 40110 10020 21018 39906 40193 52029 60002 83530 333 20020 31001 81716
202311220500 AAXX 22051 11968 42465 70109 10029 20000 39894 40180 87500 333 85716 87650
202311220400 AAXX 22041 11968 42462 70108 10038 20015 39887 40172 87500 333 85713 87650
202311220300 AAXX 22031 11968 42460 83608 10055 20037 39877 40159 52012 885 333 86710 88634
202311220200 AAXX 22021 11968 42460 80105 10063 20046 39870 40151 885 333 83718 88623
202311220100 AAXX 22011 11968 42560 83603 10053 20043 39868 40150 885 333 85626 88645
202311220000 AAXX 22001 11968 11558 83502 10051 20045 39865 40147 50004 60001 71022 885 333 55000 82624 88643
202311212300 AAXX 21231 11968 41240 80103 10050 20046 39867 40150 71022 886 333 88705
202311212200 AAXX 21221 11968 41248 80302 10055 20048 39865 40147 71022 886 333 86704 88706
202311212100 AAXX 21211 11968 41250 80203 10054 20048 39861 40143 52009 71022 886 333 88704
202311212000 AAXX 21201 11968 41257 80203 10056 20052 39857 40139 71022 886 333 88704
202311211900 AAXX 21191 11968 42262 80303 10057 20051 39855 40136 886 333 88705
202311211800 AAXX 21181 11968 11262 80602 10062 20053 39852 40133 52010 60002 70252 886 333 10065 88706
202311211700 AAXX 21171 11968 42362 80002 10061 20054 39849 40130 886 333 88707
202311211600 AAXX 21161 11968 41360 80401 10062 20058 39847 40128 72052 886 333 88707
202311211500 AAXX 21151 11968 41257 70201 10062 20056 39842 40122 53006 75055 87600 333 86706 83637 85657
202311211400 AAXX 21141 11968 41350 70101 10063 20054 39839 40119 75055 87500 333 87707
202311211300 AAXX 21131 11968 41245 82801 10062 20055 39836 40116 75052 886 333 88705
202311211200 AAXX 21121 11968 11245 80001 10061 20054 39836 40116 50000 60001 71042 886 333 88706
202311211100 AAXX 21111 11968 41235 80001 10060 20058 39838 40119 71022 886 333 88704
202311211000 AAXX 21101 11968 41135 80000 10056 20056 39838 40119 71022 886 333 88703
202311210900 AAXX 21091 11968 41120 80001 10052 20052 39836 40117 50009 72842 886 333 88703
202311210800 AAXX 21081 11968 41104 80402 10052 20052 39836 40117 74444 886 333 88702
202311210700 AAXX 21071 11968 41102 80001 10051 20051 39837 40118 74444 886 333 88702
202311210600 AAXX 21061 11968 11102 80002 10049 20049 39827 40108 53003 69932 74654 886 333 20042 31004 70003 88702
202311210500 AAXX 21051 11968 41107 80401 10047 20047 39823 40105 74422 886 333 88702
202311210400 AAXX 21041 11968 41115 80001 10048 20048 39826 40108 72844 886 333 88702
202311210300 AAXX 21031 11968 41108 82101 10048 20048 39824 40106 55000 74455 886 333 88702
202311210200 AAXX 21021 11968 41109 80001 10047 20047 39823 40105 74444 886 333 88702
202311210100 AAXX 21011 11968 41106 81702 10046 20046 39826 40108 75055 886 333 88703
202311210000 AAXX 21001 11968 11104 81201 10047 20047 39824 40106 57003 69931 75055 886 333 55000 88703
202311202300 AAXX 20231 11968 41106 82001 10046 20046 39824 40106 75055 886 333 88702
202311202200 AAXX 20221 11968 41109 81701 10045 20045 39828 40110 75055 886 333 88702
202311202100 AAXX 20211 11968 41105 82501 10044 20044 39827 40109 56001 75144 886 333 88702
202311202000 AAXX 20201 11968 41105 83501 10043 20043 39827 40109 75155 886 333 88702
202311201900 AAXX 20191 11968 41106 83301 10042 20042 39827 40109 75122 886 333 88702
202311201800 AAXX 20181 11968 11112 83601 10042 20042 39828 40110 57002 69902 71054 886 333 10043 88702
202311201700 AAXX 20171 11968 41115 80000 10042 20042 39830 40112 71022 886 333 88702
202311201600 AAXX 20161 11968 41117 81801 10042 20042 39828 40110 72854 876 333 87702
202311201500 AAXX 20151 11968 41107 81801 10040 20040 39830 40112 57007 75154 886 333 88702
202311201400 AAXX 20141 11968 41104 81902 10039 20039 39832 40115 75154 886 333 88702
202311201300 AAXX 20131 11968 41107 82003 10036 20036 39834 40117 75154 886 333 88702
202311201200 AAXX 20121 11968 11109 82501 10035 20035 39837 40120 57011 69901 75144 886 333 88702
202311201100 AAXX 20111 11968 41115 80000 10030 20028 39842 40126 75155 886 333 86702 88704
202311201000 AAXX 20101 11968 41114 80001 10025 20024 39845 40130 75122 886 333 88702
202311200900 AAXX 20091 11968 41144 82301 10024 20018 39848 40133 50000 71022 886 333 86703 88705
202311200800 AAXX 20081 11968 41158 82101 10023 20014 39849 40134 71022 886 333 84703 88706
202311200700 AAXX 20071 11968 41257 82302 10022 20016 39850 40135 71022 886 333 84704 88708
202311200600 AAXX 20061 11968 11258 82003 10022 20015 39848 40133 55002 60002 71022 886 333 20016 31001 70004 88704
202311200500 AAXX 20051 11968 42260 82302 10022 20012 39846 40131 886 333 88705
202311200400 AAXX 20041 11968 42360 80001 10022 20013 39848 40133 886 333 88708
202311200300 AAXX 20031 11968 42360 80001 10022 20013 39850 40135 55005 886 333 88708
202311200200 AAXX 20021 11968 42360 72002 10022 20013 39849 40134 876 333 87708
202311200100 AAXX 20011 11968 42260 82304 10021 20014 39853 40138 886 333 88706
202311200000 AAXX 20001 11968 12360 82304 10021 20012 39855 40140 55005 60001 886 333 55005 88707
202311192300 AAXX 19231 11968 42260 82204 10020 20013 39854 40140 886 333 85706 88709
202311192200 AAXX 19221 11968 42360 72204 10020 20011 39858 40144 87600 333 85708 87712
202311192100 AAXX 19211 11968 42360 82205 10019 20010 39860 40146 55001 886 333 88707
202311192000 AAXX 19201 11968 42360 72206 10018 20008 39859 40145 87600 333 87707
202311191900 AAXX 19191 11968 42360 72205 10018 20008 39860 40146 87600 333 87708 91010
202311191800 AAXX 19181 11968 11360 82105 10017 20007 39861 40147 57012 69942 70265 886 333 10029 88708
202311191700 AAXX 19171 11968 41358 81905 10014 20008 39865 40151 75166 887 333 88708
202311191600 AAXX 19161 11968 41256 81905 10011 20008 39870 40157 76066 886 333 88705
202311191500 AAXX 19151 11968 41358 81805 10013 20004 39873 40160 57019 76066 886 333 88707
202311191400 AAXX 19141 11968 41456 82006 10018 20003 39874 40160 76122 886 333 88710
202311191300 AAXX 19131 11968 42465 81906 10024 21004 39882 40168 885 333 88618
202311191200 AAXX 19121 11968 12570 82005 10027 21009 39892 40178 57017 60001 885 333 85620 87657
202311191100 AAXX 19111 11968 42470 71905 10026 21010 39896 40182 84530 333 84618 85360
202311191000 AAXX 19101 11968 42470 72103 10014 21013 39904 40192 87500 333 82715 87625
202311190900 AAXX 19091 11968 42470 72204 10011 21014 39909 40197 58006 87500 333 82713 87630
202311190800 AAXX 19081 11968 42970 52002 10007 21014 39911 40200 80002 333 85072
202311190700 AAXX 19071 11968 42570 52402 11001 21020 39917 40207 81502 333 81622 85075
202311190600 AAXX 19061 11968 12970 42602 11010 21020 39915 40206 57016 60002 80002 333 21011 31103 70000 84072
202311190500 AAXX 19051 11968 42570 50502 10002 21027 39918 40207 83501 333 83623 83075
202311190400 AAXX 19041 11968 42570 60402 10004 21021 39924 40213 86500 333 86622
202311190300 AAXX 19031 11968 42570 60304 10013 21021 39931 40220 57012 86500 333 86620
202311190200 AAXX 19021 11968 42570 60404 10014 21018 39937 40226 86500 333 86620
202311190100 AAXX 19011 11968 42570 60304 10017 21015 39941 40229 86500 333 86620
202311190000 AAXX 19001 11968 12570 60205 10018 21016 39943 40231 58004 60001 86500 333 55000 86620
202311182300 AAXX 18231 11968 42570 60206 10020 21020 39945 40233 86500 333 86622
202311182200 AAXX 18221 11968 42570 60207 10022 21016 39947 40235 86500 333 86623
202311182100 AAXX 18211 11968 42570 60207 10023 21015 39947 40235 53008 86500 333 86623
202311182000 AAXX 18201 11968 42570 60205 10025 21020 39943 40231 86500 333 86626
202311181900 AAXX 18191 11968 42570 60107 10027 21020 39937 40224 86500 333 86625 91012
202311181800 AAXX 18181 11968 12570 60106 10027 21020 39939 40226 52020 60002 86500 333 10057 86626
202311181700 AAXX 18171 11968 42570 60107 10029 21020 39935 40222 86500 333 86627
202311181600 AAXX 18161 11968 42570 60107 10032 21014 39928 40214 86500 333 86626
202311181500 AAXX 18151 11968 42570 60109 10034 21010 39919 40205 52023 85530 333 82625 85633
202311181400 AAXX 18141 11968 42570 70208 10042 20002 39908 40193 85520 333 82622 84631 87459
202311181300 AAXX 18131 11968 42670 73609 10054 21013 39901 40184 85510 333 83634 87459
202311181200 AAXX 18121 11968 12570 73510 10054 21017 39896 40179 52013 60001 87500 333 82633 87658
202311181100 AAXX 18111 11968 42570 70207 10052 20002 39887 40170 87500 333 82630 87656
202311181000 AAXX 18101 11968 42670 70108 10051 21001 39883 40166 87500 333 82635 87656
202311180900 AAXX 18091 11968 42670 70108 10049 21005 39883 40166 52018 87500 333 82635 87656
202311180800 AAXX 18081 11968 42580 70108 10049 21009 39880 40163 87500 333 81630 87657
202311180700 AAXX 18071 11968 42780 70107 10048 21012 39874 40157 82530 333 82650 86358 91012
202311180600 AAXX 18061 11968 12780 73608 10047 21015 39865 40148 52007 69902 82530 333 20043 31004 70125 82650 86359
202311180500 AAXX 18051 11968 4180 73608 10045 21015 39862 40145 70277 87020 333 87460
202311180400 AAXX 18041 11968 4275 73608 10044 21014 39863 40146 87020 333 87459
202311180300 AAXX 18031 11968 4270 73607 10045 21017 39858 40141 52011 87070 333 87359
202311180200 AAXX 18021 11968 4270 73506 10045 21017 39855 40138 83038 333 83360 87270
202311180100 AAXX 18011 11968 42770 73507 10044 21012 39851 40134 83506 333 83656 86270
202311180000 AAXX 18001 11968 11670 83509 10049 21011 39847 40129 52016 69901 70366 885 333 55000 81643 88650
202311172300 AAXX 17231 11968 4270 73508 10048 21012 39842 40124 87020 333 87460
202311172200 AAXX 17221 11968 42670 83609 10049 21007 39838 40120 8152 333 81645 88460
202311172100 AAXX 17211 11968 4170 83510 10052 21004 39831 40113 52012 70266 8802 333 88461
202311172000 AAXX 17201 11968 4175 83609 10054 20006 39826 40107 72122 8802 333 88460
202311171900 AAXX 17191 11968 4175 83607 10059 20020 39822 40102 76066 8802 333 88459
202311171800 AAXX 17181 11968 11670 80106 10062 20034 39819 40099 52013 60122 76166 8152 333 10065 81640 88460
202311171700 AAXX 17171 11968 4170 80305 10060 20045 39817 40097 76166 8802 333 88534
202311171600 AAXX 17161 11968 41670 80305 10060 20048 39809 40089 76166 8457 333 83640 83357 88558
202311171500 AAXX 17151 11968 41470 80105 10059 20047 39806 40086 53006 76166 8452 333 82715 83635 88557
202311171400 AAXX 17141 11968 41360 80206 10063 20049 39802 40081 76166 8452 333 82708 83647 88557
202311171300 AAXX 17131 11968 41359 80205 10064 20049 39800 40079 76166 8452 333 82708 87537
202311171200 AAXX 17121 11968 11359 80104 10064 20058 39800 40079 55000 60111 76166 83720 333 82708 87525
202311171100 AAXX 17111 11968 41359 80303 10063 20057 39798 40077 76166 8272 333 82707 88520
202311171000 AAXX 17101 11968 41257 80303 10062 20056 39798 40077 76166 8472 333 82704 84708 88513
202311170900 AAXX 17091 11968 41250 80302 10062 20059 39800 40079 56003 76166 8272 333 82704 88527
202311170800 AAXX 17081 11968 41456 80001 10061 20057 39801 40080 76166 886 333 88711
202311170700 AAXX 17071 11968 4158 81302 10060 20053 39800 40080 76166 8802 333 88517
202311170600 AAXX 17061 11968 1157 81503 10060 20054 39803 40083 57014 60122 76166 8802 333 20046 32003 70117 88524
202311170500 AAXX 17051 11968 4157 81402 10063 20056 39806 40085 76166 8802 333 88520
202311170400 AAXX 17041 11968 4150 81503 10065 20054 39810 40089 76166 8802 333 88520
202311170300 AAXX 17031 11968 41545 80001 10058 20055 39817 40097 57027 76166 8352 333 83625 88533
202311170200 AAXX 17021 11968 41540 80501 10055 20054 39821 40102 76166 8352 333 83633 88541
202311170100 AAXX 17011 11968 4135 80501 10054 20052 39836 40117 76166 8802 333 88536
202311170000 AAXX 17001 11968 11450 80901 10055 20052 39844 40125 57022 60021 76122 8172 333 55028 81711 88536
202311162300 AAXX 16231 11968 41557 82602 10057 20051 39852 40133 76122 8252 333 82622 88539
202311162200 AAXX 16221 11968 42870 80001 10052 20046 39857 40139 8552 333 85657 88459
202311162100 AAXX 16211 11968 42870 60000 10048 20044 39866 40149 58011 84530 333 84657 85368
202311162000 AAXX 16201 11968 42870 70902 10057 20046 39874 40156 85520 333 85657 87459
202311161900 AAXX 16191 11968 42570 72201 10063 20048 39877 40158 82520 333 82633 87458
202311161800 AAXX 16181 11968 12670 70001 10066 20048 39877 40158 57008 60002 82530 333 10096 82634 87358
202311161700 AAXX 16171 11968 42670 62301 10067 20047 39881 40162 86500 333 86635
202311161600 AAXX 16161 11968 42670 41902 10075 20053 39884 40164 84500 333 84637
202311161500 AAXX 16151 11968 42670 41703 10072 20050 39885 40166 57011 84500 333 84635
202311161400 AAXX 16141 11968 42570 41603 10087 20054 39887 40166 84500 333 84622
202311161300 AAXX 16131 11968 42480 21603 10083 20052 39891 40171 82500 333 82618
202311161200 AAXX 16121 11968 12580 52402 10084 20053 39896 40176 57010 60001 83531 333 83620
202311161100 AAXX 16111 11968 42480 41804 10088 20054 39899 40178 81531 333 81615 83360
202311161000 AAXX 16101 11968 4280 20001 10083 20036 39905 40185 81031 333 81360
202311160900 AAXX 16091 11968 42670 30001 10065 20038 39906 40188 52008 82531 333 82642
202311160800 AAXX 16081 11968 42770 60001 10040 20024 39905 40190 86500 333 86650
202311160700 AAXX 16071 11968 42770 40001 10029 20013 39903 40189 84500 333 84650
202311160600 AAXX 16061 11968 12870 40000 10010 20003 39898 40186 52015 60002 84500 333 21004 34102 70005 84658
202311160500 AAXX 16051 11968 42870 10001 10012 20000 39891 40178 81500 333 81658
202311160400 AAXX 16041 11968 42980 03301 10000 21016 39888 40177
202311160300 AAXX 16031 11968 42670 23402 10023 20002 39883 40169 52013 82500 333 82635
202311160200 AAXX 16021 11968 42770 20001 10015 20003 39879 40166 81530 333 81650
202311160100 AAXX 16011 11968 42770 20001 10040 20012 39875 40159 81530 333 81650
202311160000 AAXX 16001 11968 12770 20001 10044 20007 39870 40153 52013 60001 82500 333 55026 82650
202311152300 AAXX 15231 11968 42780 32502 10060 20021 39864 40146 83500 333 83650
202311152200 AAXX 15221 11968 42670 60001 10061 20033 39861 40142 86500 333 86648
202311152100 AAXX 15211 11968 42770 33503 10068 20032 39857 40138 52021 83500 333 83650
202311152000 AAXX 15201 11968 42770 50001 10072 20047 39851 40131 85500 333 85650
202311151900 AAXX 15191 11968 42670 50000 10066 20039 39844 40124 84530 333 84647
202311151800 AAXX 15181 11968 11770 50001 10083 20052 39836 40114 52023 69952 70366 84530 333 10123 84650 83364
202311151700 AAXX 15171 11968 42670 43003 10092 20038 39830 40107 84500 333 84647
202311151600 AAXX 15161 11968 42665 53503 10099 20061 39823 40099 85500 333 82648 84656
202311151500 AAXX 15151 11968 41665 60402 10091 20080 39813 40090 52022 70366 84532 333 84635
202311151400 AAXX 15141 11968 41765 50002 10098 20086 39803 40079 72166 83532 333 83656 83070
202311151300 AAXX 15131 11968 41662 73404 10105 20084 39801 40076 76066 87500 333 87635
202311151200 AAXX 15121 11968 11665 72403 10117 20072 39791 40064 52010 69901 76011 87500 333 83645 87657
202311151100 AAXX 15111 11968 42565 70002 10122 20069 39786 40059 87500 333 83625 85656
202311151000 AAXX 15101 11968 42465 52403 10109 20078 39782 40056 84541 333 81715 84650
202311150900 AAXX 15091 11968 42462 62305 10103 20072 39781 40056 52011 85541 333 82715 84645
202311150800 AAXX 15081 11968 42462 62306 10096 20074 39777 40052 86541 333 83710 84650
202311150700 AAXX 15071 11968 42762 42306 10087 20070 39774 40050 83531 333 83650
202311150600 AAXX 15061 11968 11362 42307 10080 20069 39770 40047 57009 69962 70166 83630 333 20054 31004 70006 83708
202311150500 AAXX 15051 11968 41458 52205 10081 20073 39775 40052 71022 85600 333 85710
202311150400 AAXX 15041 11968 41458 72005 10081 20075 39776 40053 71022 87500 333 83710 86656
202311150300 AAXX 15031 11968 41357 72103 10078 20072 39779 40056 58006 71062 86630 333 83708 86656
202311150200 AAXX 15021 11968 41462 81902 10074 20066 39782 40060 76066 8462 333 82712 88559
202311150100 AAXX 15011 11968 41570 81702 10072 20063 39787 40065 76066 8552 333 82624 88459
202311150000 AAXX 15001 11968 11780 81202 10070 20059 39785 40063 57014 69911 76062 8452 333 55020 84656 88458
202311142300 AAXX 14231 11968 42782 81301 10081 20052 39788 40065 8252 333 82656 88460
202311142200 AAXX 14221 11968 42782 80001 10075 20050 39796 40074 8252 333 82656 88462
202311142100 AAXX 14211 11968 4280 82304 10059 20047 39799 40079 57013 8802 333 88464
202311142000 AAXX 14201 11968 4280 62102 10065 20040 39804 40083 86030 333 86367
202311141900 AAXX 14191 11968 42980 50001 10062 20045 39808 40088 80002 333 85070
202311141800 AAXX 14181 11968 1282 50002 10062 20052 39812 40092 52012 60002 85030 333 10129 85367
202311141700 AAXX 14171 11968 4270 50001 10064 20056 39811 40090 85030 333 85368
202311141600 AAXX 14161 11968 4270 42902 10089 20070 39806 40083 81032 333 81364 84070
202311141500 AAXX 14151 11968 42570 62305 10115 20054 39800 40074 55002 81532 333 81620 83365
202311141400 AAXX 14141 11968 42570 42306 10124 20073 39800 40073 81532 333 81620 83365
202311141300 AAXX 14131 11968 42470 52204 10118 20079 39798 40072 82602 333 82715 85070
202311141200 AAXX 14121 11968 12470 52204 10124 20085 39802 40075 57008 60001 82632 333 82715 84070
202311141100 AAXX 14111 11968 42460 62204 10102 20080 39806 40081 84602 333 84712 85070
202311141000 AAXX 14101 11968 42460 60001 10087 20072 39810 40087 85601 333 83710 85712
202311140900 AAXX 14091 11968 42260 72404 10073 20062 39810 40088 52015 87600 333 84706 87709
202311140800 AAXX 14081 11968 42360 72102 10069 20060 39807 40086 87600 333 87707
202311140700 AAXX 14071 11968 42260 72303 10060 20056 39807 40087 87600 333 87705
202311140500 AAXX 14051 11968 41250 81704 10060 20057 39792 40071 76066 886 333 84705 88710
202311140400 AAXX 14041 11968 41240 82004 10056 20053 39801 40081 76022 886 333 88704
202311140300 AAXX 14031 11968 41138 82006 10054 20052 39800 40080 56022 71062 886 333 88703
202311140200 AAXX 14021 11968 41136 81905 10052 20049 39807 40088 71022 886 333 83703 88705
202311140100 AAXX 14011 11968 41356 81905 10050 20044 39815 40096 71062 886 333 82707 86712
202311140000 AAXX 14001 11968 11358 81904 10049 20040 39822 40103 57022 60001 71022 886 333 55011 88709
202311132300 AAXX 13231 11968 42465 81904 10049 20037 39831 40113 886 333 82710 86713
202311132200 AAXX 13221 11968 42470 82003 10047 20034 39836 40118 8653 333 84710 85625
202311132100 AAXX 13211 11968 42570 81803 10048 20028 39844 40126 58009 8653 333 86621
202311132000 AAXX 13201 11968 42570 82003 10049 20029 39847 40129 8653 333 86621
202311131900 AAXX 13191 11968 42570 81904 10050 20027 39853 40135 885 333 88625
202311131800 AAXX 13181 11968 12570 72004 10049 20023 39853 40135 57004 60002 875 333 10071 87627
202311131700 AAXX 13171 11968 42570 62202 10050 20022 39856 40138 86502 333 86629
202311131600 AAXX 13161 11968 42680 52502 10055 20030 39855 40137 85500 333 85646
202311131500 AAXX 13151 11968 42680 61903 10051 20030 39857 40139 57012 86502 333 86637
202311131400 AAXX 13141 11968 42680 60002 10060 20035 39860 40141 84532 333 84637 83070
202311131300 AAXX 13131 11968 42580 60001 10069 20030 39862 40142 86500 333 84630
202311131200 AAXX 13121 11968 12465 60001 10065 20029 39869 40150 57015 60001 84502 333 81710 84635
202311131100 AAXX 13111 11968 42262 60001 10062 20035 39873 40154 86500 333 81706 84640
202311131000 AAXX 13101 11968 41259 60001 10044 20027 39879 40163 71022 86500 333 81704 84646
202311130900 AAXX 13091 11968 41240 70001 10034 20028 39884 40169 51010 71022 87500 333 82704 86645
202311130800 AAXX 13081 11968 41030 70001 10031 20030 39884 40169 71022 87500 333 83701 86642
202311130700 AAXX 13071 11968 41059 61401 10027 20024 39882 40168 71022 86500 333 81701 86640
202311130600 AAXX 13061 11968 11045 62902 10018 20016 39874 40160 53001 60002 74042 86500 333 20013 31000 70044 82701 84642
202311130500 AAXX 13051 11968 41048 60001 10017 20017 39871 40157 74022 86500 333 81701 83640 85648
202311130400 AAXX 13041 11968 41129 63502 10017 20017 39872 40158 74022 86500 333 83702 86656
202311130300 AAXX 13031 11968 41115 70001 10022 20022 39873 40159 52010 72842 87600 333 87703
202311130200 AAXX 13021 11968 41120 73602 10024 20024 39869 40154 74044 87600 333 87702
202311130100 AAXX 13011 11968 41102 80001 10025 20025 39868 40153 74244 887 333 86702 88707
202311130000 AAXX 13001 11968 11103 80001 10028 20028 39863 40148 52009 60001 74611 886 333 55014 88702
202311122300 AAXX 12231 11968 41015 70001 10033 20030 39861 40145 74022 87600 333 83701 87711
202311122200 AAXX 12221 11968 41239 60001 10024 20021 39856 40141 74011 86500 333 84704 86639
202311122100 AAXX 12211 11968 41235 40001 10032 20030 39854 40138 52016 74000 84600 333 84706
202311122000 AAXX 12201 11968 42470 30000 10035 20034 39849 40133 83500 333 81719 83640
202311121900 AAXX 12191 11968 42470 40001 10049 20045 39843 40125 84500 333 82719 84628
202311121700 AAXX 12171 11968 42570 60201 10058 20049 39834 40115 85830 333 81832 85648
202311121600 AAXX 12161 11968 41570 70902 10062 20048 39830 40110 72588 8683 333 82820 85629
202311121500 AAXX 12151 11968 41456 73003 10063 20048 39825 40105 52015 78022 8623 333 81711 86825
202311121400 AAXX 12141 11968 42580 71604 10078 20051 39818 40096 8683 333 82822 84635
202311121300 AAXX 12131 11968 42480 71704 10077 20052 39814 40092 84832 333 81817 83648
202311121200 AAXX 12121 11968 12480 72304 10077 20052 39810 40088 52011 60001 8483 333 81811 84641
202311121100 AAXX 12111 11968 42480 62404 10080 20049 39806 40084 82830 333 81813 85359
202311121000 AAXX 12101 11968 42480 72404 10082 20044 39803 40080 8387 333 81810 83637 86359
202311120900 AAXX 12091 11968 42480 62304 10074 20055 39799 40077 52020 82870 333 81810 85357
202311120800 AAXX 12081 11968 42380 72403 10064 20054 39793 40072 83530 333 81707 83641 86358
202311120700 AAXX 12071 11968 42380 62303 10050 20043 39788 40068 82530 333 81707 86359
202311120600 AAXX 12061 11968 11275 72301 10048 20041 39779 40059 52022 60062 70262 82570 333 20048 32004 70073 81705 86360
202311120500 AAXX 12051 11968 42670 62602 10054 20045 39770 40049 81570 333 81635 86359
202311120400 AAXX 12041 11968 42765 72502 10055 20040 39763 40042 82530 333 82650 86359
202311120300 AAXX 12031 11968 41765 62602 10059 20037 39757 40036 52012 70166 86500 333 86650
202311120200 AAXX 12021 11968 41762 70001 10061 20034 39751 40029 72166 87500 333 87656
202311120100 AAXX 12011 11968 4162 83203 10061 20038 39749 40027 76166 8802 333 88525
202311120000 AAXX 12001 11968 1162 83302 10061 20043 39745 40023 52008 60061 76166 8802 333 55000 88545
202311112300 AAXX 11231 11968 4162 83403 10062 20042 39743 40021 76166 8802 333 88535
202311112200 AAXX 11221 11968 4162 83403 10071 20051 39740 40017 76166 8802 333 88530
202311112100 AAXX 11211 11968 4160 83202 10073 20062 39737 40013 52005 76166 8802 333 88526
202311112000 AAXX 11201 11968 4160 82802 10074 20070 39736 40012 76166 8802 333 88520
202311111900 AAXX 11191 11968 4160 82902 10074 20070 39734 40010 76166 8802 333 88523
202311111800 AAXX 11181 11968 1160 83202 10078 20063 39732 40008 52003 69982 76162 8802 333 10088 88523
202311111700 AAXX 11171 11968 41565 83302 10077 20066 39731 40007 76122 885 333 88625
202311111600 AAXX 11161 11968 42565 83401 10073 20067 39730 40006 885 333 84632 88647
202311111500 AAXX 11151 11968 41465 80701 10072 20068 39729 40005 55002 70262 885 333 81715 86650 88657
202311111400 AAXX 11141 11968 41462 81002 10077 20070 39728 40004 72122 885 333 82715 84630 88656
202311111300 AAXX 11131 11968 41265 80802 10085 20068 39729 40004 76122 885 333 81705 86647 88650
202311111200 AAXX 11121 11968 11568 70403 10084 20060 39731 40006 57014 69901 70255 87500 333 81620 87656
202311111100 AAXX 11111 11968 42465 70303 10083 20064 39733 40008 85520 333 82610 85656 87460
202311111000 AAXX 11101 11968 42361 80402 10078 20061 39740 40016 885 333 82708 85611 88633
202311110900 AAXX 11091 11968 41257 80203 10070 20058 39745 40022 50001 71055 885 333 85705 88634
202311110800 AAXX 11081 11968 41256 80203 10067 20061 39746 40023 71022 886 333 88704
202311110700 AAXX 11071 11968 41250 80202 10061 20060 39747 40025 72022 886 333 88704
202311110600 AAXX 11061 11968 11238 80103 10060 20058 39744 40022 57008 60032 75166 886 333 20053 31004 70034 87705 88706
202311110500 AAXX 11051 11968 41257 80201 10061 20060 39745 40023 71022 886 333 81705 87708
202311110400 AAXX 11041 11968 41256 80202 10061 20060 39747 40025 72166 886 333 81706 88710
202311110300 AAXX 11031 11968 41240 80102 10060 20058 39752 40030 57010 76162 887 333 82704 88709
202311110200 AAXX 11021 11968 41350 83602 10058 20056 39755 40033 76166 887 333 88707
202311110100 AAXX 11011 11968 41356 83402 10058 20055 39759 40038 71062 886 333 87708
202311110000 AAXX 11001 11968 11460 83503 10059 20050 39762 40041 57021 60011 76062 8762 333 55025 87711
202311102300 AAXX 10231 11968 41465 83602 10058 20049 39769 40048 72166 8762 333 87714
202311102200 AAXX 10221 11968 41565 83602 10056 20046 39777 40056 76166 8452 333 84620 88527
202311102100 AAXX 10211 11968 41562 83401 10057 20040 39783 40062 57018 76166 8152 333 81632 88549
202311102000 AAXX 10201 11968 41670 83602 10058 20028 39789 40069 76122 8452 333 84648 88457
202311101900 AAXX 10191 11968 42670 83402 10061 20020 39797 40076 8157 333 81640 83358 87462
202311101800 AAXX 10181 11968 12670 82802 10061 20029 39801 40081 57008 60002 8157 333 10097 81634 83359 87461
202311101700 AAXX 10171 11968 42770 73502 10073 20024 39807 40086 8152 333 81650 87459
202311101600 AAXX 10161 11968 42770 70000 10070 20025 39809 40088 82520 333 82656 87459
202311101500 AAXX 10151 11968 4270 72002 10073 20024 39809 40088 57020 87020 333 87458
202311101400 AAXX 10141 11968 4280 72303 10080 20022 39816 40094 87020 333 87460
202311101300 AAXX 10131 11968 4280 72103 10081 20015 39823 40101 87020 333 87461
202311101200 AAXX 10121 11968 1280 72103 10083 20023 39829 40107 57019 60001 87020 333 87463
202311101100 AAXX 10111 11968 42780 61905 10087 20023 39833 40111 81538 333 81656 83360 85268
202311101000 AAXX 10101 11968 42770 21807 10092 20023 39842 40120 81541 333 81656
202311100900 AAXX 10091 11968 42770 31905 10084 20024 39848 40127 57005 81541 333 81656 83070
202311100800 AAXX 10081 11968 42770 32103 10069 20018 39851 40131 83500 333 83656
202311100700 AAXX 10071 11968 42770 60002 10056 20019 39853 40135 86500 333 86656
202311100600 AAXX 10061 11968 12770 62104 10053 20020 39853 40135 55009 60002 86500 333 20042 31002 70000 86656
202311100500 AAXX 10051 11968 42770 52104 10053 20021 39851 40133 85500 333 85656
202311100400 AAXX 10041 11968 42770 52003 10057 20024 39856 40138 85500 333 85650
202311100300 AAXX 10031 11968 42770 42103 10055 20025 39862 40144 57012 84500 333 84650
202311100200 AAXX 10021 11968 42770 42103 10060 20025 39865 40147 84500 333 84650
202311100100 AAXX 10011 11968 42770 31402 10051 20024 39871 40154 83500 333 83650
202311100000 AAXX 10001 11968 12770 32602 10060 20030 39874 40156 57013 60001 83500 333 55034 83656
202311092300 AAXX 09231 11968 42770 62002 10057 20035 39877 40159 86500 333 86650
202311092200 AAXX 09221 11968 42770 52001 10050 20030 39882 40165 85500 333 85650
202311092100 AAXX 09211 11968 42770 32603 10052 20032 39887 40170 57010 83500 333 83656
202311092000 AAXX 09201 11968 42770 12303 10058 20035 39893 40176 81500 333 81656
202311091900 AAXX 09191 11968 42970 02203 10058 20040 39896 40179
202311091800 AAXX 09181 11968 12770 21903 10059 20039 39897 40180 57002 60002 81502 333 10101 81650
202311091700 AAXX 09171 11968 42770 51903 10052 20034 39898 40181 81502 333 81650 85070
202311091600 AAXX 09161 11968 42770 61904 10066 20041 39898 40180 81502 333 81650 86070
202311091500 AAXX 09151 11968 42780 61906 10087 20053 39899 40179 57013 81102 333 81850 85070
202311091400 AAXX 09141 11968 42580 51906 10092 20056 39904 40183 81102 333 81825 85070
202311091300 AAXX 09131 11968 42580 42006 10098 20056 39907 40186 81102 333 81824 84070
202311091200 AAXX 09121 11968 11480 41806 10098 20063 39912 40191 58009 60001 70144 81102 333 81810 83070
202311091100 AAXX 09111 11968 41180 31804 10079 20067 39913 40194 72844 81602 333 81703
202311091000 AAXX 09101 11968 41405 50002 10052 20052 39920 40204 74244 85600 333 85710
202311090900 AAXX 09091 11968 41101 80001 10032 20032 39921 40207 51004 74444 886 333 88702
202311090800 AAXX 09081 11968 41001 80001 10025 20025 39921 40208 74444 886 333 88701
202311090700 AAXX 09071 11968 41001 81302 10026 20026 39920 40207 74644 886 333 88701
202311090600 AAXX 09061 11968 11002 80000 10026 20026 39917 40204 53002 60002 74422 886 333 20017 31000 70010 88701
202311090500 AAXX 09051 11968 41003 80001 10028 20028 39914 40200 74444 886 333 88701
202311090400 AAXX 09041 11968 41003 80001 10032 20032 39915 40201 74244 886 333 88701
202311090300 AAXX 09031 11968 41002 80001 10036 20036 39915 40200 53004 74622 886 333 88701
202311090200 AAXX 09021 11968 41103 80001 10037 20037 39912 40197 74622 886 333 88702
202311090100 AAXX 09011 11968 41130 80000 10038 20035 39911 40196 74022 886 333 88702
202311090000 AAXX 09001 11968 11150 81802 10032 20029 39911 40197 51003 60001 74041 886 333 55006 86702 88704
202311082300 AAXX 08231 11968 41257 60001 10032 20023 39911 40197 71011 86600 333 86705
202311082200 AAXX 08221 11968 41250 22901 10028 20025 39910 40196 74040 82600 333 82706
202311082100 AAXX 08211 11968 41106 20001 10037 20036 39908 40193 52009 74600 82600 333 82702
202311082000 AAXX 08201 11968 4168 10102 10045 20042 39907 40191 74000 81040 333 81358
202311081900 AAXX 08191 11968 41868 10001 10055 20052 39902 40185 74000 81500 333 81657
202311081800 AAXX 08181 11968 11870 31902 10065 20064 39899 40181 52008 60012 74011 82502 333 10111 82657
202311081700 AAXX 08171 11968 42680 40001 10077 20072 39897 40177 83430 333 81643 83650
202311081600 AAXX 08161 11968 42580 72002 10086 20078 39895 40174 85840 333 81820 84637
202311081500 AAXX 08151 11968 42682 71702 10089 20080 39891 40170 52014 86530 333 83635 85640
202311081400 AAXX 08141 11968 42682 72002 10095 20076 39886 40164 85542 333 81635 84650
202311081300 AAXX 08131 11968 42482 71902 10103 20070 39882 40159 84542 333 81718 84645
202311081200 AAXX 08121 11968 11275 62502 10100 20067 39877 40155 53002 60011 70262 81540 333 81704 85368
202311081100 AAXX 08111 11968 41175 70001 10096 20054 39875 40153 72162 84510 333 81702 84656 86460
202311081000 AAXX 08101 11968 41465 70002 10088 20055 39875 40154 76066 85520 333 81718 85647 87461
202311080900 AAXX 08091 11968 41460 81301 10075 20063 39875 40155 52017 76062 8652 333 81717 86644 88460
202311080800 AAXX 08081 11968 42462 83602 10072 20057 39869 40149 8552 333 82715 85630 88461
202311080700 AAXX 08071 11968 42565 60002 10062 20052 39865 40146 82520 333 82626 86460
202311080600 AAXX 08061 11968 12465 50203 10050 20046 39858 40140 58001 60002 82770 333 20036 31002 70000 82715 83362
202311080500 AAXX 08051 11968 42465 40402 10059 20048 39858 40139 83531 333 83715
202311080400 AAXX 08041 11968 42465 40104 10063 20052 39860 40141 83530 333 83713
202311080300 AAXX 08031 11968 42460 73605 10072 20060 39859 40139 57007 87600 333 87710
202311080200 AAXX 08021 11968 41358 73603 10071 20064 39856 40136 71022 87600 333 87707
